{
  "neighborhoods": [
    {
      "id": 11449,
      "district_id": 162,
      "name": "ABBAS MAH (MAKARACI KÖYÜ)",
      "area": "MERKEZKÖYLER",
      "postal_code": "74310"
    },
    {
      "id": 11450,
      "district_id": 162,
      "name": "AFEREN MAH (KOCAKÖY KÖYÜ)",
      "area": "MERKEZKÖYLER",
      "postal_code": "74310"
    },
    {
      "id": 11451,
      "district_id": 162,
      "name": "AĞ MAH (GÖÇKÜN KÖYÜ)",
      "area": "MERKEZKÖYLER",
      "postal_code": "74310"
    },
    {
      "id": 11452,
      "district_id": 162,
      "name": "AHMETLER MAH (ÇANAKÇILAR KÖYÜ)",
      "area": "MERKEZKÖYLER",
      "postal_code": "74310"
    },
    {
      "id": 11453,
      "district_id": 162,
      "name": "AKKONAK KÖYÜ",
      "area": "MERKEZKÖYLER",
      "postal_code": "74310"
    },
    {
      "id": 11454,
      "district_id": 162,
      "name": "ANKULAR MAH (ÇANAKÇILAR KÖYÜ)",
      "area": "MERKEZKÖYLER",
      "postal_code": "74310"
    },
    {
      "id": 11455,
      "district_id": 162,
      "name": "AŞAĞI MAH (AHATLAR KÖYÜ)",
      "area": "MERKEZKÖYLER",
      "postal_code": "74310"
    },
    {
      "id": 11456,
      "district_id": 162,
      "name": "AŞAĞI MAH (SARAYDÜZÜ KÖYÜ)",
      "area": "MERKEZKÖYLER",
      "postal_code": "74310"
    },
    {
      "id": 11457,
      "district_id": 162,
      "name": "AŞAĞI MEYDAN MAH (GÖMÜ KÖYÜ)",
      "area": "MERKEZKÖYLER",
      "postal_code": "74310"
    },
    {
      "id": 11458,
      "district_id": 162,
      "name": "AZİMLER MAH (İNCİĞEZ KÖYÜ)",
      "area": "MERKEZKÖYLER",
      "postal_code": "74310"
    },
    {
      "id": 11459,
      "district_id": 162,
      "name": "BALDIRAN MAH (GÖÇKÜNDEMİRCİ KÖYÜ)",
      "area": "MERKEZKÖYLER",
      "postal_code": "74310"
    },
    {
      "id": 11460,
      "district_id": 162,
      "name": "BEŞİRLER MAH (ACARLAR KÖYÜ)",
      "area": "MERKEZKÖYLER",
      "postal_code": "74310"
    },
    {
      "id": 11461,
      "district_id": 162,
      "name": "BOSTANLAR KÖYÜ",
      "area": "MERKEZKÖYLER",
      "postal_code": "74310"
    },
    {
      "id": 11462,
      "district_id": 162,
      "name": "BOZTEPE MAH",
      "area": "AMASRA",
      "postal_code": "74300"
    },
    {
      "id": 11463,
      "district_id": 162,
      "name": "ÇAMCI MAH (YAHYAYAZICILAR KÖYÜ)",
      "area": "MERKEZKÖYLER",
      "postal_code": "74310"
    },
    {
      "id": 11464,
      "district_id": 162,
      "name": "CAMİ ÖNÜ MAH (İNCİĞEZ KÖYÜ)",
      "area": "MERKEZKÖYLER",
      "postal_code": "74310"
    },
    {
      "id": 11465,
      "district_id": 162,
      "name": "ÇAPAK MEVKİİ MAH (GÖMÜ KÖYÜ)",
      "area": "MERKEZKÖYLER",
      "postal_code": "74310"
    },
    {
      "id": 11466,
      "district_id": 162,
      "name": "CAVCAV MAH (GÖMÜ KÖYÜ)",
      "area": "MERKEZKÖYLER",
      "postal_code": "74310"
    },
    {
      "id": 11467,
      "district_id": 162,
      "name": "ÇINAR YOLU MAH (GÖMÜ KÖYÜ)",
      "area": "MERKEZKÖYLER",
      "postal_code": "74310"
    },
    {
      "id": 11468,
      "district_id": 162,
      "name": "DADA MAH (ESENLER KÖYÜ)",
      "area": "MERKEZKÖYLER",
      "postal_code": "74310"
    },
    {
      "id": 11469,
      "district_id": 162,
      "name": "DAĞ MAH (YUKARISAL KÖYÜ)",
      "area": "MERKEZKÖYLER",
      "postal_code": "74310"
    },
    {
      "id": 11470,
      "district_id": 162,
      "name": "DEDE MAH (GÖÇKÜNDEMİRCİ KÖYÜ)",
      "area": "MERKEZKÖYLER",
      "postal_code": "74310"
    },
    {
      "id": 11471,
      "district_id": 162,
      "name": "DEMİRCİLER MAH (KAZPINARI KÖYÜ)",
      "area": "MERKEZKÖYLER",
      "postal_code": "74310"
    },
    {
      "id": 11472,
      "district_id": 162,
      "name": "DEMİRCİLER MAH (YUKARISAL KÖYÜ)",
      "area": "MERKEZKÖYLER",
      "postal_code": "74310"
    },
    {
      "id": 11473,
      "district_id": 162,
      "name": "DEREDİBİ MAH (KOCAKÖY KÖYÜ)",
      "area": "MERKEZKÖYLER",
      "postal_code": "74310"
    },
    {
      "id": 11474,
      "district_id": 162,
      "name": "DEREMESCİT MAH (KOCAKÖY KÖYÜ)",
      "area": "MERKEZKÖYLER",
      "postal_code": "74310"
    },
    {
      "id": 11475,
      "district_id": 162,
      "name": "DİNDAR MAH (HATİPLER KÖYÜ)",
      "area": "MERKEZKÖYLER",
      "postal_code": "74310"
    },
    {
      "id": 11476,
      "district_id": 162,
      "name": "DOĞANCI MAH (CUMAYANI KÖYÜ)",
      "area": "MERKEZKÖYLER",
      "postal_code": "74310"
    },
    {
      "id": 11477,
      "district_id": 162,
      "name": "DÜZ MAH (MAKARACI KÖYÜ)",
      "area": "MERKEZKÖYLER",
      "postal_code": "74310"
    },
    {
      "id": 11478,
      "district_id": 162,
      "name": "ESKİLER MAH (GÖMÜ KÖYÜ)",
      "area": "MERKEZKÖYLER",
      "postal_code": "74310"
    },
    {
      "id": 11479,
      "district_id": 162,
      "name": "FATİH MAH",
      "area": "AMASRA",
      "postal_code": "74300"
    },
    {
      "id": 11480,
      "district_id": 162,
      "name": "FER MAH (ESENLER KÖYÜ)",
      "area": "MERKEZKÖYLER",
      "postal_code": "74310"
    },
    {
      "id": 11481,
      "district_id": 162,
      "name": "GÖYNÜK MAH (ALİOBASI KÖYÜ)",
      "area": "MERKEZKÖYLER",
      "postal_code": "74310"
    },
    {
      "id": 11482,
      "district_id": 162,
      "name": "İNPİRİ KÖYÜ",
      "area": "MERKEZKÖYLER",
      "postal_code": "74310"
    },
    {
      "id": 11483,
      "district_id": 162,
      "name": "KADI MAH (KALAYCI KÖYÜ)",
      "area": "MERKEZKÖYLER",
      "postal_code": "74310"
    },
    {
      "id": 11484,
      "district_id": 162,
      "name": "KALEİÇİ MAH",
      "area": "AMASRA",
      "postal_code": "74300"
    },
    {
      "id": 11485,
      "district_id": 162,
      "name": "KALEŞAH MAH",
      "area": "AMASRA",
      "postal_code": "74300"
    },
    {
      "id": 11486,
      "district_id": 162,
      "name": "KARA YUSUFLAR MAH (KAZPINARI KÖYÜ)",
      "area": "MERKEZKÖYLER",
      "postal_code": "74310"
    },
    {
      "id": 11487,
      "district_id": 162,
      "name": "KARŞI MAH (ŞENYURT KÖYÜ)",
      "area": "MERKEZKÖYLER",
      "postal_code": "74310"
    },
    {
      "id": 11488,
      "district_id": 162,
      "name": "KAYRAN BAŞI MAH (GÖMÜ KÖYÜ)",
      "area": "MERKEZKÖYLER",
      "postal_code": "74310"
    },
    {
      "id": 11489,
      "district_id": 162,
      "name": "KECİNLER MAH (ACARLAR KÖYÜ)",
      "area": "MERKEZKÖYLER",
      "postal_code": "74310"
    },
    {
      "id": 11490,
      "district_id": 162,
      "name": "KESTANELİK MAH (ÇANAKÇILAR KÖYÜ)",
      "area": "MERKEZKÖYLER",
      "postal_code": "74310"
    },
    {
      "id": 11491,
      "district_id": 162,
      "name": "KÖKYOL MAH (MAKARACI KÖYÜ)",
      "area": "MERKEZKÖYLER",
      "postal_code": "74310"
    },
    {
      "id": 11492,
      "district_id": 162,
      "name": "KÖKYOL MAH (SARAYDÜZÜ KÖYÜ)",
      "area": "MERKEZKÖYLER",
      "postal_code": "74310"
    },
    {
      "id": 11493,
      "district_id": 162,
      "name": "KONAKLAR MAH (CUMAYANI KÖYÜ)",
      "area": "MERKEZKÖYLER",
      "postal_code": "74310"
    },
    {
      "id": 11494,
      "district_id": 162,
      "name": "KONUKLAR MAH (KARAKAÇAK KÖYÜ)",
      "area": "MERKEZKÖYLER",
      "postal_code": "74310"
    },
    {
      "id": 11495,
      "district_id": 162,
      "name": "KÖPRÜBAŞI MAH (ŞENYURT KÖYÜ)",
      "area": "MERKEZKÖYLER",
      "postal_code": "74310"
    },
    {
      "id": 11496,
      "district_id": 162,
      "name": "KÖY ORTASI MAH (GÖMÜ KÖYÜ)",
      "area": "MERKEZKÖYLER",
      "postal_code": "74310"
    },
    {
      "id": 11497,
      "district_id": 162,
      "name": "KÖY ORTASI MAH (SARAYDÜZÜ KÖYÜ)",
      "area": "MERKEZKÖYLER",
      "postal_code": "74310"
    },
    {
      "id": 11498,
      "district_id": 162,
      "name": "KÜÇÜKÖREN MAH (TOPALLAR KÖYÜ)",
      "area": "MERKEZKÖYLER",
      "postal_code": "74310"
    },
    {
      "id": 11499,
      "district_id": 162,
      "name": "KUM MAH",
      "area": "AMASRA",
      "postal_code": "74300"
    },
    {
      "id": 11500,
      "district_id": 162,
      "name": "KUYUPINAR MAH (ÇAKRAZBOZ KÖYÜ)",
      "area": "MERKEZKÖYLER",
      "postal_code": "74310"
    },
    {
      "id": 11501,
      "district_id": 162,
      "name": "MERKEZ MAH (ACARLAR KÖYÜ)",
      "area": "MERKEZKÖYLER",
      "postal_code": "74310"
    },
    {
      "id": 11502,
      "district_id": 162,
      "name": "MERKEZ MAH (ALİOBASI KÖYÜ)",
      "area": "MERKEZKÖYLER",
      "postal_code": "74310"
    },
    {
      "id": 11503,
      "district_id": 162,
      "name": "MERKEZ MAH (ÇAKRAZBOZ KÖYÜ)",
      "area": "MERKEZKÖYLER",
      "postal_code": "74310"
    },
    {
      "id": 11504,
      "district_id": 162,
      "name": "MERKEZ MAH (ÇAKRAZOVA KÖYÜ)",
      "area": "MERKEZKÖYLER",
      "postal_code": "74310"
    },
    {
      "id": 11505,
      "district_id": 162,
      "name": "MERKEZ MAH (ÇAKRAZŞEYHLER KÖYÜ)",
      "area": "MERKEZKÖYLER",
      "postal_code": "74310"
    },
    {
      "id": 11506,
      "district_id": 162,
      "name": "MERKEZ MAH (ÇANAKÇILAR KÖYÜ)",
      "area": "MERKEZKÖYLER",
      "postal_code": "74310"
    },
    {
      "id": 11507,
      "district_id": 162,
      "name": "MERKEZ MAH (CUMAYANI KÖYÜ)",
      "area": "MERKEZKÖYLER",
      "postal_code": "74310"
    },
    {
      "id": 11508,
      "district_id": 162,
      "name": "MERKEZ MAH (ESENLER KÖYÜ)",
      "area": "MERKEZKÖYLER",
      "postal_code": "74310"
    },
    {
      "id": 11509,
      "district_id": 162,
      "name": "MERKEZ MAH (GÖÇKÜN KÖYÜ)",
      "area": "MERKEZKÖYLER",
      "postal_code": "74310"
    },
    {
      "id": 11510,
      "district_id": 162,
      "name": "MERKEZ MAH (GÖÇKÜNDEMİRCİ KÖYÜ)",
      "area": "MERKEZKÖYLER",
      "postal_code": "74310"
    },
    {
      "id": 11511,
      "district_id": 162,
      "name": "MERKEZ MAH (HATİPLER KÖYÜ)",
      "area": "MERKEZKÖYLER",
      "postal_code": "74310"
    },
    {
      "id": 11512,
      "district_id": 162,
      "name": "MERKEZ MAH (KALAYCI KÖYÜ)",
      "area": "MERKEZKÖYLER",
      "postal_code": "74310"
    },
    {
      "id": 11513,
      "district_id": 162,
      "name": "MERKEZ MAH (KARAKAÇAK KÖYÜ)",
      "area": "MERKEZKÖYLER",
      "postal_code": "74310"
    },
    {
      "id": 11514,
      "district_id": 162,
      "name": "MERKEZ MAH (KAZPINARI KÖYÜ)",
      "area": "MERKEZKÖYLER",
      "postal_code": "74310"
    },
    {
      "id": 11515,
      "district_id": 162,
      "name": "MERKEZ MAH (KOCAKÖY KÖYÜ)",
      "area": "MERKEZKÖYLER",
      "postal_code": "74310"
    },
    {
      "id": 11516,
      "district_id": 162,
      "name": "MERKEZ MAH (MAKARACI KÖYÜ)",
      "area": "MERKEZKÖYLER",
      "postal_code": "74310"
    },
    {
      "id": 11517,
      "district_id": 162,
      "name": "MERKEZ MAH (TOPALLAR KÖYÜ)",
      "area": "MERKEZKÖYLER",
      "postal_code": "74310"
    },
    {
      "id": 11518,
      "district_id": 162,
      "name": "MERKEZ MAH (YAHYAYAZICILAR KÖYÜ)",
      "area": "MERKEZKÖYLER",
      "postal_code": "74310"
    },
    {
      "id": 11519,
      "district_id": 162,
      "name": "MERKEZ MAH (YUKARISAL KÖYÜ)",
      "area": "MERKEZKÖYLER",
      "postal_code": "74310"
    },
    {
      "id": 11520,
      "district_id": 162,
      "name": "MEŞELİ MAH (ÇANAKÇILAR KÖYÜ)",
      "area": "MERKEZKÖYLER",
      "postal_code": "74310"
    },
    {
      "id": 11521,
      "district_id": 162,
      "name": "MEYDAN MAH (İNCİĞEZ KÖYÜ)",
      "area": "MERKEZKÖYLER",
      "postal_code": "74310"
    },
    {
      "id": 11522,
      "district_id": 162,
      "name": "MEYDAN MAH (KOCAKÖY KÖYÜ)",
      "area": "MERKEZKÖYLER",
      "postal_code": "74310"
    },
    {
      "id": 11523,
      "district_id": 162,
      "name": "MEYDAN2 MAH (KOCAKÖY KÖYÜ)",
      "area": "MERKEZKÖYLER",
      "postal_code": "74310"
    },
    {
      "id": 11524,
      "district_id": 162,
      "name": "OKULLAR MAH (ÇAKRAZŞEYHLER KÖYÜ)",
      "area": "MERKEZKÖYLER",
      "postal_code": "74310"
    },
    {
      "id": 11525,
      "district_id": 162,
      "name": "ORTA KÖYÜ MAH (İNCİĞEZ KÖYÜ)",
      "area": "MERKEZKÖYLER",
      "postal_code": "74310"
    },
    {
      "id": 11526,
      "district_id": 162,
      "name": "ORTA MAH (ÇAKRAZŞEYHLER KÖYÜ)",
      "area": "MERKEZKÖYLER",
      "postal_code": "74310"
    },
    {
      "id": 11527,
      "district_id": 162,
      "name": "ORTA MAH (ŞENYURT KÖYÜ)",
      "area": "MERKEZKÖYLER",
      "postal_code": "74310"
    },
    {
      "id": 11528,
      "district_id": 162,
      "name": "ÖTEKÖY MAH (SARAYDÜZÜ KÖYÜ)",
      "area": "MERKEZKÖYLER",
      "postal_code": "74310"
    },
    {
      "id": 11529,
      "district_id": 162,
      "name": "OVACIK MAH (KARAKAÇAK KÖYÜ)",
      "area": "MERKEZKÖYLER",
      "postal_code": "74310"
    },
    {
      "id": 11530,
      "district_id": 162,
      "name": "SARI AHMETLER MAH (KAZPINARI KÖYÜ)",
      "area": "MERKEZKÖYLER",
      "postal_code": "74310"
    },
    {
      "id": 11531,
      "district_id": 162,
      "name": "SAZAKLAR MAH (İNCİĞEZ KÖYÜ)",
      "area": "MERKEZKÖYLER",
      "postal_code": "74310"
    },
    {
      "id": 11532,
      "district_id": 162,
      "name": "SERENLİ MAH (MAKARACI KÖYÜ)",
      "area": "MERKEZKÖYLER",
      "postal_code": "74310"
    },
    {
      "id": 11533,
      "district_id": 162,
      "name": "ŞÜKÜRLER KÖYÜ",
      "area": "MERKEZKÖYLER",
      "postal_code": "74310"
    },
    {
      "id": 11534,
      "district_id": 162,
      "name": "TARLAAĞZI KÖYÜ",
      "area": "MERKEZKÖYLER",
      "postal_code": "74310"
    },
    {
      "id": 11535,
      "district_id": 162,
      "name": "TAŞLIK MAH (SARAYDÜZÜ KÖYÜ)",
      "area": "MERKEZKÖYLER",
      "postal_code": "74310"
    },
    {
      "id": 11536,
      "district_id": 162,
      "name": "TOPDERESİ KÖYÜ",
      "area": "MERKEZKÖYLER",
      "postal_code": "74310"
    },
    {
      "id": 11537,
      "district_id": 162,
      "name": "YERKÖY MAH (ÇAKRAZOVA KÖYÜ)",
      "area": "MERKEZKÖYLER",
      "postal_code": "74310"
    },
    {
      "id": 11538,
      "district_id": 162,
      "name": "YESİRLER MAH (KOCAKÖY KÖYÜ)",
      "area": "MERKEZKÖYLER",
      "postal_code": "74310"
    },
    {
      "id": 11539,
      "district_id": 162,
      "name": "YÖRÜKLER MAH (YAHYAYAZICILAR KÖYÜ)",
      "area": "MERKEZKÖYLER",
      "postal_code": "74310"
    },
    {
      "id": 11540,
      "district_id": 162,
      "name": "YUKARI MAH (AHATLAR KÖYÜ)",
      "area": "MERKEZKÖYLER",
      "postal_code": "74310"
    },
    {
      "id": 11541,
      "district_id": 162,
      "name": "YUKARI MAH (GÖMÜ KÖYÜ)",
      "area": "MERKEZKÖYLER",
      "postal_code": "74310"
    },
    {
      "id": 11542,
      "district_id": 162,
      "name": "YUKARI MAH (SARAYDÜZÜ KÖYÜ)",
      "area": "MERKEZKÖYLER",
      "postal_code": "74310"
    },
    {
      "id": 11543,
      "district_id": 162,
      "name": "YUKARI MAH (ŞENYURT KÖYÜ)",
      "area": "MERKEZKÖYLER",
      "postal_code": "74310"
    },
    {
      "id": 11544,
      "district_id": 162,
      "name": "ZİCA MAH (YAHYAYAZICILAR KÖYÜ)",
      "area": "MERKEZKÖYLER",
      "postal_code": "74310"
    },
    {
      "id": 11545,
      "district_id": 163,
      "name": "AKÇABELEN MAH (SARIDERESİ KÖYÜ)",
      "area": "MERKEZKÖYLER",
      "postal_code": "74510"
    },
    {
      "id": 11546,
      "district_id": 163,
      "name": "ALAPINAR KÖYÜ",
      "area": "MERKEZKÖYLER",
      "postal_code": "74510"
    },
    {
      "id": 11547,
      "district_id": 163,
      "name": "ATAKDİBİ MAH (KÖMEÇ KÖYÜ)",
      "area": "MERKEZKÖYLER",
      "postal_code": "74510"
    },
    {
      "id": 11548,
      "district_id": 163,
      "name": "ÇAYALTI KÖYÜ",
      "area": "MERKEZKÖYLER",
      "postal_code": "74510"
    },
    {
      "id": 11549,
      "district_id": 163,
      "name": "ÇAYIRLI MAH (ELVANLAR KÖYÜ)",
      "area": "MERKEZKÖYLER",
      "postal_code": "74510"
    },
    {
      "id": 11550,
      "district_id": 163,
      "name": "ÇENGELLİ MAH (MEYDAN KÖYÜ)",
      "area": "MERKEZKÖYLER",
      "postal_code": "74510"
    },
    {
      "id": 11551,
      "district_id": 163,
      "name": "ÇUKURKÖY MAH (SARIDERESİ KÖYÜ)",
      "area": "MERKEZKÖYLER",
      "postal_code": "74510"
    },
    {
      "id": 11552,
      "district_id": 163,
      "name": "CURUNLU KÖYÜ",
      "area": "MERKEZKÖYLER",
      "postal_code": "74510"
    },
    {
      "id": 11553,
      "district_id": 163,
      "name": "DANİŞMENT KÖYÜ",
      "area": "MERKEZKÖYLER",
      "postal_code": "74510"
    },
    {
      "id": 11554,
      "district_id": 163,
      "name": "DATÇA MAH (DİZLERMEZECİ KÖYÜ)",
      "area": "MERKEZKÖYLER",
      "postal_code": "74510"
    },
    {
      "id": 11555,
      "district_id": 163,
      "name": "DEMİRCİ KÖYÜ",
      "area": "MERKEZKÖYLER",
      "postal_code": "74510"
    },
    {
      "id": 11556,
      "district_id": 163,
      "name": "DERE MAH (AYDOĞMUŞ KÖYÜ)",
      "area": "MERKEZKÖYLER",
      "postal_code": "74510"
    },
    {
      "id": 11557,
      "district_id": 163,
      "name": "DİP MAH (İLYASGEÇİDİ KÖYÜ)",
      "area": "MERKEZKÖYLER",
      "postal_code": "74510"
    },
    {
      "id": 11558,
      "district_id": 163,
      "name": "DİZLER MAH (DİZLERMEZECİ KÖYÜ)",
      "area": "MERKEZKÖYLER",
      "postal_code": "74510"
    },
    {
      "id": 11559,
      "district_id": 163,
      "name": "ESENTEPE MAH (PAŞALILAR KÖYÜ)",
      "area": "MERKEZKÖYLER",
      "postal_code": "74510"
    },
    {
      "id": 11560,
      "district_id": 163,
      "name": "GÜRGENLİK MAH (PAŞALILAR KÖYÜ)",
      "area": "MERKEZKÖYLER",
      "postal_code": "74510"
    },
    {
      "id": 11561,
      "district_id": 163,
      "name": "GÜRGENLİK MAH (SARIDERESİ KÖYÜ)",
      "area": "MERKEZKÖYLER",
      "postal_code": "74510"
    },
    {
      "id": 11562,
      "district_id": 163,
      "name": "HACIKÖY KÖYÜ",
      "area": "MERKEZKÖYLER",
      "postal_code": "74510"
    },
    {
      "id": 11563,
      "district_id": 163,
      "name": "HASANLAR MAH (KARAMAN KÖYÜ)",
      "area": "MERKEZKÖYLER",
      "postal_code": "74510"
    },
    {
      "id": 11564,
      "district_id": 163,
      "name": "HİSARKÖY KÖYÜ",
      "area": "MERKEZKÖYLER",
      "postal_code": "74510"
    },
    {
      "id": 11565,
      "district_id": 163,
      "name": "HÜSEYİN PAŞA MAH (PAŞALILAR KÖYÜ)",
      "area": "MERKEZKÖYLER",
      "postal_code": "74510"
    },
    {
      "id": 11566,
      "district_id": 163,
      "name": "KALEKÖY KÖYÜ",
      "area": "MERKEZKÖYLER",
      "postal_code": "74510"
    },
    {
      "id": 11567,
      "district_id": 163,
      "name": "KANATLI KÖYÜ",
      "area": "MERKEZKÖYLER",
      "postal_code": "74510"
    },
    {
      "id": 11568,
      "district_id": 163,
      "name": "KAPISUYU KÖYÜ",
      "area": "MERKEZKÖYLER",
      "postal_code": "74510"
    },
    {
      "id": 11569,
      "district_id": 163,
      "name": "KARGACAK MAH",
      "area": "KURUCAŞİLE",
      "postal_code": "74500"
    },
    {
      "id": 11570,
      "district_id": 163,
      "name": "KARŞIGEÇE MAH (BAŞKÖY KÖYÜ)",
      "area": "MERKEZKÖYLER",
      "postal_code": "74510"
    },
    {
      "id": 11571,
      "district_id": 163,
      "name": "KAŞALTI MAH (KARAMAN KÖYÜ)",
      "area": "MERKEZKÖYLER",
      "postal_code": "74510"
    },
    {
      "id": 11572,
      "district_id": 163,
      "name": "KAVAKLI KÖYÜ",
      "area": "MERKEZKÖYLER",
      "postal_code": "74510"
    },
    {
      "id": 11573,
      "district_id": 163,
      "name": "KAYALI MAH (KÖMEÇ KÖYÜ)",
      "area": "MERKEZKÖYLER",
      "postal_code": "74510"
    },
    {
      "id": 11574,
      "district_id": 163,
      "name": "KİRLİKMÜSLİMHOCA KÖYÜ",
      "area": "MERKEZKÖYLER",
      "postal_code": "74510"
    },
    {
      "id": 11575,
      "district_id": 163,
      "name": "LİMAN MAH",
      "area": "KURUCAŞİLE",
      "postal_code": "74500"
    },
    {
      "id": 11576,
      "district_id": 163,
      "name": "MERKEZ MAH (AYDOĞMUŞ KÖYÜ)",
      "area": "MERKEZKÖYLER",
      "postal_code": "74510"
    },
    {
      "id": 11577,
      "district_id": 163,
      "name": "MERKEZ MAH (BAŞKÖY KÖYÜ)",
      "area": "MERKEZKÖYLER",
      "postal_code": "74510"
    },
    {
      "id": 11578,
      "district_id": 163,
      "name": "MERKEZ MAH (ELVANLAR KÖYÜ)",
      "area": "MERKEZKÖYLER",
      "postal_code": "74510"
    },
    {
      "id": 11579,
      "district_id": 163,
      "name": "MERKEZ MAH (İLYASGEÇİDİ KÖYÜ)",
      "area": "MERKEZKÖYLER",
      "postal_code": "74510"
    },
    {
      "id": 11580,
      "district_id": 163,
      "name": "MERKEZ MAH (KARAMAN KÖYÜ)",
      "area": "MERKEZKÖYLER",
      "postal_code": "74510"
    },
    {
      "id": 11581,
      "district_id": 163,
      "name": "MERKEZ MAH (KÖMEÇ KÖYÜ)",
      "area": "MERKEZKÖYLER",
      "postal_code": "74510"
    },
    {
      "id": 11582,
      "district_id": 163,
      "name": "MERKEZ MAH (MEYDAN KÖYÜ)",
      "area": "MERKEZKÖYLER",
      "postal_code": "74510"
    },
    {
      "id": 11583,
      "district_id": 163,
      "name": "MERKEZ MAH (ZİYARETKÖY KÖYÜ)",
      "area": "MERKEZKÖYLER",
      "postal_code": "74510"
    },
    {
      "id": 11584,
      "district_id": 163,
      "name": "MERYEMLER MAH (BAŞKÖY KÖYÜ)",
      "area": "MERKEZKÖYLER",
      "postal_code": "74510"
    },
    {
      "id": 11585,
      "district_id": 163,
      "name": "MEZECİ MAH (DİZLERMEZECİ KÖYÜ)",
      "area": "MERKEZKÖYLER",
      "postal_code": "74510"
    },
    {
      "id": 11586,
      "district_id": 163,
      "name": "ÖMERLER KÖYÜ",
      "area": "MERKEZKÖYLER",
      "postal_code": "74510"
    },
    {
      "id": 11587,
      "district_id": 163,
      "name": "ÖMERLER MAH",
      "area": "KURUCAŞİLE",
      "postal_code": "74500"
    },
    {
      "id": 11588,
      "district_id": 163,
      "name": "OVATEKKEÖNÜ KÖYÜ",
      "area": "MERKEZKÖYLER",
      "postal_code": "74510"
    },
    {
      "id": 11589,
      "district_id": 163,
      "name": "ŞABANLAR MAH (PAŞALILAR KÖYÜ)",
      "area": "MERKEZKÖYLER",
      "postal_code": "74510"
    },
    {
      "id": 11590,
      "district_id": 163,
      "name": "SARIDERESİ KÖYÜ",
      "area": "MERKEZKÖYLER",
      "postal_code": "74510"
    },
    {
      "id": 11591,
      "district_id": 163,
      "name": "ŞEYHLER KÖYÜ",
      "area": "MERKEZKÖYLER",
      "postal_code": "74510"
    },
    {
      "id": 11592,
      "district_id": 163,
      "name": "ŞİLE MAH",
      "area": "KURUCAŞİLE",
      "postal_code": "74500"
    },
    {
      "id": 11593,
      "district_id": 163,
      "name": "ŞİMŞİRDERE MAH (ZİYARETKÖY KÖYÜ)",
      "area": "MERKEZKÖYLER",
      "postal_code": "74510"
    },
    {
      "id": 11594,
      "district_id": 163,
      "name": "UĞURLU KÖYÜ",
      "area": "MERKEZKÖYLER",
      "postal_code": "74510"
    },
    {
      "id": 11595,
      "district_id": 163,
      "name": "YAKACI MAH (DİZLERMEZECİ KÖYÜ)",
      "area": "MERKEZKÖYLER",
      "postal_code": "74510"
    },
    {
      "id": 11596,
      "district_id": 163,
      "name": "YALI MAH (KARAMAN KÖYÜ)",
      "area": "MERKEZKÖYLER",
      "postal_code": "74510"
    },
    {
      "id": 11597,
      "district_id": 163,
      "name": "YAYLACIK MAH (PAŞALILAR KÖYÜ)",
      "area": "MERKEZKÖYLER",
      "postal_code": "74510"
    },
    {
      "id": 11598,
      "district_id": 163,
      "name": "YENİCE MAH (MEYDAN KÖYÜ)",
      "area": "MERKEZKÖYLER",
      "postal_code": "74510"
    },
    {
      "id": 11599,
      "district_id": 163,
      "name": "YENİKÖY KÖYÜ",
      "area": "MERKEZKÖYLER",
      "postal_code": "74510"
    },
    {
      "id": 11600,
      "district_id": 164,
      "name": "ABDULLAHOĞLU MAH (KÖYYERİ KÖYÜ)",
      "area": "KOZCAĞIZ",
      "postal_code": "74400"
    },
    {
      "id": 11601,
      "district_id": 164,
      "name": "ABDULLAHOĞLU MAH (MAMAK KÖYÜ)",
      "area": "KOZCAĞIZ",
      "postal_code": "74400"
    },
    {
      "id": 11602,
      "district_id": 164,
      "name": "AĞBAŞI MAH (AKBAŞ KÖYÜ)",
      "area": "KOZCAĞIZ",
      "postal_code": "74400"
    },
    {
      "id": 11603,
      "district_id": 164,
      "name": "AĞDACI MAH",
      "area": "DEMİRCİLER",
      "postal_code": "74100"
    },
    {
      "id": 11604,
      "district_id": 164,
      "name": "AHATLAR MAH (BAYIRYÜZÜ KÖYÜ)",
      "area": "MERKEZKÖYLER",
      "postal_code": "74110"
    },
    {
      "id": 11605,
      "district_id": 164,
      "name": "AHATLI MAH (ULUGEÇİTKADI KÖYÜ)",
      "area": "MERKEZKÖYLER",
      "postal_code": "74110"
    },
    {
      "id": 11606,
      "district_id": 164,
      "name": "AHCIOĞLU MAH (BEŞKÖPRÜ KÖYÜ)",
      "area": "MERKEZKÖYLER",
      "postal_code": "74110"
    },
    {
      "id": 11607,
      "district_id": 164,
      "name": "AHMETLER MAH (KAYADİBİKAVLAK KÖYÜ)",
      "area": "MERKEZKÖYLER",
      "postal_code": "74110"
    },
    {
      "id": 11608,
      "district_id": 164,
      "name": "AKÇAKÖY MAH (ŞAHNE KÖYÜ)",
      "area": "MERKEZKÖYLER",
      "postal_code": "74110"
    },
    {
      "id": 11609,
      "district_id": 164,
      "name": "AKGÖZ KÖYÜ",
      "area": "MERKEZKÖYLER",
      "postal_code": "74110"
    },
    {
      "id": 11610,
      "district_id": 164,
      "name": "ALAÇAM MAH (GENÇALİ KÖYÜ)",
      "area": "MERKEZKÖYLER",
      "postal_code": "74110"
    },
    {
      "id": 11611,
      "district_id": 164,
      "name": "ALADAĞ MAH",
      "area": "YENİSANAYİ",
      "postal_code": "74200"
    },
    {
      "id": 11612,
      "district_id": 164,
      "name": "ALDIRAK MAH (KIŞLAKÖY KÖYÜ)",
      "area": "MERKEZKÖYLER",
      "postal_code": "74110"
    },
    {
      "id": 11613,
      "district_id": 164,
      "name": "ALİBAŞ KÖYÜ",
      "area": "MERKEZKÖYLER",
      "postal_code": "74110"
    },
    {
      "id": 11614,
      "district_id": 164,
      "name": "ALİEFENDİ MAH (ÇEŞTEPE KÖYÜ)",
      "area": "MERKEZKÖYLER",
      "postal_code": "74110"
    },
    {
      "id": 11615,
      "district_id": 164,
      "name": "ARABACI MAH (AKÇALI KÖYÜ)",
      "area": "MERKEZKÖYLER",
      "postal_code": "74110"
    },
    {
      "id": 11616,
      "district_id": 164,
      "name": "AŞAĞI 1 MAH (GERİŞ KÖYÜ)",
      "area": "MERKEZKÖYLER",
      "postal_code": "74110"
    },
    {
      "id": 11617,
      "district_id": 164,
      "name": "AŞAĞI 2 MAH (GERİŞ KÖYÜ)",
      "area": "MERKEZKÖYLER",
      "postal_code": "74110"
    },
    {
      "id": 11618,
      "district_id": 164,
      "name": "AŞAĞI KIŞLA MAH (KIŞLAKÖY KÖYÜ)",
      "area": "MERKEZKÖYLER",
      "postal_code": "74110"
    },
    {
      "id": 11619,
      "district_id": 164,
      "name": "AŞAĞI MAH (AKAĞAÇ KÖYÜ)",
      "area": "KOZCAĞIZ",
      "postal_code": "74400"
    },
    {
      "id": 11620,
      "district_id": 164,
      "name": "AŞAĞI MAH (AKÇALI KÖYÜ)",
      "area": "MERKEZKÖYLER",
      "postal_code": "74110"
    },
    {
      "id": 11621,
      "district_id": 164,
      "name": "AŞAĞI MAH (AŞAĞIDERE KÖYÜ)",
      "area": "KOZCAĞIZ",
      "postal_code": "74400"
    },
    {
      "id": 11622,
      "district_id": 164,
      "name": "AŞAĞI MAH (BEDİL KÖYÜ)",
      "area": "KOZCAĞIZ",
      "postal_code": "74400"
    },
    {
      "id": 11623,
      "district_id": 164,
      "name": "AŞAĞI MAH (ÇAYIR KÖYÜ)",
      "area": "MERKEZKÖYLER",
      "postal_code": "74110"
    },
    {
      "id": 11624,
      "district_id": 164,
      "name": "AŞAĞI MAH (EPÇİLER KÖYÜ)",
      "area": "MERKEZKÖYLER",
      "postal_code": "74110"
    },
    {
      "id": 11625,
      "district_id": 164,
      "name": "AŞAĞI MAH (GERİŞKATIRCI KÖYÜ)",
      "area": "MERKEZKÖYLER",
      "postal_code": "74110"
    },
    {
      "id": 11626,
      "district_id": 164,
      "name": "AŞAĞI MAH (KARACAOĞLU KÖYÜ)",
      "area": "KOZCAĞIZ",
      "postal_code": "74400"
    },
    {
      "id": 11627,
      "district_id": 164,
      "name": "AŞAĞI MAH (KARAHÜSEYİNLİ KÖYÜ)",
      "area": "MERKEZKÖYLER",
      "postal_code": "74110"
    },
    {
      "id": 11628,
      "district_id": 164,
      "name": "AŞAĞI MAH (KARAMAZAK KÖYÜ)",
      "area": "MERKEZKÖYLER",
      "postal_code": "74110"
    },
    {
      "id": 11629,
      "district_id": 164,
      "name": "AŞAĞI MAH (SÜLEK KÖYÜ)",
      "area": "KOZCAĞIZ",
      "postal_code": "74400"
    },
    {
      "id": 11630,
      "district_id": 164,
      "name": "AŞAĞI MAH (SÜTLÜCE KÖYÜ)",
      "area": "KOZCAĞIZ",
      "postal_code": "74400"
    },
    {
      "id": 11631,
      "district_id": 164,
      "name": "AŞAĞI MAH (ULUKÖY KÖYÜ)",
      "area": "KOZCAĞIZ",
      "postal_code": "74400"
    },
    {
      "id": 11632,
      "district_id": 164,
      "name": "AŞAĞI MAH (YEĞENLİ KÖYÜ)",
      "area": "KOZCAĞIZ",
      "postal_code": "74400"
    },
    {
      "id": 11633,
      "district_id": 164,
      "name": "AŞIKLAR MAH (USTAOĞLU KÖYÜ)",
      "area": "KOZCAĞIZ",
      "postal_code": "74400"
    },
    {
      "id": 11634,
      "district_id": 164,
      "name": "AYAZLAR MAH (KAYACILAR KÖYÜ)",
      "area": "MERKEZKÖYLER",
      "postal_code": "74110"
    },
    {
      "id": 11635,
      "district_id": 164,
      "name": "AYDINLAR MAH (BEŞKÖPRÜ KÖYÜ)",
      "area": "MERKEZKÖYLER",
      "postal_code": "74110"
    },
    {
      "id": 11636,
      "district_id": 164,
      "name": "AYDINLAR MAH (KIZILELMA KÖYÜ)",
      "area": "MERKEZKÖYLER",
      "postal_code": "74110"
    },
    {
      "id": 11637,
      "district_id": 164,
      "name": "AYGIROĞLU MAH (ARIÖNÜ KÖYÜ)",
      "area": "MERKEZKÖYLER",
      "postal_code": "74110"
    },
    {
      "id": 11638,
      "district_id": 164,
      "name": "BACAKLAR MAH (TERKEHATİPLER KÖYÜ)",
      "area": "MERKEZKÖYLER",
      "postal_code": "74110"
    },
    {
      "id": 11639,
      "district_id": 164,
      "name": "BAKACAK MAH (GÜZELCEHİSAR KÖYÜ)",
      "area": "MERKEZKÖYLER",
      "postal_code": "74110"
    },
    {
      "id": 11640,
      "district_id": 164,
      "name": "BAKLA MAH (AKPINAR KÖYÜ)",
      "area": "MERKEZKÖYLER",
      "postal_code": "74110"
    },
    {
      "id": 11641,
      "district_id": 164,
      "name": "BAKLACIOĞLU MAH (ÇİFTLİKKÖY KÖYÜ)",
      "area": "MERKEZKÖYLER",
      "postal_code": "74110"
    },
    {
      "id": 11642,
      "district_id": 164,
      "name": "BALAT KÖYÜ",
      "area": "MERKEZKÖYLER",
      "postal_code": "74110"
    },
    {
      "id": 11643,
      "district_id": 164,
      "name": "BAYRAMOĞLU MAH (BAYIRYÜZÜ KÖYÜ)",
      "area": "MERKEZKÖYLER",
      "postal_code": "74110"
    },
    {
      "id": 11644,
      "district_id": 164,
      "name": "BEKİRLER MAH (BÜYÜKKIRAN KÖYÜ)",
      "area": "MERKEZKÖYLER",
      "postal_code": "74110"
    },
    {
      "id": 11645,
      "district_id": 164,
      "name": "BERBEROĞLU MAH (KARAMAZAK KÖYÜ)",
      "area": "MERKEZKÖYLER",
      "postal_code": "74110"
    },
    {
      "id": 11646,
      "district_id": 164,
      "name": "BEYOĞLU MAH (KÜÇÜKKIZILKUM KÖYÜ)",
      "area": "MERKEZKÖYLER",
      "postal_code": "74110"
    },
    {
      "id": 11647,
      "district_id": 164,
      "name": "BEZİRCİLER MAH (AKINCILAR KÖYÜ)",
      "area": "KOZCAĞIZ",
      "postal_code": "74400"
    },
    {
      "id": 11648,
      "district_id": 164,
      "name": "BİLALLAR MAH (ESENYURT KÖYÜ)",
      "area": "MERKEZKÖYLER",
      "postal_code": "74110"
    },
    {
      "id": 11649,
      "district_id": 164,
      "name": "BODRA MAH (BARKAÇBOZ KÖYÜ)",
      "area": "KOZCAĞIZ",
      "postal_code": "74400"
    },
    {
      "id": 11650,
      "district_id": 164,
      "name": "BODURLAR MAH (ŞAHİN KÖYÜ)",
      "area": "MERKEZKÖYLER",
      "postal_code": "74110"
    },
    {
      "id": 11651,
      "district_id": 164,
      "name": "BOĞAZ MAH (KARASU KÖYÜ)",
      "area": "MERKEZKÖYLER",
      "postal_code": "74110"
    },
    {
      "id": 11652,
      "district_id": 164,
      "name": "BOĞAZ MAH (ŞARKÖY KÖYÜ)",
      "area": "KOZCAĞIZ",
      "postal_code": "74400"
    },
    {
      "id": 11653,
      "district_id": 164,
      "name": "BOĞAZ MAH (TOPLUCA KÖYÜ)",
      "area": "MERKEZKÖYLER",
      "postal_code": "74110"
    },
    {
      "id": 11654,
      "district_id": 164,
      "name": "BÖREKÇİ MAH (ÇAYBÜKÜ KÖYÜ)",
      "area": "KOZCAĞIZ",
      "postal_code": "74400"
    },
    {
      "id": 11655,
      "district_id": 164,
      "name": "BOZACIOĞLU MAH (KÜÇÜKKIZILKUM KÖYÜ)",
      "area": "MERKEZKÖYLER",
      "postal_code": "74110"
    },
    {
      "id": 11656,
      "district_id": 164,
      "name": "ÇAKILALTI MAH (ÖZBAŞI KÖYÜ)",
      "area": "KOZCAĞIZ",
      "postal_code": "74400"
    },
    {
      "id": 11657,
      "district_id": 164,
      "name": "ÇAKIRLAR MAH (DALLICA KÖYÜ)",
      "area": "MERKEZKÖYLER",
      "postal_code": "74110"
    },
    {
      "id": 11658,
      "district_id": 164,
      "name": "ÇAKIRLAR MAH (ELLİBAŞ KÖYÜ)",
      "area": "KOZCAĞIZ",
      "postal_code": "74400"
    },
    {
      "id": 11659,
      "district_id": 164,
      "name": "ÇAKMACIK MAH (BARKAÇBOZ KÖYÜ)",
      "area": "KOZCAĞIZ",
      "postal_code": "74400"
    },
    {
      "id": 11660,
      "district_id": 164,
      "name": "ÇALIKOĞLU MAH (BUDAKDÜZÜ KÖYÜ)",
      "area": "MERKEZKÖYLER",
      "postal_code": "74110"
    },
    {
      "id": 11661,
      "district_id": 164,
      "name": "ÇALIKOĞLU MAH (KUTLUBEYDEMİRCİ KÖYÜ)",
      "area": "MERKEZKÖYLER",
      "postal_code": "74110"
    },
    {
      "id": 11662,
      "district_id": 164,
      "name": "ÇAMLIK MAH (ÇAMLIK KÖYÜ)",
      "area": "MERKEZKÖYLER",
      "postal_code": "74110"
    },
    {
      "id": 11663,
      "district_id": 164,
      "name": "ÇAMLIK MAH (UĞURLAR KÖYÜ)",
      "area": "MERKEZKÖYLER",
      "postal_code": "74110"
    },
    {
      "id": 11664,
      "district_id": 164,
      "name": "CANKÖYÜ MAH (EPÇİLERKADI KÖYÜ)",
      "area": "MERKEZKÖYLER",
      "postal_code": "74110"
    },
    {
      "id": 11665,
      "district_id": 164,
      "name": "CANLAR MAH (ECİKLER KÖYÜ)",
      "area": "KOZCAĞIZ",
      "postal_code": "74400"
    },
    {
      "id": 11666,
      "district_id": 164,
      "name": "ÇAPKINLAR MAH (SARAYLI KÖYÜ)",
      "area": "MERKEZKÖYLER",
      "postal_code": "74110"
    },
    {
      "id": 11667,
      "district_id": 164,
      "name": "ÇAPRUZLAR MAH (ESKİEMİRLER KÖYÜ)",
      "area": "KOZCAĞIZ",
      "postal_code": "74400"
    },
    {
      "id": 11668,
      "district_id": 164,
      "name": "ÇAVUŞ MAH (ULUGEÇİTAMBARCI KÖYÜ)",
      "area": "MERKEZKÖYLER",
      "postal_code": "74110"
    },
    {
      "id": 11669,
      "district_id": 164,
      "name": "ÇAVUŞLAR MAH (SERDAR KÖYÜ)",
      "area": "MERKEZKÖYLER",
      "postal_code": "74110"
    },
    {
      "id": 11670,
      "district_id": 164,
      "name": "ÇAY MAH (HOCAOĞLU KÖYÜ)",
      "area": "KOZCAĞIZ",
      "postal_code": "74400"
    },
    {
      "id": 11671,
      "district_id": 164,
      "name": "ÇAY MAH (KÖYYERİ KÖYÜ)",
      "area": "KOZCAĞIZ",
      "postal_code": "74400"
    },
    {
      "id": 11672,
      "district_id": 164,
      "name": "ÇAY MAH (ÖZBAŞI KÖYÜ)",
      "area": "KOZCAĞIZ",
      "postal_code": "74400"
    },
    {
      "id": 11673,
      "district_id": 164,
      "name": "ÇAYDÜZÜ MAH",
      "area": "YENİSANAYİ",
      "postal_code": "74200"
    },
    {
      "id": 11674,
      "district_id": 164,
      "name": "ÇAYIR MAH (BEŞKÖPRÜ KÖYÜ)",
      "area": "MERKEZKÖYLER",
      "postal_code": "74110"
    },
    {
      "id": 11675,
      "district_id": 164,
      "name": "ÇAYIRLARDİBİ MAH (HOCAOĞLU KÖYÜ)",
      "area": "KOZCAĞIZ",
      "postal_code": "74400"
    },
    {
      "id": 11676,
      "district_id": 164,
      "name": "ÇAYLIK MAH (HASANEFENDİ KÖYÜ)",
      "area": "KOZCAĞIZ",
      "postal_code": "74400"
    },
    {
      "id": 11677,
      "district_id": 164,
      "name": "CEBECİ MAH (AKPINAR KÖYÜ)",
      "area": "MERKEZKÖYLER",
      "postal_code": "74110"
    },
    {
      "id": 11678,
      "district_id": 164,
      "name": "ÇELEBİOĞLU MAH (ÇAKIRDEMİRCİ KÖYÜ)",
      "area": "MERKEZKÖYLER",
      "postal_code": "74110"
    },
    {
      "id": 11679,
      "district_id": 164,
      "name": "ÇELİKLER MAH (CELİLBEYOĞLU KÖYÜ)",
      "area": "KOZCAĞIZ",
      "postal_code": "74400"
    },
    {
      "id": 11680,
      "district_id": 164,
      "name": "ÇETME MAH (DARIÖREN KÖYÜ)",
      "area": "MERKEZKÖYLER",
      "postal_code": "74110"
    },
    {
      "id": 11681,
      "district_id": 164,
      "name": "CIDDIMOĞLU MAH (AKBAŞ KÖYÜ)",
      "area": "KOZCAĞIZ",
      "postal_code": "74400"
    },
    {
      "id": 11682,
      "district_id": 164,
      "name": "ÇİFTÇİLER MAH (ELLİBAŞ KÖYÜ)",
      "area": "KOZCAĞIZ",
      "postal_code": "74400"
    },
    {
      "id": 11683,
      "district_id": 164,
      "name": "ÇİMKE MAH (DERBENT KÖYÜ)",
      "area": "MERKEZKÖYLER",
      "postal_code": "74110"
    },
    {
      "id": 11684,
      "district_id": 164,
      "name": "ÇİMKEOĞLU MAH (ESKİEMİRLER KÖYÜ)",
      "area": "KOZCAĞIZ",
      "postal_code": "74400"
    },
    {
      "id": 11685,
      "district_id": 164,
      "name": "ÇİT MAH (YEĞENLİ KÖYÜ)",
      "area": "KOZCAĞIZ",
      "postal_code": "74400"
    },
    {
      "id": 11686,
      "district_id": 164,
      "name": "ÇİTOĞLU MAH (AKBABA KÖYÜ)",
      "area": "MERKEZKÖYLER",
      "postal_code": "74110"
    },
    {
      "id": 11687,
      "district_id": 164,
      "name": "ÇİVAKLAR MAH (KÜMESLER KÖYÜ)",
      "area": "MERKEZKÖYLER",
      "postal_code": "74110"
    },
    {
      "id": 11688,
      "district_id": 164,
      "name": "ÇIVGINLAR MAH (KIZILELMA KÖYÜ)",
      "area": "MERKEZKÖYLER",
      "postal_code": "74110"
    },
    {
      "id": 11689,
      "district_id": 164,
      "name": "ÇOBANLAR MAH (AKMANLAR KÖYÜ)",
      "area": "MERKEZKÖYLER",
      "postal_code": "74110"
    },
    {
      "id": 11690,
      "district_id": 164,
      "name": "ÇOBANOĞLU MAH (SÜLEK KÖYÜ)",
      "area": "KOZCAĞIZ",
      "postal_code": "74400"
    },
    {
      "id": 11691,
      "district_id": 164,
      "name": "CÖCÜ KÖYÜ",
      "area": "MERKEZKÖYLER",
      "postal_code": "74110"
    },
    {
      "id": 11692,
      "district_id": 164,
      "name": "ÇOLAKLAR MAH (SÜLEK KÖYÜ)",
      "area": "KOZCAĞIZ",
      "postal_code": "74400"
    },
    {
      "id": 11693,
      "district_id": 164,
      "name": "ÇOLAKOĞLU MAH (HIDIRLAR KÖYÜ)",
      "area": "KOZCAĞIZ",
      "postal_code": "74400"
    },
    {
      "id": 11694,
      "district_id": 164,
      "name": "ÇOLUKLAR MAH (BEDİL KÖYÜ)",
      "area": "KOZCAĞIZ",
      "postal_code": "74400"
    },
    {
      "id": 11695,
      "district_id": 164,
      "name": "ÇÖMLEKÇİ MAH (EPÇİLER KÖYÜ)",
      "area": "MERKEZKÖYLER",
      "postal_code": "74110"
    },
    {
      "id": 11696,
      "district_id": 164,
      "name": "ÇÖMLEKLER MAH (YEŞİLYURT KÖYÜ)",
      "area": "KOZCAĞIZ",
      "postal_code": "74400"
    },
    {
      "id": 11697,
      "district_id": 164,
      "name": "CONDUR MAH (AKPINAR KÖYÜ)",
      "area": "MERKEZKÖYLER",
      "postal_code": "74110"
    },
    {
      "id": 11698,
      "district_id": 164,
      "name": "CONKURLAR MAH (SERDAR KÖYÜ)",
      "area": "MERKEZKÖYLER",
      "postal_code": "74110"
    },
    {
      "id": 11699,
      "district_id": 164,
      "name": "ÇÖPBEY KÖYÜ",
      "area": "MERKEZKÖYLER",
      "postal_code": "74110"
    },
    {
      "id": 11700,
      "district_id": 164,
      "name": "ÇORAK MAH (KUMAÇORAK KÖYÜ)",
      "area": "MERKEZKÖYLER",
      "postal_code": "74110"
    },
    {
      "id": 11701,
      "district_id": 164,
      "name": "ÇUBUKÇU DERESİ MAH (HANYERİ KÖYÜ)",
      "area": "KOZCAĞIZ",
      "postal_code": "74400"
    },
    {
      "id": 11702,
      "district_id": 164,
      "name": "CUMAYANI MAH (KAŞBAŞI KÖYÜ)",
      "area": "MERKEZKÖYLER",
      "postal_code": "74110"
    },
    {
      "id": 11703,
      "district_id": 164,
      "name": "CUMHURİYET MAH",
      "area": "YENİSANAYİ",
      "postal_code": "74200"
    },
    {
      "id": 11704,
      "district_id": 164,
      "name": "DAĞ MAH (YENİKÖY KÖYÜ)",
      "area": "MERKEZKÖYLER",
      "postal_code": "74110"
    },
    {
      "id": 11705,
      "district_id": 164,
      "name": "DAĞDİBİ MAH (AKMANLAR KÖYÜ)",
      "area": "MERKEZKÖYLER",
      "postal_code": "74110"
    },
    {
      "id": 11706,
      "district_id": 164,
      "name": "DAĞLI MAH (KAYADİBİ KÖYÜ)",
      "area": "MERKEZKÖYLER",
      "postal_code": "74110"
    },
    {
      "id": 11707,
      "district_id": 164,
      "name": "DAVUTLAR MAH (ÇAYBÜKÜ KÖYÜ)",
      "area": "KOZCAĞIZ",
      "postal_code": "74400"
    },
    {
      "id": 11708,
      "district_id": 164,
      "name": "DEĞİRMENCİ MAH (KOZCAĞIZ BELDESİ)",
      "area": "KOZCAĞIZ",
      "postal_code": "74400"
    },
    {
      "id": 11709,
      "district_id": 164,
      "name": "DELİKTAŞ MAH (EYÜPOĞLU KÖYÜ)",
      "area": "KOZCAĞIZ",
      "postal_code": "74400"
    },
    {
      "id": 11710,
      "district_id": 164,
      "name": "DEMİRCİ AHMETLER MAH (KOZCAĞIZ BELDESİ)",
      "area": "KOZCAĞIZ",
      "postal_code": "74400"
    },
    {
      "id": 11711,
      "district_id": 164,
      "name": "DEMİRCİ MAH (TASMACI KÖYÜ)",
      "area": "KOZCAĞIZ",
      "postal_code": "74400"
    },
    {
      "id": 11712,
      "district_id": 164,
      "name": "DEMİRCİLER MAH",
      "area": "DEMİRCİLER",
      "postal_code": "74100"
    },
    {
      "id": 11713,
      "district_id": 164,
      "name": "DEMİRCİLER MAH (ÇİFTLİKKÖY KÖYÜ)",
      "area": "MERKEZKÖYLER",
      "postal_code": "74110"
    },
    {
      "id": 11714,
      "district_id": 164,
      "name": "DERE MAH (GÖKÇEKIRAN KÖYÜ)",
      "area": "MERKEZKÖYLER",
      "postal_code": "74110"
    },
    {
      "id": 11715,
      "district_id": 164,
      "name": "DERE MAH (GÜRPINAR KÖYÜ)",
      "area": "MERKEZKÖYLER",
      "postal_code": "74110"
    },
    {
      "id": 11716,
      "district_id": 164,
      "name": "DEREDİBİ MAH (GÖKÇEKIRAN KÖYÜ)",
      "area": "MERKEZKÖYLER",
      "postal_code": "74110"
    },
    {
      "id": 11717,
      "district_id": 164,
      "name": "DEVECİLER MAH (KIŞLAKÖY KÖYÜ)",
      "area": "MERKEZKÖYLER",
      "postal_code": "74110"
    },
    {
      "id": 11718,
      "district_id": 164,
      "name": "DEVŞEYLİ MAH (AKMANLAR KÖYÜ)",
      "area": "MERKEZKÖYLER",
      "postal_code": "74110"
    },
    {
      "id": 11719,
      "district_id": 164,
      "name": "DİBEKTAŞ MAH (GENÇALİ KÖYÜ)",
      "area": "MERKEZKÖYLER",
      "postal_code": "74110"
    },
    {
      "id": 11720,
      "district_id": 164,
      "name": "DIRAZLAR MAH (DIRAZLAR KÖYÜ)",
      "area": "KOZCAĞIZ",
      "postal_code": "74400"
    },
    {
      "id": 11721,
      "district_id": 164,
      "name": "DIRAZLAR MAH (HACIHATİPOĞLU KÖYÜ)",
      "area": "MERKEZKÖYLER",
      "postal_code": "74110"
    },
    {
      "id": 11722,
      "district_id": 164,
      "name": "DİREKLER MAH (AYDINLAR KÖYÜ)",
      "area": "MERKEZKÖYLER",
      "postal_code": "74110"
    },
    {
      "id": 11723,
      "district_id": 164,
      "name": "DOLAŞIKLAR MAH (AKMANLAR KÖYÜ)",
      "area": "MERKEZKÖYLER",
      "postal_code": "74110"
    },
    {
      "id": 11724,
      "district_id": 164,
      "name": "DOROĞLU MAH (HANYERİ KÖYÜ)",
      "area": "KOZCAĞIZ",
      "postal_code": "74400"
    },
    {
      "id": 11725,
      "district_id": 164,
      "name": "DÖRTKOL MAH (TUZCULAR KÖYÜ)",
      "area": "MERKEZKÖYLER",
      "postal_code": "74110"
    },
    {
      "id": 11726,
      "district_id": 164,
      "name": "DÜRÜKLER MAH (ÇUKURBÜK KÖYÜ)",
      "area": "MERKEZKÖYLER",
      "postal_code": "74110"
    },
    {
      "id": 11727,
      "district_id": 164,
      "name": "DÜZ MAH (AKINCILAR KÖYÜ)",
      "area": "KOZCAĞIZ",
      "postal_code": "74400"
    },
    {
      "id": 11728,
      "district_id": 164,
      "name": "DÜZMEVKİ MAH (BÜYÜKKIRAN KÖYÜ)",
      "area": "MERKEZKÖYLER",
      "postal_code": "74110"
    },
    {
      "id": 11729,
      "district_id": 164,
      "name": "EBİŞLER MAH (AYDINLAR KÖYÜ)",
      "area": "MERKEZKÖYLER",
      "postal_code": "74110"
    },
    {
      "id": 11730,
      "district_id": 164,
      "name": "EBZEN MAH (ÇUKURBÜK KÖYÜ)",
      "area": "MERKEZKÖYLER",
      "postal_code": "74110"
    },
    {
      "id": 11731,
      "district_id": 164,
      "name": "ECİKLER MAH (KIŞLAKÖY KÖYÜ)",
      "area": "MERKEZKÖYLER",
      "postal_code": "74110"
    },
    {
      "id": 11732,
      "district_id": 164,
      "name": "EDEY MAH (EPÇİLERKADI KÖYÜ)",
      "area": "MERKEZKÖYLER",
      "postal_code": "74110"
    },
    {
      "id": 11733,
      "district_id": 164,
      "name": "ELA MAH (HATİPLER KÖYÜ)",
      "area": "MERKEZKÖYLER",
      "postal_code": "74110"
    },
    {
      "id": 11734,
      "district_id": 164,
      "name": "ELMACI MAH (ESKİEMİRLER KÖYÜ)",
      "area": "KOZCAĞIZ",
      "postal_code": "74400"
    },
    {
      "id": 11735,
      "district_id": 164,
      "name": "ELMALIK MAH (KIŞLAKÖY KÖYÜ)",
      "area": "MERKEZKÖYLER",
      "postal_code": "74110"
    },
    {
      "id": 11736,
      "district_id": 164,
      "name": "EMİROĞLU MAH (ECİKLER KÖYÜ)",
      "area": "KOZCAĞIZ",
      "postal_code": "74400"
    },
    {
      "id": 11737,
      "district_id": 164,
      "name": "EMRİ MAH (TABANÖZÜ KÖYÜ)",
      "area": "MERKEZKÖYLER",
      "postal_code": "74110"
    },
    {
      "id": 11738,
      "district_id": 164,
      "name": "ERSANLAR MAH (KUTLUBEYYAZICILAR KÖYÜ)",
      "area": "MERKEZKÖYLER",
      "postal_code": "74110"
    },
    {
      "id": 11739,
      "district_id": 164,
      "name": "ESELER MAH (CELİLBEYOĞLU KÖYÜ)",
      "area": "KOZCAĞIZ",
      "postal_code": "74400"
    },
    {
      "id": 11740,
      "district_id": 164,
      "name": "ESELER MAH (DIRAZLAR KÖYÜ)",
      "area": "KOZCAĞIZ",
      "postal_code": "74400"
    },
    {
      "id": 11741,
      "district_id": 164,
      "name": "ESENLER MAH (KARŞIYAKA KÖYÜ)",
      "area": "KOZCAĞIZ",
      "postal_code": "74400"
    },
    {
      "id": 11742,
      "district_id": 164,
      "name": "ESENLER MAH (ULUGEÇİTAMBARCI KÖYÜ)",
      "area": "MERKEZKÖYLER",
      "postal_code": "74110"
    },
    {
      "id": 11743,
      "district_id": 164,
      "name": "ESENPINAR MAH (TOPLUCA KÖYÜ)",
      "area": "MERKEZKÖYLER",
      "postal_code": "74110"
    },
    {
      "id": 11744,
      "district_id": 164,
      "name": "ESENTEPE MAH",
      "area": "YENİSANAYİ",
      "postal_code": "74200"
    },
    {
      "id": 11745,
      "district_id": 164,
      "name": "FATİH MAH (DIRAZLAR KÖYÜ)",
      "area": "KOZCAĞIZ",
      "postal_code": "74400"
    },
    {
      "id": 11746,
      "district_id": 164,
      "name": "FERMÜT MAH (DALLICA KÖYÜ)",
      "area": "MERKEZKÖYLER",
      "postal_code": "74110"
    },
    {
      "id": 11747,
      "district_id": 164,
      "name": "FIRDAN MAH (AKBAŞ KÖYÜ)",
      "area": "KOZCAĞIZ",
      "postal_code": "74400"
    },
    {
      "id": 11748,
      "district_id": 164,
      "name": "FIRINLI KÖYÜ",
      "area": "MERKEZKÖYLER",
      "postal_code": "74110"
    },
    {
      "id": 11749,
      "district_id": 164,
      "name": "GAFFAR MAH (GÜRPINAR KÖYÜ)",
      "area": "MERKEZKÖYLER",
      "postal_code": "74110"
    },
    {
      "id": 11750,
      "district_id": 164,
      "name": "GAFFAR MAH (KAŞBAŞI KÖYÜ)",
      "area": "MERKEZKÖYLER",
      "postal_code": "74110"
    },
    {
      "id": 11751,
      "district_id": 164,
      "name": "GAGİLLER MAH (KOCAREİS KÖYÜ)",
      "area": "MERKEZKÖYLER",
      "postal_code": "74110"
    },
    {
      "id": 11752,
      "district_id": 164,
      "name": "GALAYGÖZ MAH (GENÇALİ KÖYÜ)",
      "area": "MERKEZKÖYLER",
      "postal_code": "74110"
    },
    {
      "id": 11753,
      "district_id": 164,
      "name": "GANGAHU MAH (YANAZ KÖYÜ)",
      "area": "MERKEZKÖYLER",
      "postal_code": "74110"
    },
    {
      "id": 11754,
      "district_id": 164,
      "name": "GARTOSMANLAR MAH (AKBAŞ KÖYÜ)",
      "area": "KOZCAĞIZ",
      "postal_code": "74400"
    },
    {
      "id": 11755,
      "district_id": 164,
      "name": "GECEN MAH",
      "area": "DEMİRCİLER",
      "postal_code": "74100"
    },
    {
      "id": 11756,
      "district_id": 164,
      "name": "GECİKSUYU MAH (HASANEFENDİ KÖYÜ)",
      "area": "KOZCAĞIZ",
      "postal_code": "74400"
    },
    {
      "id": 11757,
      "district_id": 164,
      "name": "GENEVİR MAH (KABAGÖZ KÖYÜ)",
      "area": "MERKEZKÖYLER",
      "postal_code": "74110"
    },
    {
      "id": 11758,
      "district_id": 164,
      "name": "GERİŞLİ MAH (HASANKADI BELDESİ)",
      "area": "HASANKADI",
      "postal_code": "74420"
    },
    {
      "id": 11759,
      "district_id": 164,
      "name": "GÖÇMENLER MAH (ESKİEMİRLER KÖYÜ)",
      "area": "KOZCAĞIZ",
      "postal_code": "74400"
    },
    {
      "id": 11760,
      "district_id": 164,
      "name": "GÖCÜ MAH (AKAĞAÇ KÖYÜ)",
      "area": "KOZCAĞIZ",
      "postal_code": "74400"
    },
    {
      "id": 11761,
      "district_id": 164,
      "name": "GOFUROĞLU MAH (TASMACI KÖYÜ)",
      "area": "KOZCAĞIZ",
      "postal_code": "74400"
    },
    {
      "id": 11762,
      "district_id": 164,
      "name": "GÖKÇE MUSA MAH (KUTLUBEYDEMİRCİ KÖYÜ)",
      "area": "MERKEZKÖYLER",
      "postal_code": "74110"
    },
    {
      "id": 11763,
      "district_id": 164,
      "name": "GÖKLER MAH (KIŞLAKÖY KÖYÜ)",
      "area": "MERKEZKÖYLER",
      "postal_code": "74110"
    },
    {
      "id": 11764,
      "district_id": 164,
      "name": "GÖKMENLER MAH (ŞAHİN KÖYÜ)",
      "area": "MERKEZKÖYLER",
      "postal_code": "74110"
    },
    {
      "id": 11765,
      "district_id": 164,
      "name": "GÖLBUCAĞI MAH",
      "area": "DEMİRCİLER",
      "postal_code": "74100"
    },
    {
      "id": 11766,
      "district_id": 164,
      "name": "GÜMMELLER MAH (AKBAŞ KÖYÜ)",
      "area": "KOZCAĞIZ",
      "postal_code": "74400"
    },
    {
      "id": 11767,
      "district_id": 164,
      "name": "GÜNEYDAĞI MAH (KARAKÖYŞEYHLER KÖYÜ)",
      "area": "MERKEZKÖYLER",
      "postal_code": "74110"
    },
    {
      "id": 11768,
      "district_id": 164,
      "name": "GÜRCÜLER MAH (KÜÇÜKKIZILKUM KÖYÜ)",
      "area": "MERKEZKÖYLER",
      "postal_code": "74110"
    },
    {
      "id": 11769,
      "district_id": 164,
      "name": "GÜRGENPINARI MAH",
      "area": "MERKEZKÖYLER",
      "postal_code": "74110"
    },
    {
      "id": 11770,
      "district_id": 164,
      "name": "HACI GÜLLÜ MAH (ÇAKIRÖMERAĞA KÖYÜ)",
      "area": "MERKEZKÖYLER",
      "postal_code": "74110"
    },
    {
      "id": 11771,
      "district_id": 164,
      "name": "HACI HASAN DERE MAH (YENİHAMİDİYE KÖYÜ)",
      "area": "KOZCAĞIZ",
      "postal_code": "74400"
    },
    {
      "id": 11772,
      "district_id": 164,
      "name": "HACI İBRAHİM MAH (ECİKLER KÖYÜ)",
      "area": "KOZCAĞIZ",
      "postal_code": "74400"
    },
    {
      "id": 11773,
      "district_id": 164,
      "name": "HACI MAH (AKPINAR KÖYÜ)",
      "area": "MERKEZKÖYLER",
      "postal_code": "74110"
    },
    {
      "id": 11774,
      "district_id": 164,
      "name": "HACI MAH (İMAMLAR KÖYÜ)",
      "area": "MERKEZKÖYLER",
      "postal_code": "74110"
    },
    {
      "id": 11775,
      "district_id": 164,
      "name": "HACI MAH (KAYADİBİKAVLAK KÖYÜ)",
      "area": "MERKEZKÖYLER",
      "postal_code": "74110"
    },
    {
      "id": 11776,
      "district_id": 164,
      "name": "HACIÇAVUŞLAR MAH (SERDAR KÖYÜ)",
      "area": "MERKEZKÖYLER",
      "postal_code": "74110"
    },
    {
      "id": 11777,
      "district_id": 164,
      "name": "HACIKADI MAH (BÜYÜKKIRAN KÖYÜ)",
      "area": "MERKEZKÖYLER",
      "postal_code": "74110"
    },
    {
      "id": 11778,
      "district_id": 164,
      "name": "HACIKIRAMOĞLU MAH (KIZILELMA KÖYÜ)",
      "area": "MERKEZKÖYLER",
      "postal_code": "74110"
    },
    {
      "id": 11779,
      "district_id": 164,
      "name": "HACILAR MAH (SÜTLÜCE KÖYÜ)",
      "area": "KOZCAĞIZ",
      "postal_code": "74400"
    },
    {
      "id": 11780,
      "district_id": 164,
      "name": "HACIOĞLU MAH (BÜYÜKKIRAN KÖYÜ)",
      "area": "MERKEZKÖYLER",
      "postal_code": "74110"
    },
    {
      "id": 11781,
      "district_id": 164,
      "name": "HACIOĞLU MAH (ÇAKIRKADI KÖYÜ)",
      "area": "MERKEZKÖYLER",
      "postal_code": "74110"
    },
    {
      "id": 11782,
      "district_id": 164,
      "name": "HACIOSMANOĞLU MAH (SERDAR KÖYÜ)",
      "area": "MERKEZKÖYLER",
      "postal_code": "74110"
    },
    {
      "id": 11783,
      "district_id": 164,
      "name": "HACIRASUL MAH (AKÇAMESCİT KÖYÜ)",
      "area": "KOZCAĞIZ",
      "postal_code": "74400"
    },
    {
      "id": 11784,
      "district_id": 164,
      "name": "HALİLLER MAH (TERKEHALİLLER KÖYÜ)",
      "area": "MERKEZKÖYLER",
      "postal_code": "74110"
    },
    {
      "id": 11785,
      "district_id": 164,
      "name": "HALİLPAŞA MAH (YEŞİLKAYA KÖYÜ)",
      "area": "MERKEZKÖYLER",
      "postal_code": "74110"
    },
    {
      "id": 11786,
      "district_id": 164,
      "name": "HALİM MAH (KAYADİBİÇAVUŞ KÖYÜ)",
      "area": "MERKEZKÖYLER",
      "postal_code": "74110"
    },
    {
      "id": 11787,
      "district_id": 164,
      "name": "HAMAMCI MAH (BUDAKDÜZÜ KÖYÜ)",
      "area": "MERKEZKÖYLER",
      "postal_code": "74110"
    },
    {
      "id": 11788,
      "district_id": 164,
      "name": "HAMZA MAH (İMAMLAR KÖYÜ)",
      "area": "MERKEZKÖYLER",
      "postal_code": "74110"
    },
    {
      "id": 11789,
      "district_id": 164,
      "name": "HANCILAR MAH (ÇAYIR KÖYÜ)",
      "area": "MERKEZKÖYLER",
      "postal_code": "74110"
    },
    {
      "id": 11790,
      "district_id": 164,
      "name": "HAS MAH (KABAGÖZ KÖYÜ)",
      "area": "MERKEZKÖYLER",
      "postal_code": "74110"
    },
    {
      "id": 11791,
      "district_id": 164,
      "name": "HASANÇAVUŞ MAH (HATİPLER KÖYÜ)",
      "area": "MERKEZKÖYLER",
      "postal_code": "74110"
    },
    {
      "id": 11792,
      "district_id": 164,
      "name": "HASANLAR MAH (HASANLAR KÖYÜ)",
      "area": "MERKEZKÖYLER",
      "postal_code": "74110"
    },
    {
      "id": 11793,
      "district_id": 164,
      "name": "HASANLAR MAH (SERDAR KÖYÜ)",
      "area": "MERKEZKÖYLER",
      "postal_code": "74110"
    },
    {
      "id": 11794,
      "district_id": 164,
      "name": "HASAŞLAR MAH (AYDINLAR KÖYÜ)",
      "area": "MERKEZKÖYLER",
      "postal_code": "74110"
    },
    {
      "id": 11795,
      "district_id": 164,
      "name": "HATİPLER MAH (ÇUKURBÜK KÖYÜ)",
      "area": "MERKEZKÖYLER",
      "postal_code": "74110"
    },
    {
      "id": 11796,
      "district_id": 164,
      "name": "HATİPLER MAH (HATİPLER KÖYÜ)",
      "area": "MERKEZKÖYLER",
      "postal_code": "74110"
    },
    {
      "id": 11797,
      "district_id": 164,
      "name": "HATİPLER MAH (KARŞIYAKA KÖYÜ)",
      "area": "KOZCAĞIZ",
      "postal_code": "74400"
    },
    {
      "id": 11798,
      "district_id": 164,
      "name": "HATİPLER MAH (KUMAÇORAK KÖYÜ)",
      "area": "MERKEZKÖYLER",
      "postal_code": "74110"
    },
    {
      "id": 11799,
      "district_id": 164,
      "name": "HATİPLER MAH (MEKEÇLER KÖYÜ)",
      "area": "MERKEZKÖYLER",
      "postal_code": "74110"
    },
    {
      "id": 11800,
      "district_id": 164,
      "name": "HAYDELİ MAH (ESBEY KÖYÜ)",
      "area": "MERKEZKÖYLER",
      "postal_code": "74110"
    },
    {
      "id": 11801,
      "district_id": 164,
      "name": "HEPLER MAH (ÖZBAŞI KÖYÜ)",
      "area": "KOZCAĞIZ",
      "postal_code": "74400"
    },
    {
      "id": 11802,
      "district_id": 164,
      "name": "HEYELLİ MAH (DOĞAŞI KÖYÜ)",
      "area": "MERKEZKÖYLER",
      "postal_code": "74110"
    },
    {
      "id": 11803,
      "district_id": 164,
      "name": "HİSAR MAH (GÜZELCEHİSAR KÖYÜ)",
      "area": "MERKEZKÖYLER",
      "postal_code": "74110"
    },
    {
      "id": 11804,
      "district_id": 164,
      "name": "HOCA MAH (YEŞİLKAYA KÖYÜ)",
      "area": "MERKEZKÖYLER",
      "postal_code": "74110"
    },
    {
      "id": 11805,
      "district_id": 164,
      "name": "HORNA MAH (TABANÖZÜ KÖYÜ)",
      "area": "MERKEZKÖYLER",
      "postal_code": "74110"
    },
    {
      "id": 11806,
      "district_id": 164,
      "name": "HOROZ MAH (YEŞİLKAYA KÖYÜ)",
      "area": "MERKEZKÖYLER",
      "postal_code": "74110"
    },
    {
      "id": 11807,
      "district_id": 164,
      "name": "HOŞKÖY MAH (KUMAÇORAK KÖYÜ)",
      "area": "MERKEZKÖYLER",
      "postal_code": "74110"
    },
    {
      "id": 11808,
      "district_id": 164,
      "name": "HÜRRİYET MAH",
      "area": "DEMİRCİLER",
      "postal_code": "74100"
    },
    {
      "id": 11809,
      "district_id": 164,
      "name": "HÜSEYİNPAŞAOĞLU MAH (ÇAKIRKADI KÖYÜ)",
      "area": "MERKEZKÖYLER",
      "postal_code": "74110"
    },
    {
      "id": 11810,
      "district_id": 164,
      "name": "ICAK MAH (DOĞAŞI KÖYÜ)",
      "area": "MERKEZKÖYLER",
      "postal_code": "74110"
    },
    {
      "id": 11811,
      "district_id": 164,
      "name": "IHLAMUR MAH (KAYADİBİ KÖYÜ)",
      "area": "MERKEZKÖYLER",
      "postal_code": "74110"
    },
    {
      "id": 11812,
      "district_id": 164,
      "name": "İLYASLAR MAH (KURT KÖYÜ)",
      "area": "MERKEZKÖYLER",
      "postal_code": "74110"
    },
    {
      "id": 11813,
      "district_id": 164,
      "name": "İMAMLAR MAH (ESENYURT KÖYÜ)",
      "area": "MERKEZKÖYLER",
      "postal_code": "74110"
    },
    {
      "id": 11814,
      "district_id": 164,
      "name": "İMAMOĞLU MAH (KARAMAZAK KÖYÜ)",
      "area": "MERKEZKÖYLER",
      "postal_code": "74110"
    },
    {
      "id": 11815,
      "district_id": 164,
      "name": "İNKUM İSKELE MAH (KARASU KÖYÜ)",
      "area": "MERKEZKÖYLER",
      "postal_code": "74110"
    },
    {
      "id": 11816,
      "district_id": 164,
      "name": "İNKUM YENİ MAH (GÜZELCEHİSAR KÖYÜ)",
      "area": "MERKEZKÖYLER",
      "postal_code": "74110"
    },
    {
      "id": 11817,
      "district_id": 164,
      "name": "ISPALA MAH (ŞİREMİRTABAKLAR KÖYÜ)",
      "area": "MERKEZKÖYLER",
      "postal_code": "74110"
    },
    {
      "id": 11818,
      "district_id": 164,
      "name": "KABAŞLAR MAH (BAYIRYÜZÜ KÖYÜ)",
      "area": "MERKEZKÖYLER",
      "postal_code": "74110"
    },
    {
      "id": 11819,
      "district_id": 164,
      "name": "KADI MAH (EPÇİLERKADI KÖYÜ)",
      "area": "MERKEZKÖYLER",
      "postal_code": "74110"
    },
    {
      "id": 11820,
      "district_id": 164,
      "name": "KADI MAH (GÖKÇEKIRAN KÖYÜ)",
      "area": "MERKEZKÖYLER",
      "postal_code": "74110"
    },
    {
      "id": 11821,
      "district_id": 164,
      "name": "KADI MAH (KUTLUBEYDEMİRCİ KÖYÜ)",
      "area": "MERKEZKÖYLER",
      "postal_code": "74110"
    },
    {
      "id": 11822,
      "district_id": 164,
      "name": "KADIKÖY MAH (KAYACILAR KÖYÜ)",
      "area": "MERKEZKÖYLER",
      "postal_code": "74110"
    },
    {
      "id": 11823,
      "district_id": 164,
      "name": "KADIOĞLU MAH (ÇAKIRKADI KÖYÜ)",
      "area": "MERKEZKÖYLER",
      "postal_code": "74110"
    },
    {
      "id": 11824,
      "district_id": 164,
      "name": "KAHYA MAH (AKINCILAR KÖYÜ)",
      "area": "KOZCAĞIZ",
      "postal_code": "74400"
    },
    {
      "id": 11825,
      "district_id": 164,
      "name": "KALAFATOĞLU MAH (ARIÖNÜ KÖYÜ)",
      "area": "MERKEZKÖYLER",
      "postal_code": "74110"
    },
    {
      "id": 11826,
      "district_id": 164,
      "name": "KALAYCI MAH (KAYADİBİ KÖYÜ)",
      "area": "MERKEZKÖYLER",
      "postal_code": "74110"
    },
    {
      "id": 11827,
      "district_id": 164,
      "name": "KALAYCIOĞLU MAH (ESENYURT KÖYÜ)",
      "area": "MERKEZKÖYLER",
      "postal_code": "74110"
    },
    {
      "id": 11828,
      "district_id": 164,
      "name": "KALDIRIM MAH (DARIÖREN KÖYÜ)",
      "area": "MERKEZKÖYLER",
      "postal_code": "74110"
    },
    {
      "id": 11829,
      "district_id": 164,
      "name": "KANBERLER MAH (KUMAÇORAK KÖYÜ)",
      "area": "MERKEZKÖYLER",
      "postal_code": "74110"
    },
    {
      "id": 11830,
      "district_id": 164,
      "name": "KANBUR MAH (YEŞİLKAYA KÖYÜ)",
      "area": "MERKEZKÖYLER",
      "postal_code": "74110"
    },
    {
      "id": 11831,
      "district_id": 164,
      "name": "KANIÇ MAH (KAYADİBİKAVLAK KÖYÜ)",
      "area": "MERKEZKÖYLER",
      "postal_code": "74110"
    },
    {
      "id": 11832,
      "district_id": 164,
      "name": "KAPUCUOĞLU MAH (ŞARKÖY KÖYÜ)",
      "area": "KOZCAĞIZ",
      "postal_code": "74400"
    },
    {
      "id": 11833,
      "district_id": 164,
      "name": "KARAALİOĞLU MAH (AHMETPAŞA KÖYÜ)",
      "area": "MERKEZKÖYLER",
      "postal_code": "74110"
    },
    {
      "id": 11834,
      "district_id": 164,
      "name": "KARACAOĞLU MAH (HATİPLER KÖYÜ)",
      "area": "MERKEZKÖYLER",
      "postal_code": "74110"
    },
    {
      "id": 11835,
      "district_id": 164,
      "name": "KARAÇAY MAH",
      "area": "DEMİRCİLER",
      "postal_code": "74100"
    },
    {
      "id": 11836,
      "district_id": 164,
      "name": "KARADAĞLIOĞLU MAH (KÜÇÜKKIZILKUM KÖYÜ)",
      "area": "MERKEZKÖYLER",
      "postal_code": "74110"
    },
    {
      "id": 11837,
      "district_id": 164,
      "name": "KARADUT MAH (KARAİNLER KÖYÜ)",
      "area": "MERKEZKÖYLER",
      "postal_code": "74110"
    },
    {
      "id": 11838,
      "district_id": 164,
      "name": "KARAHASAN MAH (KIZILELMA KÖYÜ)",
      "area": "MERKEZKÖYLER",
      "postal_code": "74110"
    },
    {
      "id": 11839,
      "district_id": 164,
      "name": "KARAHÜSEYİNLER MAH (EPÇİLERKADI KÖYÜ)",
      "area": "MERKEZKÖYLER",
      "postal_code": "74110"
    },
    {
      "id": 11840,
      "district_id": 164,
      "name": "KARAKADI MAH (AHMETPAŞA KÖYÜ)",
      "area": "MERKEZKÖYLER",
      "postal_code": "74110"
    },
    {
      "id": 11841,
      "district_id": 164,
      "name": "KARAKIZ MAH (KARAMAZAK KÖYÜ)",
      "area": "MERKEZKÖYLER",
      "postal_code": "74110"
    },
    {
      "id": 11842,
      "district_id": 164,
      "name": "KARAKÖY MAH",
      "area": "YENİSANAYİ",
      "postal_code": "74200"
    },
    {
      "id": 11843,
      "district_id": 164,
      "name": "KARALAR BURGUCU MAH (KÜMESLER KÖYÜ)",
      "area": "MERKEZKÖYLER",
      "postal_code": "74110"
    },
    {
      "id": 11844,
      "district_id": 164,
      "name": "KARAMANLAR MAH (AKINCILAR KÖYÜ)",
      "area": "KOZCAĞIZ",
      "postal_code": "74400"
    },
    {
      "id": 11845,
      "district_id": 164,
      "name": "KARAMUSTAFA  MAH (GAZİLER MAH) (ÇEŞTEPE KÖYÜ)",
      "area": "MERKEZKÖYLER",
      "postal_code": "74110"
    },
    {
      "id": 11846,
      "district_id": 164,
      "name": "KARAOTLU MAH (AKBAŞ KÖYÜ)",
      "area": "KOZCAĞIZ",
      "postal_code": "74400"
    },
    {
      "id": 11847,
      "district_id": 164,
      "name": "KARGA MAH (AKÇAMESCİT KÖYÜ)",
      "area": "KOZCAĞIZ",
      "postal_code": "74400"
    },
    {
      "id": 11848,
      "district_id": 164,
      "name": "KARŞI KÖY MAH (KARAMAZAK KÖYÜ)",
      "area": "MERKEZKÖYLER",
      "postal_code": "74110"
    },
    {
      "id": 11849,
      "district_id": 164,
      "name": "KARŞI MAH (BEDİL KÖYÜ)",
      "area": "KOZCAĞIZ",
      "postal_code": "74400"
    },
    {
      "id": 11850,
      "district_id": 164,
      "name": "KARŞI MAH (KIŞLAKÖY KÖYÜ)",
      "area": "MERKEZKÖYLER",
      "postal_code": "74110"
    },
    {
      "id": 11851,
      "district_id": 164,
      "name": "KARŞI MAH (YEĞENLİ KÖYÜ)",
      "area": "KOZCAĞIZ",
      "postal_code": "74400"
    },
    {
      "id": 11852,
      "district_id": 164,
      "name": "KARŞIBAKRAÇ MAH (BAKİOĞLU KÖYÜ)",
      "area": "KOZCAĞIZ",
      "postal_code": "74400"
    },
    {
      "id": 11853,
      "district_id": 164,
      "name": "KARTELİ MAH (KARAHÜSEYİNLİ KÖYÜ)",
      "area": "MERKEZKÖYLER",
      "postal_code": "74110"
    },
    {
      "id": 11854,
      "district_id": 164,
      "name": "KASAPOĞLU MAH (KUTLUBEYDEMİRCİ KÖYÜ)",
      "area": "MERKEZKÖYLER",
      "postal_code": "74110"
    },
    {
      "id": 11855,
      "district_id": 164,
      "name": "KAŞIKÇI MAH (ÇUKURBÜK KÖYÜ)",
      "area": "MERKEZKÖYLER",
      "postal_code": "74110"
    },
    {
      "id": 11856,
      "district_id": 164,
      "name": "KAVLAK MAH (KAYADİBİKAVLAK KÖYÜ)",
      "area": "MERKEZKÖYLER",
      "postal_code": "74110"
    },
    {
      "id": 11857,
      "district_id": 164,
      "name": "KAVLAK MAH (KOCAREİS KÖYÜ)",
      "area": "MERKEZKÖYLER",
      "postal_code": "74110"
    },
    {
      "id": 11858,
      "district_id": 164,
      "name": "KAVLAKLIK MAH (KOZCAĞIZ BELDESİ)",
      "area": "KOZCAĞIZ",
      "postal_code": "74400"
    },
    {
      "id": 11859,
      "district_id": 164,
      "name": "KAYA ARKASI MAH (DARIÖREN KÖYÜ)",
      "area": "MERKEZKÖYLER",
      "postal_code": "74110"
    },
    {
      "id": 11860,
      "district_id": 164,
      "name": "KAYA ARKASI MAH (KAYADİBİKAVLAK KÖYÜ)",
      "area": "MERKEZKÖYLER",
      "postal_code": "74110"
    },
    {
      "id": 11861,
      "district_id": 164,
      "name": "KAYADİBİ MERKEZ MAH (KAYADİBİ KÖYÜ)",
      "area": "MERKEZKÖYLER",
      "postal_code": "74110"
    },
    {
      "id": 11862,
      "district_id": 164,
      "name": "KAYIMLAR MAH (AKÇAMESCİT KÖYÜ)",
      "area": "KOZCAĞIZ",
      "postal_code": "74400"
    },
    {
      "id": 11863,
      "district_id": 164,
      "name": "KAYPAKLAR MAH (KURT KÖYÜ)",
      "area": "MERKEZKÖYLER",
      "postal_code": "74110"
    },
    {
      "id": 11864,
      "district_id": 164,
      "name": "KELLER MAH (BAYIRYÜZÜ KÖYÜ)",
      "area": "MERKEZKÖYLER",
      "postal_code": "74110"
    },
    {
      "id": 11865,
      "district_id": 164,
      "name": "KEMER KÖPRÜ MAH",
      "area": "DEMİRCİLER",
      "postal_code": "74100"
    },
    {
      "id": 11866,
      "district_id": 164,
      "name": "KERİMOĞLU MAH (ECİKLER KÖYÜ)",
      "area": "KOZCAĞIZ",
      "postal_code": "74400"
    },
    {
      "id": 11867,
      "district_id": 164,
      "name": "KERPİÇLİK MAH (MAMAK KÖYÜ)",
      "area": "KOZCAĞIZ",
      "postal_code": "74400"
    },
    {
      "id": 11868,
      "district_id": 164,
      "name": "KESMÜKLÜ MAH (ECİKLER KÖYÜ)",
      "area": "KOZCAĞIZ",
      "postal_code": "74400"
    },
    {
      "id": 11869,
      "district_id": 164,
      "name": "KINALIOĞLU MAH (AHMETPAŞA KÖYÜ)",
      "area": "MERKEZKÖYLER",
      "postal_code": "74110"
    },
    {
      "id": 11870,
      "district_id": 164,
      "name": "KIRAÇ MAH (BÜYÜKKIZILKUM KÖYÜ)",
      "area": "MERKEZKÖYLER",
      "postal_code": "74110"
    },
    {
      "id": 11871,
      "district_id": 164,
      "name": "KIRAN MAH (ESKİEMİRLER KÖYÜ)",
      "area": "KOZCAĞIZ",
      "postal_code": "74400"
    },
    {
      "id": 11872,
      "district_id": 164,
      "name": "KIRAN MAH (USTAOĞLU KÖYÜ)",
      "area": "KOZCAĞIZ",
      "postal_code": "74400"
    },
    {
      "id": 11873,
      "district_id": 164,
      "name": "KIRANPAZARI MAH (ECİKLER KÖYÜ)",
      "area": "KOZCAĞIZ",
      "postal_code": "74400"
    },
    {
      "id": 11874,
      "district_id": 164,
      "name": "KIRANPAZARI MAH (USTAOĞLU KÖYÜ)",
      "area": "KOZCAĞIZ",
      "postal_code": "74400"
    },
    {
      "id": 11875,
      "district_id": 164,
      "name": "KİREMLİ MAH (ÖZBAŞI KÖYÜ)",
      "area": "KOZCAĞIZ",
      "postal_code": "74400"
    },
    {
      "id": 11876,
      "district_id": 164,
      "name": "KİRENCİLER MAH (MEKEÇLER KÖYÜ)",
      "area": "MERKEZKÖYLER",
      "postal_code": "74110"
    },
    {
      "id": 11877,
      "district_id": 164,
      "name": "KIRMA MAH (KAYADİBİKAVLAK KÖYÜ)",
      "area": "MERKEZKÖYLER",
      "postal_code": "74110"
    },
    {
      "id": 11878,
      "district_id": 164,
      "name": "KIRTEPE MAH",
      "area": "DEMİRCİLER",
      "postal_code": "74100"
    },
    {
      "id": 11879,
      "district_id": 164,
      "name": "KIŞLA MAH (AKBAŞ KÖYÜ)",
      "area": "KOZCAĞIZ",
      "postal_code": "74400"
    },
    {
      "id": 11880,
      "district_id": 164,
      "name": "K-KIRAN MAH (AHMETPAŞA KÖYÜ)",
      "area": "MERKEZKÖYLER",
      "postal_code": "74110"
    },
    {
      "id": 11881,
      "district_id": 164,
      "name": "KOCABEYOĞLU MAH (KUTLUBEYTABAKLAR KÖYÜ)",
      "area": "MERKEZKÖYLER",
      "postal_code": "74110"
    },
    {
      "id": 11882,
      "district_id": 164,
      "name": "KOCAOĞLU MAH (KARAYAKUP KÖYÜ)",
      "area": "KOZCAĞIZ",
      "postal_code": "74400"
    },
    {
      "id": 11883,
      "district_id": 164,
      "name": "KOCİKUZU MAH (KAYADİBİKAVLAK KÖYÜ)",
      "area": "MERKEZKÖYLER",
      "postal_code": "74110"
    },
    {
      "id": 11884,
      "district_id": 164,
      "name": "KOLÇAKLAR MAH (ÇİFTLİKKÖY KÖYÜ)",
      "area": "MERKEZKÖYLER",
      "postal_code": "74110"
    },
    {
      "id": 11885,
      "district_id": 164,
      "name": "KÖSELER MAH (KARACAOĞLU KÖYÜ)",
      "area": "KOZCAĞIZ",
      "postal_code": "74400"
    },
    {
      "id": 11886,
      "district_id": 164,
      "name": "KÖSEOĞLU MAH (KUTLUBEYDEMİRCİ KÖYÜ)",
      "area": "MERKEZKÖYLER",
      "postal_code": "74110"
    },
    {
      "id": 11887,
      "district_id": 164,
      "name": "KÖSTEKÇİOĞLU MAH (BEDİL KÖYÜ)",
      "area": "KOZCAĞIZ",
      "postal_code": "74400"
    },
    {
      "id": 11888,
      "district_id": 164,
      "name": "KÖYORTASI MAH",
      "area": "DEMİRCİLER",
      "postal_code": "74100"
    },
    {
      "id": 11889,
      "district_id": 164,
      "name": "KÖYORTASI MAH (SERDAR KÖYÜ)",
      "area": "MERKEZKÖYLER",
      "postal_code": "74110"
    },
    {
      "id": 11890,
      "district_id": 164,
      "name": "KULA MAH (DERBENT KÖYÜ)",
      "area": "MERKEZKÖYLER",
      "postal_code": "74110"
    },
    {
      "id": 11891,
      "district_id": 164,
      "name": "KULAKLAR MAH (ECİKLER KÖYÜ)",
      "area": "KOZCAĞIZ",
      "postal_code": "74400"
    },
    {
      "id": 11892,
      "district_id": 164,
      "name": "KULAKSIZ MAH (SARAYLI KÖYÜ)",
      "area": "MERKEZKÖYLER",
      "postal_code": "74110"
    },
    {
      "id": 11893,
      "district_id": 164,
      "name": "KÜLCÜLER MAH (MURATBEY KÖYÜ)",
      "area": "MERKEZKÖYLER",
      "postal_code": "74110"
    },
    {
      "id": 11894,
      "district_id": 164,
      "name": "KÜLÜKOĞLU MAH (TERKEHALİLLER KÖYÜ)",
      "area": "MERKEZKÖYLER",
      "postal_code": "74110"
    },
    {
      "id": 11895,
      "district_id": 164,
      "name": "KURT MAH (KAYADİBİÇAVUŞ KÖYÜ)",
      "area": "MERKEZKÖYLER",
      "postal_code": "74110"
    },
    {
      "id": 11896,
      "district_id": 164,
      "name": "KUTLUBEY MAH (TUZCULAR KÖYÜ)",
      "area": "MERKEZKÖYLER",
      "postal_code": "74110"
    },
    {
      "id": 11897,
      "district_id": 164,
      "name": "KUYU MAH (TERKEHALİLLER KÖYÜ)",
      "area": "MERKEZKÖYLER",
      "postal_code": "74110"
    },
    {
      "id": 11898,
      "district_id": 164,
      "name": "KUYUMCU MAH (TUZCULAR KÖYÜ)",
      "area": "MERKEZKÖYLER",
      "postal_code": "74110"
    },
    {
      "id": 11899,
      "district_id": 164,
      "name": "KUZYAKA MAH (AKINCILAR KÖYÜ)",
      "area": "KOZCAĞIZ",
      "postal_code": "74400"
    },
    {
      "id": 11900,
      "district_id": 164,
      "name": "LAZLAR MAH (AKAĞAÇ KÖYÜ)",
      "area": "KOZCAĞIZ",
      "postal_code": "74400"
    },
    {
      "id": 11901,
      "district_id": 164,
      "name": "LAZLAR MAH (BAKİOĞLU KÖYÜ)",
      "area": "KOZCAĞIZ",
      "postal_code": "74400"
    },
    {
      "id": 11902,
      "district_id": 164,
      "name": "LAZLAR MAH (ESENYURT KÖYÜ)",
      "area": "MERKEZKÖYLER",
      "postal_code": "74110"
    },
    {
      "id": 11903,
      "district_id": 164,
      "name": "LAZLAR MAH (GÜRPINAR KÖYÜ)",
      "area": "MERKEZKÖYLER",
      "postal_code": "74110"
    },
    {
      "id": 11904,
      "district_id": 164,
      "name": "LAZOĞLU MAH (MAMAK KÖYÜ)",
      "area": "KOZCAĞIZ",
      "postal_code": "74400"
    },
    {
      "id": 11905,
      "district_id": 164,
      "name": "MACIRLAR MAH (BÜYÜKKIRAN KÖYÜ)",
      "area": "MERKEZKÖYLER",
      "postal_code": "74110"
    },
    {
      "id": 11906,
      "district_id": 164,
      "name": "MADEN MAH (OKÇULAR KÖYÜ)",
      "area": "MERKEZKÖYLER",
      "postal_code": "74110"
    },
    {
      "id": 11907,
      "district_id": 164,
      "name": "MAHMUTOĞLU MAH (TERKEHALİLLER KÖYÜ)",
      "area": "MERKEZKÖYLER",
      "postal_code": "74110"
    },
    {
      "id": 11908,
      "district_id": 164,
      "name": "MANAÇ MAH (SERDAR KÖYÜ)",
      "area": "MERKEZKÖYLER",
      "postal_code": "74110"
    },
    {
      "id": 11909,
      "district_id": 164,
      "name": "MANOĞLU MAH (TUZCULAR KÖYÜ)",
      "area": "MERKEZKÖYLER",
      "postal_code": "74110"
    },
    {
      "id": 11910,
      "district_id": 164,
      "name": "MARUZLAR MAH (HASANLAR KÖYÜ)",
      "area": "MERKEZKÖYLER",
      "postal_code": "74110"
    },
    {
      "id": 11911,
      "district_id": 164,
      "name": "MASKARLAR MAH (ELLİBAŞ KÖYÜ)",
      "area": "KOZCAĞIZ",
      "postal_code": "74400"
    },
    {
      "id": 11912,
      "district_id": 164,
      "name": "MAZMOĞLU MAH (AKBABA KÖYÜ)",
      "area": "MERKEZKÖYLER",
      "postal_code": "74110"
    },
    {
      "id": 11913,
      "district_id": 164,
      "name": "MEHMETBEYOĞLU MAH (ESENYURT KÖYÜ)",
      "area": "MERKEZKÖYLER",
      "postal_code": "74110"
    },
    {
      "id": 11914,
      "district_id": 164,
      "name": "MEKEÇ MAH (MEKEÇLER KÖYÜ)",
      "area": "MERKEZKÖYLER",
      "postal_code": "74110"
    },
    {
      "id": 11915,
      "district_id": 164,
      "name": "MELLİOĞLU MAH (TUZCULAR KÖYÜ)",
      "area": "MERKEZKÖYLER",
      "postal_code": "74110"
    },
    {
      "id": 11916,
      "district_id": 164,
      "name": "MEMOĞLU MAH (BAYIRYÜZÜ KÖYÜ)",
      "area": "MERKEZKÖYLER",
      "postal_code": "74110"
    },
    {
      "id": 11917,
      "district_id": 164,
      "name": "MENCİ MAH (AKÇALI KÖYÜ)",
      "area": "MERKEZKÖYLER",
      "postal_code": "74110"
    },
    {
      "id": 11918,
      "district_id": 164,
      "name": "MENTEŞLER MAH (HACIHATİPOĞLU KÖYÜ)",
      "area": "MERKEZKÖYLER",
      "postal_code": "74110"
    },
    {
      "id": 11919,
      "district_id": 164,
      "name": "MENTEŞPİRİ MAH (ARIT KÖYÜ)",
      "area": "MERKEZKÖYLER",
      "postal_code": "74110"
    },
    {
      "id": 11920,
      "district_id": 164,
      "name": "MERKEZ  MAH (KAPAKLI MAH) (GÜZELCEHİSAR KÖYÜ)",
      "area": "MERKEZKÖYLER",
      "postal_code": "74110"
    },
    {
      "id": 11921,
      "district_id": 164,
      "name": "MERKEZ MAH (AHMETPAŞA KÖYÜ)",
      "area": "MERKEZKÖYLER",
      "postal_code": "74110"
    },
    {
      "id": 11922,
      "district_id": 164,
      "name": "MERKEZ MAH (AKBABA KÖYÜ)",
      "area": "MERKEZKÖYLER",
      "postal_code": "74110"
    },
    {
      "id": 11923,
      "district_id": 164,
      "name": "MERKEZ MAH (AKINCILAR KÖYÜ)",
      "area": "KOZCAĞIZ",
      "postal_code": "74400"
    },
    {
      "id": 11924,
      "district_id": 164,
      "name": "MERKEZ MAH (AKMANLAR KÖYÜ)",
      "area": "MERKEZKÖYLER",
      "postal_code": "74110"
    },
    {
      "id": 11925,
      "district_id": 164,
      "name": "MERKEZ MAH (AKPINAR KÖYÜ)",
      "area": "MERKEZKÖYLER",
      "postal_code": "74110"
    },
    {
      "id": 11926,
      "district_id": 164,
      "name": "MERKEZ MAH (ARIÖNÜ KÖYÜ)",
      "area": "MERKEZKÖYLER",
      "postal_code": "74110"
    },
    {
      "id": 11927,
      "district_id": 164,
      "name": "MERKEZ MAH (AVGÖLÜ KÖYÜ)",
      "area": "KOZCAĞIZ",
      "postal_code": "74400"
    },
    {
      "id": 11928,
      "district_id": 164,
      "name": "MERKEZ MAH (AYDINLAR KÖYÜ)",
      "area": "MERKEZKÖYLER",
      "postal_code": "74110"
    },
    {
      "id": 11929,
      "district_id": 164,
      "name": "MERKEZ MAH (BAKİOĞLU KÖYÜ)",
      "area": "KOZCAĞIZ",
      "postal_code": "74400"
    },
    {
      "id": 11930,
      "district_id": 164,
      "name": "MERKEZ MAH (BAŞOĞLU KÖYÜ)",
      "area": "KOZCAĞIZ",
      "postal_code": "74400"
    },
    {
      "id": 11931,
      "district_id": 164,
      "name": "MERKEZ MAH (BEŞKÖPRÜ KÖYÜ)",
      "area": "MERKEZKÖYLER",
      "postal_code": "74110"
    },
    {
      "id": 11932,
      "district_id": 164,
      "name": "MERKEZ MAH (BUDAKDÜZÜ KÖYÜ)",
      "area": "MERKEZKÖYLER",
      "postal_code": "74110"
    },
    {
      "id": 11933,
      "district_id": 164,
      "name": "MERKEZ MAH (BÜYÜKKIRAN KÖYÜ)",
      "area": "MERKEZKÖYLER",
      "postal_code": "74110"
    },
    {
      "id": 11934,
      "district_id": 164,
      "name": "MERKEZ MAH (BÜYÜKKIZILKUM KÖYÜ)",
      "area": "MERKEZKÖYLER",
      "postal_code": "74110"
    },
    {
      "id": 11935,
      "district_id": 164,
      "name": "MERKEZ MAH (ÇAMALTI KÖYÜ)",
      "area": "MERKEZKÖYLER",
      "postal_code": "74110"
    },
    {
      "id": 11936,
      "district_id": 164,
      "name": "MERKEZ MAH (ÇAYBÜKÜ KÖYÜ)",
      "area": "KOZCAĞIZ",
      "postal_code": "74400"
    },
    {
      "id": 11937,
      "district_id": 164,
      "name": "MERKEZ MAH (CELİLBEYOĞLU KÖYÜ)",
      "area": "KOZCAĞIZ",
      "postal_code": "74400"
    },
    {
      "id": 11938,
      "district_id": 164,
      "name": "MERKEZ MAH (ÇEŞTEPE KÖYÜ)",
      "area": "MERKEZKÖYLER",
      "postal_code": "74110"
    },
    {
      "id": 11939,
      "district_id": 164,
      "name": "MERKEZ MAH (ÇİFTLİKKÖY KÖYÜ)",
      "area": "MERKEZKÖYLER",
      "postal_code": "74110"
    },
    {
      "id": 11940,
      "district_id": 164,
      "name": "MERKEZ MAH (ÇUKURBÜK KÖYÜ)",
      "area": "MERKEZKÖYLER",
      "postal_code": "74110"
    },
    {
      "id": 11941,
      "district_id": 164,
      "name": "MERKEZ MAH (DARIÖREN KÖYÜ)",
      "area": "MERKEZKÖYLER",
      "postal_code": "74110"
    },
    {
      "id": 11942,
      "district_id": 164,
      "name": "MERKEZ MAH (DERBENT KÖYÜ)",
      "area": "MERKEZKÖYLER",
      "postal_code": "74110"
    },
    {
      "id": 11943,
      "district_id": 164,
      "name": "MERKEZ MAH (DOĞAŞI KÖYÜ)",
      "area": "MERKEZKÖYLER",
      "postal_code": "74110"
    },
    {
      "id": 11944,
      "district_id": 164,
      "name": "MERKEZ MAH (ECİKLER KÖYÜ)",
      "area": "KOZCAĞIZ",
      "postal_code": "74400"
    },
    {
      "id": 11945,
      "district_id": 164,
      "name": "MERKEZ MAH (EPÇİLER KÖYÜ)",
      "area": "MERKEZKÖYLER",
      "postal_code": "74110"
    },
    {
      "id": 11946,
      "district_id": 164,
      "name": "MERKEZ MAH (ESBEY KÖYÜ)",
      "area": "MERKEZKÖYLER",
      "postal_code": "74110"
    },
    {
      "id": 11947,
      "district_id": 164,
      "name": "MERKEZ MAH (ESKİHAMİDİYE KÖYÜ)",
      "area": "KOZCAĞIZ",
      "postal_code": "74400"
    },
    {
      "id": 11948,
      "district_id": 164,
      "name": "MERKEZ MAH (EYÜPOĞLU KÖYÜ)",
      "area": "KOZCAĞIZ",
      "postal_code": "74400"
    },
    {
      "id": 11949,
      "district_id": 164,
      "name": "MERKEZ MAH (GENÇALİ KÖYÜ)",
      "area": "MERKEZKÖYLER",
      "postal_code": "74110"
    },
    {
      "id": 11950,
      "district_id": 164,
      "name": "MERKEZ MAH (GÖKÇEKIRAN KÖYÜ)",
      "area": "MERKEZKÖYLER",
      "postal_code": "74110"
    },
    {
      "id": 11951,
      "district_id": 164,
      "name": "MERKEZ MAH (GÖZPINAR KÖYÜ)",
      "area": "MERKEZKÖYLER",
      "postal_code": "74110"
    },
    {
      "id": 11952,
      "district_id": 164,
      "name": "MERKEZ MAH (HACIHATİPOĞLU KÖYÜ)",
      "area": "MERKEZKÖYLER",
      "postal_code": "74110"
    },
    {
      "id": 11953,
      "district_id": 164,
      "name": "MERKEZ MAH (HACIOSMANOĞLU KÖYÜ)",
      "area": "MERKEZKÖYLER",
      "postal_code": "74110"
    },
    {
      "id": 11954,
      "district_id": 164,
      "name": "MERKEZ MAH (HANYERİ KÖYÜ)",
      "area": "KOZCAĞIZ",
      "postal_code": "74400"
    },
    {
      "id": 11955,
      "district_id": 164,
      "name": "MERKEZ MAH (HASANEFENDİ KÖYÜ)",
      "area": "KOZCAĞIZ",
      "postal_code": "74400"
    },
    {
      "id": 11956,
      "district_id": 164,
      "name": "MERKEZ MAH (HASANKADI BELDESİ)",
      "area": "HASANKADI",
      "postal_code": "74420"
    },
    {
      "id": 11957,
      "district_id": 164,
      "name": "MERKEZ MAH (HIDIRLAR KÖYÜ)",
      "area": "KOZCAĞIZ",
      "postal_code": "74400"
    },
    {
      "id": 11958,
      "district_id": 164,
      "name": "MERKEZ MAH (İMAMLAR KÖYÜ)",
      "area": "MERKEZKÖYLER",
      "postal_code": "74110"
    },
    {
      "id": 11959,
      "district_id": 164,
      "name": "MERKEZ MAH (KABAGÖZ KÖYÜ)",
      "area": "MERKEZKÖYLER",
      "postal_code": "74110"
    },
    {
      "id": 11960,
      "district_id": 164,
      "name": "MERKEZ MAH (KAMAN KÖYÜ)",
      "area": "MERKEZKÖYLER",
      "postal_code": "74110"
    },
    {
      "id": 11961,
      "district_id": 164,
      "name": "MERKEZ MAH (KARAİNLER KÖYÜ)",
      "area": "MERKEZKÖYLER",
      "postal_code": "74110"
    },
    {
      "id": 11962,
      "district_id": 164,
      "name": "MERKEZ MAH (KARAKÖYŞEYHLER KÖYÜ)",
      "area": "MERKEZKÖYLER",
      "postal_code": "74110"
    },
    {
      "id": 11963,
      "district_id": 164,
      "name": "MERKEZ MAH (KARASU KÖYÜ)",
      "area": "MERKEZKÖYLER",
      "postal_code": "74110"
    },
    {
      "id": 11964,
      "district_id": 164,
      "name": "MERKEZ MAH (KARAYAKUP KÖYÜ)",
      "area": "KOZCAĞIZ",
      "postal_code": "74400"
    },
    {
      "id": 11965,
      "district_id": 164,
      "name": "MERKEZ MAH (KARŞIYAKA KÖYÜ)",
      "area": "KOZCAĞIZ",
      "postal_code": "74400"
    },
    {
      "id": 11966,
      "district_id": 164,
      "name": "MERKEZ MAH (KAŞBAŞI KÖYÜ)",
      "area": "MERKEZKÖYLER",
      "postal_code": "74110"
    },
    {
      "id": 11967,
      "district_id": 164,
      "name": "MERKEZ MAH (KAYACILAR KÖYÜ)",
      "area": "MERKEZKÖYLER",
      "postal_code": "74110"
    },
    {
      "id": 11968,
      "district_id": 164,
      "name": "MERKEZ MAH (KAYADİBİÇAVUŞ KÖYÜ)",
      "area": "MERKEZKÖYLER",
      "postal_code": "74110"
    },
    {
      "id": 11969,
      "district_id": 164,
      "name": "MERKEZ MAH (KIZILELMA KÖYÜ)",
      "area": "MERKEZKÖYLER",
      "postal_code": "74110"
    },
    {
      "id": 11970,
      "district_id": 164,
      "name": "MERKEZ MAH (KOCAREİS KÖYÜ)",
      "area": "MERKEZKÖYLER",
      "postal_code": "74110"
    },
    {
      "id": 11971,
      "district_id": 164,
      "name": "MERKEZ MAH (KÖYYERİ KÖYÜ)",
      "area": "KOZCAĞIZ",
      "postal_code": "74400"
    },
    {
      "id": 11972,
      "district_id": 164,
      "name": "MERKEZ MAH (KOZCAĞIZ BELDESİ)",
      "area": "KOZCAĞIZ",
      "postal_code": "74400"
    },
    {
      "id": 11973,
      "district_id": 164,
      "name": "MERKEZ MAH (KÜMESLER KÖYÜ)",
      "area": "MERKEZKÖYLER",
      "postal_code": "74110"
    },
    {
      "id": 11974,
      "district_id": 164,
      "name": "MERKEZ MAH (KURT KÖYÜ)",
      "area": "MERKEZKÖYLER",
      "postal_code": "74110"
    },
    {
      "id": 11975,
      "district_id": 164,
      "name": "MERKEZ MAH (KUTLUBEYTABAKLAR KÖYÜ)",
      "area": "MERKEZKÖYLER",
      "postal_code": "74110"
    },
    {
      "id": 11976,
      "district_id": 164,
      "name": "MERKEZ MAH (MAMAK KÖYÜ)",
      "area": "KOZCAĞIZ",
      "postal_code": "74400"
    },
    {
      "id": 11977,
      "district_id": 164,
      "name": "MERKEZ MAH (MURATBEY KÖYÜ)",
      "area": "MERKEZKÖYLER",
      "postal_code": "74110"
    },
    {
      "id": 11978,
      "district_id": 164,
      "name": "MERKEZ MAH (OKÇULAR KÖYÜ)",
      "area": "MERKEZKÖYLER",
      "postal_code": "74110"
    },
    {
      "id": 11979,
      "district_id": 164,
      "name": "MERKEZ MAH (ÖREN KÖYÜ)",
      "area": "MERKEZKÖYLER",
      "postal_code": "74110"
    },
    {
      "id": 11980,
      "district_id": 164,
      "name": "MERKEZ MAH (ŞABANKADI KÖYÜ)",
      "area": "KOZCAĞIZ",
      "postal_code": "74400"
    },
    {
      "id": 11981,
      "district_id": 164,
      "name": "MERKEZ MAH (ŞAHNE KÖYÜ)",
      "area": "MERKEZKÖYLER",
      "postal_code": "74110"
    },
    {
      "id": 11982,
      "district_id": 164,
      "name": "MERKEZ MAH (SARAYLI KÖYÜ)",
      "area": "MERKEZKÖYLER",
      "postal_code": "74110"
    },
    {
      "id": 11983,
      "district_id": 164,
      "name": "MERKEZ MAH (SOFULAR KÖYÜ)",
      "area": "KOZCAĞIZ",
      "postal_code": "74400"
    },
    {
      "id": 11984,
      "district_id": 164,
      "name": "MERKEZ MAH (SÖĞÜTLÜ KÖYÜ)",
      "area": "MERKEZKÖYLER",
      "postal_code": "74110"
    },
    {
      "id": 11985,
      "district_id": 164,
      "name": "MERKEZ MAH (TASMACI KÖYÜ)",
      "area": "KOZCAĞIZ",
      "postal_code": "74400"
    },
    {
      "id": 11986,
      "district_id": 164,
      "name": "MERKEZ MAH (TERKEHATİPLER KÖYÜ)",
      "area": "MERKEZKÖYLER",
      "postal_code": "74110"
    },
    {
      "id": 11987,
      "district_id": 164,
      "name": "MERKEZ MAH (TOPLUCA KÖYÜ)",
      "area": "MERKEZKÖYLER",
      "postal_code": "74110"
    },
    {
      "id": 11988,
      "district_id": 164,
      "name": "MERKEZ MAH (TUZCULAR KÖYÜ)",
      "area": "MERKEZKÖYLER",
      "postal_code": "74110"
    },
    {
      "id": 11989,
      "district_id": 164,
      "name": "MERKEZ MAH (UĞURLAR KÖYÜ)",
      "area": "MERKEZKÖYLER",
      "postal_code": "74110"
    },
    {
      "id": 11990,
      "district_id": 164,
      "name": "MERKEZ MAH (ULUGEÇİTAMBARCI KÖYÜ)",
      "area": "MERKEZKÖYLER",
      "postal_code": "74110"
    },
    {
      "id": 11991,
      "district_id": 164,
      "name": "MERKEZ MAH (ULUGEÇİTKADI KÖYÜ)",
      "area": "MERKEZKÖYLER",
      "postal_code": "74110"
    },
    {
      "id": 11992,
      "district_id": 164,
      "name": "MERKEZ MAH (YANAZ KÖYÜ)",
      "area": "MERKEZKÖYLER",
      "postal_code": "74110"
    },
    {
      "id": 11993,
      "district_id": 164,
      "name": "MERKEZ MAH (YEĞENLİ KÖYÜ)",
      "area": "KOZCAĞIZ",
      "postal_code": "74400"
    },
    {
      "id": 11994,
      "district_id": 164,
      "name": "MERKEZ MAH (YENİHAMİDİYE KÖYÜ)",
      "area": "KOZCAĞIZ",
      "postal_code": "74400"
    },
    {
      "id": 11995,
      "district_id": 164,
      "name": "MERKEZ MAH (YENİKÖY KÖYÜ)",
      "area": "MERKEZKÖYLER",
      "postal_code": "74110"
    },
    {
      "id": 11996,
      "district_id": 164,
      "name": "MERKEZ MAH (YEŞİLKAYA KÖYÜ)",
      "area": "MERKEZKÖYLER",
      "postal_code": "74110"
    },
    {
      "id": 11997,
      "district_id": 164,
      "name": "MERYEMOĞLU MAH (SÜTLÜCE KÖYÜ)",
      "area": "KOZCAĞIZ",
      "postal_code": "74400"
    },
    {
      "id": 11998,
      "district_id": 164,
      "name": "MEYDAN MAH (DARIÖREN KÖYÜ)",
      "area": "MERKEZKÖYLER",
      "postal_code": "74110"
    },
    {
      "id": 11999,
      "district_id": 164,
      "name": "MEYDAN MAH (DOĞAŞI KÖYÜ)",
      "area": "MERKEZKÖYLER",
      "postal_code": "74110"
    },
    {
      "id": 12000,
      "district_id": 164,
      "name": "MEYDAN MAH (ŞAHİN KÖYÜ)",
      "area": "MERKEZKÖYLER",
      "postal_code": "74110"
    },
    {
      "id": 12001,
      "district_id": 164,
      "name": "MOLLA MAH (ULUGEÇİTAMBARCI KÖYÜ)",
      "area": "MERKEZKÖYLER",
      "postal_code": "74110"
    },
    {
      "id": 12002,
      "district_id": 164,
      "name": "MOLLA OSMAN MAH (TOPLUCA KÖYÜ)",
      "area": "MERKEZKÖYLER",
      "postal_code": "74110"
    },
    {
      "id": 12003,
      "district_id": 164,
      "name": "MOLLABEKİR MAH (GERİŞ KÖYÜ)",
      "area": "MERKEZKÖYLER",
      "postal_code": "74110"
    },
    {
      "id": 12004,
      "district_id": 164,
      "name": "MUGADA MAH (ARIÖNÜ KÖYÜ)",
      "area": "MERKEZKÖYLER",
      "postal_code": "74110"
    },
    {
      "id": 12005,
      "district_id": 164,
      "name": "MUGADA SAHİL MAH (ARIÖNÜ KÖYÜ)",
      "area": "MERKEZKÖYLER",
      "postal_code": "74110"
    },
    {
      "id": 12006,
      "district_id": 164,
      "name": "MUHACİRLER MAH (TOPLUCA KÖYÜ)",
      "area": "MERKEZKÖYLER",
      "postal_code": "74110"
    },
    {
      "id": 12007,
      "district_id": 164,
      "name": "MUSAKALFAOGLU MAH (ULUGEÇİTKADI KÖYÜ)",
      "area": "MERKEZKÖYLER",
      "postal_code": "74110"
    },
    {
      "id": 12008,
      "district_id": 164,
      "name": "MUSAOĞLU MAH (HASANEFENDİ KÖYÜ)",
      "area": "KOZCAĞIZ",
      "postal_code": "74400"
    },
    {
      "id": 12009,
      "district_id": 164,
      "name": "MUTAF MAH (TERKEHALİLLER KÖYÜ)",
      "area": "MERKEZKÖYLER",
      "postal_code": "74110"
    },
    {
      "id": 12010,
      "district_id": 164,
      "name": "MUZAFFERLER MAH (HOCAOĞLU KÖYÜ)",
      "area": "KOZCAĞIZ",
      "postal_code": "74400"
    },
    {
      "id": 12011,
      "district_id": 164,
      "name": "NANE MAH (ÇEŞTEPE KÖYÜ)",
      "area": "MERKEZKÖYLER",
      "postal_code": "74110"
    },
    {
      "id": 12012,
      "district_id": 164,
      "name": "NASUH MAH (TABANÖZÜ KÖYÜ)",
      "area": "MERKEZKÖYLER",
      "postal_code": "74110"
    },
    {
      "id": 12013,
      "district_id": 164,
      "name": "NEZİROĞLU MAH (HASANEFENDİ KÖYÜ)",
      "area": "KOZCAĞIZ",
      "postal_code": "74400"
    },
    {
      "id": 12014,
      "district_id": 164,
      "name": "ODAMEHMETOĞLU MAH (ÇAKIRDEMİRCİ KÖYÜ)",
      "area": "MERKEZKÖYLER",
      "postal_code": "74110"
    },
    {
      "id": 12015,
      "district_id": 164,
      "name": "OKÇULAR MAH (KAYACILAR KÖYÜ)",
      "area": "MERKEZKÖYLER",
      "postal_code": "74110"
    },
    {
      "id": 12016,
      "district_id": 164,
      "name": "OKULAK MAH",
      "area": "DEMİRCİLER",
      "postal_code": "74100"
    },
    {
      "id": 12017,
      "district_id": 164,
      "name": "ÖLÇEKOĞLU MAH (TASMACI KÖYÜ)",
      "area": "KOZCAĞIZ",
      "postal_code": "74400"
    },
    {
      "id": 12018,
      "district_id": 164,
      "name": "ÖMERKÖY MAH (AKÇALI KÖYÜ)",
      "area": "MERKEZKÖYLER",
      "postal_code": "74110"
    },
    {
      "id": 12019,
      "district_id": 164,
      "name": "ÖMERLER MAH (ECİKLER KÖYÜ)",
      "area": "KOZCAĞIZ",
      "postal_code": "74400"
    },
    {
      "id": 12020,
      "district_id": 164,
      "name": "ÖMERLER MAH (KARAMAZAK KÖYÜ)",
      "area": "MERKEZKÖYLER",
      "postal_code": "74110"
    },
    {
      "id": 12021,
      "district_id": 164,
      "name": "ORDUYERİ MAH",
      "area": "DEMİRCİLER",
      "postal_code": "74100"
    },
    {
      "id": 12022,
      "district_id": 164,
      "name": "ÖRENCİK MAH (KAYADİBİKAVLAK KÖYÜ)",
      "area": "MERKEZKÖYLER",
      "postal_code": "74110"
    },
    {
      "id": 12023,
      "district_id": 164,
      "name": "ORGANİZE SANAYİ BÖLGESİ MAH (YANAZ KÖYÜ)",
      "area": "MERKEZKÖYLER",
      "postal_code": "74110"
    },
    {
      "id": 12024,
      "district_id": 164,
      "name": "ORMANOĞLU MAH (AKMANLAR KÖYÜ)",
      "area": "MERKEZKÖYLER",
      "postal_code": "74110"
    },
    {
      "id": 12025,
      "district_id": 164,
      "name": "ORTA MAH",
      "area": "DEMİRCİLER",
      "postal_code": "74100"
    },
    {
      "id": 12026,
      "district_id": 164,
      "name": "ORTA MAH (AKPINAR KÖYÜ)",
      "area": "MERKEZKÖYLER",
      "postal_code": "74110"
    },
    {
      "id": 12027,
      "district_id": 164,
      "name": "ORTA MAH (AŞAĞIDERE KÖYÜ)",
      "area": "KOZCAĞIZ",
      "postal_code": "74400"
    },
    {
      "id": 12028,
      "district_id": 164,
      "name": "ORTA MAH (ÇAYBÜKÜ KÖYÜ)",
      "area": "KOZCAĞIZ",
      "postal_code": "74400"
    },
    {
      "id": 12029,
      "district_id": 164,
      "name": "ORTA MAH (ÇAYIR KÖYÜ)",
      "area": "MERKEZKÖYLER",
      "postal_code": "74110"
    },
    {
      "id": 12030,
      "district_id": 164,
      "name": "ORTA MAH (GERİŞKATIRCI KÖYÜ)",
      "area": "MERKEZKÖYLER",
      "postal_code": "74110"
    },
    {
      "id": 12031,
      "district_id": 164,
      "name": "ORTA MAH (GÖKÇEKIRAN KÖYÜ)",
      "area": "MERKEZKÖYLER",
      "postal_code": "74110"
    },
    {
      "id": 12032,
      "district_id": 164,
      "name": "ORTA MAH (KÜMESLER KÖYÜ)",
      "area": "MERKEZKÖYLER",
      "postal_code": "74110"
    },
    {
      "id": 12033,
      "district_id": 164,
      "name": "ORTA MAH (MEKEÇLER KÖYÜ)",
      "area": "MERKEZKÖYLER",
      "postal_code": "74110"
    },
    {
      "id": 12034,
      "district_id": 164,
      "name": "ORTA MAH (ŞABANKADI KÖYÜ)",
      "area": "KOZCAĞIZ",
      "postal_code": "74400"
    },
    {
      "id": 12035,
      "district_id": 164,
      "name": "ORTA MAH (SÜTLÜCE KÖYÜ)",
      "area": "KOZCAĞIZ",
      "postal_code": "74400"
    },
    {
      "id": 12036,
      "district_id": 164,
      "name": "ORTA MAH (ULUKÖY KÖYÜ)",
      "area": "KOZCAĞIZ",
      "postal_code": "74400"
    },
    {
      "id": 12037,
      "district_id": 164,
      "name": "ORTAÇAY MAH (HASANEFENDİ KÖYÜ)",
      "area": "KOZCAĞIZ",
      "postal_code": "74400"
    },
    {
      "id": 12038,
      "district_id": 164,
      "name": "ORTAKÖY MAH (AKÇALI KÖYÜ)",
      "area": "MERKEZKÖYLER",
      "postal_code": "74110"
    },
    {
      "id": 12039,
      "district_id": 164,
      "name": "ORUÇLAR MAH (BAKİOĞLU KÖYÜ)",
      "area": "KOZCAĞIZ",
      "postal_code": "74400"
    },
    {
      "id": 12040,
      "district_id": 164,
      "name": "OSMAN MAH (AKBABA KÖYÜ)",
      "area": "MERKEZKÖYLER",
      "postal_code": "74110"
    },
    {
      "id": 12041,
      "district_id": 164,
      "name": "OSMAN MAH (KAYADİBİKAVLAK KÖYÜ)",
      "area": "MERKEZKÖYLER",
      "postal_code": "74110"
    },
    {
      "id": 12042,
      "district_id": 164,
      "name": "OSMANBAŞOĞLU MAH (HACIOSMANOĞLU KÖYÜ)",
      "area": "MERKEZKÖYLER",
      "postal_code": "74110"
    },
    {
      "id": 12043,
      "district_id": 164,
      "name": "OSMANBEYOĞLU MAH (AKBAŞ KÖYÜ)",
      "area": "KOZCAĞIZ",
      "postal_code": "74400"
    },
    {
      "id": 12044,
      "district_id": 164,
      "name": "ÖTEYÜZ MAH (BÜYÜKKIZILKUM KÖYÜ)",
      "area": "MERKEZKÖYLER",
      "postal_code": "74110"
    },
    {
      "id": 12045,
      "district_id": 164,
      "name": "OVAZLAR MAH (KARAKÖYŞEYHLER KÖYÜ)",
      "area": "MERKEZKÖYLER",
      "postal_code": "74110"
    },
    {
      "id": 12046,
      "district_id": 164,
      "name": "ÖZCANLAR MAH (HOCAOĞLU KÖYÜ)",
      "area": "KOZCAĞIZ",
      "postal_code": "74400"
    },
    {
      "id": 12047,
      "district_id": 164,
      "name": "PİRNALLAR MAH (BAYIRYÜZÜ KÖYÜ)",
      "area": "MERKEZKÖYLER",
      "postal_code": "74110"
    },
    {
      "id": 12048,
      "district_id": 164,
      "name": "POSTAL MAH (GÜRPINAR KÖYÜ)",
      "area": "MERKEZKÖYLER",
      "postal_code": "74110"
    },
    {
      "id": 12049,
      "district_id": 164,
      "name": "RECEPOĞLU MAH (ÇAKIRDEMİRCİ KÖYÜ)",
      "area": "MERKEZKÖYLER",
      "postal_code": "74110"
    },
    {
      "id": 12050,
      "district_id": 164,
      "name": "RECEPPAŞA MAH (KURT KÖYÜ)",
      "area": "MERKEZKÖYLER",
      "postal_code": "74110"
    },
    {
      "id": 12051,
      "district_id": 164,
      "name": "ŞABANKADI MAH (HASANKADI BELDESİ)",
      "area": "HASANKADI",
      "postal_code": "74420"
    },
    {
      "id": 12052,
      "district_id": 164,
      "name": "ŞABANLAR MAH (KUTLUBEYYAZICILAR KÖYÜ)",
      "area": "MERKEZKÖYLER",
      "postal_code": "74110"
    },
    {
      "id": 12053,
      "district_id": 164,
      "name": "ŞAHİN MAH (ŞAHİN KÖYÜ)",
      "area": "MERKEZKÖYLER",
      "postal_code": "74110"
    },
    {
      "id": 12054,
      "district_id": 164,
      "name": "ŞAHİN PAŞA MAH (MEKEÇLER KÖYÜ)",
      "area": "MERKEZKÖYLER",
      "postal_code": "74110"
    },
    {
      "id": 12055,
      "district_id": 164,
      "name": "ŞAHNE MAH (DOĞAŞI KÖYÜ)",
      "area": "MERKEZKÖYLER",
      "postal_code": "74110"
    },
    {
      "id": 12056,
      "district_id": 164,
      "name": "SAKAOĞLU MAH (ÇAKIRKADI KÖYÜ)",
      "area": "MERKEZKÖYLER",
      "postal_code": "74110"
    },
    {
      "id": 12057,
      "district_id": 164,
      "name": "SAKAOĞLU MAH (ULUGEÇİTKADI KÖYÜ)",
      "area": "MERKEZKÖYLER",
      "postal_code": "74110"
    },
    {
      "id": 12058,
      "district_id": 164,
      "name": "ŞANLILAR MAH (HOCAOĞLU KÖYÜ)",
      "area": "KOZCAĞIZ",
      "postal_code": "74400"
    },
    {
      "id": 12059,
      "district_id": 164,
      "name": "SARAÇLAR MAH (CELİLBEYOĞLU KÖYÜ)",
      "area": "KOZCAĞIZ",
      "postal_code": "74400"
    },
    {
      "id": 12060,
      "district_id": 164,
      "name": "SARIMSAKÇIOĞLU MAH (KÜÇÜKKIZILKUM KÖYÜ)",
      "area": "MERKEZKÖYLER",
      "postal_code": "74110"
    },
    {
      "id": 12061,
      "district_id": 164,
      "name": "SATILMIŞOĞLU MAH (BAKİOĞLU KÖYÜ)",
      "area": "KOZCAĞIZ",
      "postal_code": "74400"
    },
    {
      "id": 12062,
      "district_id": 164,
      "name": "SAZLIK MAH (AKBAŞ KÖYÜ)",
      "area": "KOZCAĞIZ",
      "postal_code": "74400"
    },
    {
      "id": 12063,
      "district_id": 164,
      "name": "SEFERLER MAH (AKMANLAR KÖYÜ)",
      "area": "MERKEZKÖYLER",
      "postal_code": "74110"
    },
    {
      "id": 12064,
      "district_id": 164,
      "name": "ŞEHİT FURKAN YILMAZ MAH (BÜYÜKKIZILKUM KÖYÜ)",
      "area": "MERKEZKÖYLER",
      "postal_code": "74110"
    },
    {
      "id": 12065,
      "district_id": 164,
      "name": "SİNOPLU MAH (ŞİREMİRTABAKLAR KÖYÜ)",
      "area": "MERKEZKÖYLER",
      "postal_code": "74110"
    },
    {
      "id": 12066,
      "district_id": 164,
      "name": "SİPAHİLER KÖYÜ",
      "area": "MERKEZKÖYLER",
      "postal_code": "74110"
    },
    {
      "id": 12067,
      "district_id": 164,
      "name": "ŞIPBEN MAH (ÇAMALTI KÖYÜ)",
      "area": "MERKEZKÖYLER",
      "postal_code": "74110"
    },
    {
      "id": 12068,
      "district_id": 164,
      "name": "SIRALI MAH (ÖREN KÖYÜ)",
      "area": "MERKEZKÖYLER",
      "postal_code": "74110"
    },
    {
      "id": 12069,
      "district_id": 164,
      "name": "ŞİREMİRÇAVUŞ MAH",
      "area": "DEMİRCİLER",
      "postal_code": "74100"
    },
    {
      "id": 12070,
      "district_id": 164,
      "name": "ŞİRİNKÖY KÖYÜ",
      "area": "KOZCAĞIZ",
      "postal_code": "74400"
    },
    {
      "id": 12071,
      "district_id": 164,
      "name": "ŞİŞMAN MAH (GENÇALİ KÖYÜ)",
      "area": "MERKEZKÖYLER",
      "postal_code": "74110"
    },
    {
      "id": 12072,
      "district_id": 164,
      "name": "ŞIVGILAR MAH (ECİKLER KÖYÜ)",
      "area": "KOZCAĞIZ",
      "postal_code": "74400"
    },
    {
      "id": 12073,
      "district_id": 164,
      "name": "SOFULAR MAH (KUTLUBEYYAZICILAR KÖYÜ)",
      "area": "MERKEZKÖYLER",
      "postal_code": "74110"
    },
    {
      "id": 12074,
      "district_id": 164,
      "name": "SOLGANLAR MAH (DIRAZLAR KÖYÜ)",
      "area": "KOZCAĞIZ",
      "postal_code": "74400"
    },
    {
      "id": 12075,
      "district_id": 164,
      "name": "SUBAŞI MAH (HOCAOĞLU KÖYÜ)",
      "area": "KOZCAĞIZ",
      "postal_code": "74400"
    },
    {
      "id": 12076,
      "district_id": 164,
      "name": "SUCUOĞLU MAH (KARAMAZAK KÖYÜ)",
      "area": "MERKEZKÖYLER",
      "postal_code": "74110"
    },
    {
      "id": 12077,
      "district_id": 164,
      "name": "TABAKLAR MAH (ULUGEÇİTKADI KÖYÜ)",
      "area": "MERKEZKÖYLER",
      "postal_code": "74110"
    },
    {
      "id": 12078,
      "district_id": 164,
      "name": "TABAKLI MAH (ÇAKIRÖMERAĞA KÖYÜ)",
      "area": "MERKEZKÖYLER",
      "postal_code": "74110"
    },
    {
      "id": 12079,
      "district_id": 164,
      "name": "TABAKOĞLU MAH (KUTLUBEYTABAKLAR KÖYÜ)",
      "area": "MERKEZKÖYLER",
      "postal_code": "74110"
    },
    {
      "id": 12080,
      "district_id": 164,
      "name": "TAŞ KÖPRÜ MAH (UĞURLAR KÖYÜ)",
      "area": "MERKEZKÖYLER",
      "postal_code": "74110"
    },
    {
      "id": 12081,
      "district_id": 164,
      "name": "TATAROĞLU MAH (ESENYURT KÖYÜ)",
      "area": "MERKEZKÖYLER",
      "postal_code": "74110"
    },
    {
      "id": 12082,
      "district_id": 164,
      "name": "TEKKE MAH (AKBABA KÖYÜ)",
      "area": "MERKEZKÖYLER",
      "postal_code": "74110"
    },
    {
      "id": 12083,
      "district_id": 164,
      "name": "TEKKE MAH (AKÇAMESCİT KÖYÜ)",
      "area": "KOZCAĞIZ",
      "postal_code": "74400"
    },
    {
      "id": 12084,
      "district_id": 164,
      "name": "TELLİOĞLU MAH (KUTLUBEYYAZICILAR KÖYÜ)",
      "area": "MERKEZKÖYLER",
      "postal_code": "74110"
    },
    {
      "id": 12085,
      "district_id": 164,
      "name": "TEPEYANI MAH (HIDIRLAR KÖYÜ)",
      "area": "KOZCAĞIZ",
      "postal_code": "74400"
    },
    {
      "id": 12086,
      "district_id": 164,
      "name": "TEREZOĞLU MAH (BAKİOĞLU KÖYÜ)",
      "area": "KOZCAĞIZ",
      "postal_code": "74400"
    },
    {
      "id": 12087,
      "district_id": 164,
      "name": "TERKE MAH (TERKEHALİLLER KÖYÜ)",
      "area": "MERKEZKÖYLER",
      "postal_code": "74110"
    },
    {
      "id": 12088,
      "district_id": 164,
      "name": "TERKELİ MAH (OKÇULAR KÖYÜ)",
      "area": "MERKEZKÖYLER",
      "postal_code": "74110"
    },
    {
      "id": 12089,
      "district_id": 164,
      "name": "TIRA MAH (ECİKLER KÖYÜ)",
      "area": "KOZCAĞIZ",
      "postal_code": "74400"
    },
    {
      "id": 12090,
      "district_id": 164,
      "name": "TOKLUOĞLU MAH (AKBAŞ KÖYÜ)",
      "area": "KOZCAĞIZ",
      "postal_code": "74400"
    },
    {
      "id": 12091,
      "district_id": 164,
      "name": "TOMAÇ MAH (DALLICA KÖYÜ)",
      "area": "MERKEZKÖYLER",
      "postal_code": "74110"
    },
    {
      "id": 12092,
      "district_id": 164,
      "name": "TOPAL ALİ MAH (AKÇAMESCİT KÖYÜ)",
      "area": "KOZCAĞIZ",
      "postal_code": "74400"
    },
    {
      "id": 12093,
      "district_id": 164,
      "name": "TOPALCIOĞLU MAH (KARAHÜSEYİNLİ KÖYÜ)",
      "area": "MERKEZKÖYLER",
      "postal_code": "74110"
    },
    {
      "id": 12094,
      "district_id": 164,
      "name": "TOPALLAR MAH (KARŞIYAKA KÖYÜ)",
      "area": "KOZCAĞIZ",
      "postal_code": "74400"
    },
    {
      "id": 12095,
      "district_id": 164,
      "name": "TOPALLAR MAH (ULUGEÇİTAMBARCI KÖYÜ)",
      "area": "MERKEZKÖYLER",
      "postal_code": "74110"
    },
    {
      "id": 12096,
      "district_id": 164,
      "name": "TOPALLAR MAH (YEŞİLYURT KÖYÜ)",
      "area": "KOZCAĞIZ",
      "postal_code": "74400"
    },
    {
      "id": 12097,
      "district_id": 164,
      "name": "TOPSAKAL MAH (ARIÖNÜ KÖYÜ)",
      "area": "MERKEZKÖYLER",
      "postal_code": "74110"
    },
    {
      "id": 12098,
      "district_id": 164,
      "name": "TOROĞLU MAH (ECİKLER KÖYÜ)",
      "area": "KOZCAĞIZ",
      "postal_code": "74400"
    },
    {
      "id": 12099,
      "district_id": 164,
      "name": "TÜFENKÇİOĞLU MAH (ESENYURT KÖYÜ)",
      "area": "MERKEZKÖYLER",
      "postal_code": "74110"
    },
    {
      "id": 12100,
      "district_id": 164,
      "name": "TÜLOĞLU MAH (HASANKADI BELDESİ)",
      "area": "HASANKADI",
      "postal_code": "74420"
    },
    {
      "id": 12101,
      "district_id": 164,
      "name": "TUNA MAH",
      "area": "DEMİRCİLER",
      "postal_code": "74100"
    },
    {
      "id": 12102,
      "district_id": 164,
      "name": "TURANLAR KÖYÜ",
      "area": "MERKEZKÖYLER",
      "postal_code": "74110"
    },
    {
      "id": 12103,
      "district_id": 164,
      "name": "TÜRBECİ MAH (EPÇİLERKADI KÖYÜ)",
      "area": "MERKEZKÖYLER",
      "postal_code": "74110"
    },
    {
      "id": 12104,
      "district_id": 164,
      "name": "TÜRDÜ MAH (AKPINAR KÖYÜ)",
      "area": "MERKEZKÖYLER",
      "postal_code": "74110"
    },
    {
      "id": 12105,
      "district_id": 164,
      "name": "TURUPLAR MAH (USTAOĞLU KÖYÜ)",
      "area": "KOZCAĞIZ",
      "postal_code": "74400"
    },
    {
      "id": 12106,
      "district_id": 164,
      "name": "UÇARI MAH (AYDINLAR KÖYÜ)",
      "area": "MERKEZKÖYLER",
      "postal_code": "74110"
    },
    {
      "id": 12107,
      "district_id": 164,
      "name": "ÜÇKURNALI MAH (KAMAN KÖYÜ)",
      "area": "MERKEZKÖYLER",
      "postal_code": "74110"
    },
    {
      "id": 12108,
      "district_id": 164,
      "name": "USLULAR MAH (AKAĞAÇ KÖYÜ)",
      "area": "KOZCAĞIZ",
      "postal_code": "74400"
    },
    {
      "id": 12109,
      "district_id": 164,
      "name": "UZUNLAR MAH (ÇAYIR KÖYÜ)",
      "area": "MERKEZKÖYLER",
      "postal_code": "74110"
    },
    {
      "id": 12110,
      "district_id": 164,
      "name": "UZUNLAR MAH (ULUGEÇİTKADI KÖYÜ)",
      "area": "MERKEZKÖYLER",
      "postal_code": "74110"
    },
    {
      "id": 12111,
      "district_id": 164,
      "name": "UZUNÖZ MAH",
      "area": "MERKEZKÖYLER",
      "postal_code": "74110"
    },
    {
      "id": 12112,
      "district_id": 164,
      "name": "YAĞCI MAH (TERKEHATİPLER KÖYÜ)",
      "area": "MERKEZKÖYLER",
      "postal_code": "74110"
    },
    {
      "id": 12113,
      "district_id": 164,
      "name": "YANIK MAH (KAMAN KÖYÜ)",
      "area": "MERKEZKÖYLER",
      "postal_code": "74110"
    },
    {
      "id": 12114,
      "district_id": 164,
      "name": "YAYALAR MAH (GERİŞKATIRCI KÖYÜ)",
      "area": "MERKEZKÖYLER",
      "postal_code": "74110"
    },
    {
      "id": 12115,
      "district_id": 164,
      "name": "YAYLACIK MAH (GÜZELCEHİSAR KÖYÜ)",
      "area": "MERKEZKÖYLER",
      "postal_code": "74110"
    },
    {
      "id": 12116,
      "district_id": 164,
      "name": "YAZICILAR MAH (KUTLUBEYYAZICILAR KÖYÜ)",
      "area": "MERKEZKÖYLER",
      "postal_code": "74110"
    },
    {
      "id": 12117,
      "district_id": 164,
      "name": "YAZICILAR MAH (SÖĞÜTLÜ KÖYÜ)",
      "area": "MERKEZKÖYLER",
      "postal_code": "74110"
    },
    {
      "id": 12118,
      "district_id": 164,
      "name": "YEMENİCİ MAH (ŞİREMİRTABAKLAR KÖYÜ)",
      "area": "MERKEZKÖYLER",
      "postal_code": "74110"
    },
    {
      "id": 12119,
      "district_id": 164,
      "name": "YENİ MAH (AKPINAR KÖYÜ)",
      "area": "MERKEZKÖYLER",
      "postal_code": "74110"
    },
    {
      "id": 12120,
      "district_id": 164,
      "name": "YENİ MAH (BEDİL KÖYÜ)",
      "area": "KOZCAĞIZ",
      "postal_code": "74400"
    },
    {
      "id": 12121,
      "district_id": 164,
      "name": "YENİ MAH (GÖKÇEKIRAN KÖYÜ)",
      "area": "MERKEZKÖYLER",
      "postal_code": "74110"
    },
    {
      "id": 12122,
      "district_id": 164,
      "name": "YENİ MAH (KUTLUBEYYAZICILAR KÖYÜ)",
      "area": "MERKEZKÖYLER",
      "postal_code": "74110"
    },
    {
      "id": 12123,
      "district_id": 164,
      "name": "YENİ MAH (MEKEÇLER KÖYÜ)",
      "area": "MERKEZKÖYLER",
      "postal_code": "74110"
    },
    {
      "id": 12124,
      "district_id": 164,
      "name": "YENİ MAH (USTAOĞLU KÖYÜ)",
      "area": "KOZCAĞIZ",
      "postal_code": "74400"
    },
    {
      "id": 12125,
      "district_id": 164,
      "name": "YENİEV MAH (BÜYÜKKIZILKUM KÖYÜ)",
      "area": "MERKEZKÖYLER",
      "postal_code": "74110"
    },
    {
      "id": 12126,
      "district_id": 164,
      "name": "YENİŞAR MAH (KOZCAĞIZ BELDESİ)",
      "area": "KOZCAĞIZ",
      "postal_code": "74400"
    },
    {
      "id": 12127,
      "district_id": 164,
      "name": "YILANCILAR MAH (BAYIRYÜZÜ KÖYÜ)",
      "area": "MERKEZKÖYLER",
      "postal_code": "74110"
    },
    {
      "id": 12128,
      "district_id": 164,
      "name": "YILDIZ MAH",
      "area": "DEMİRCİLER",
      "postal_code": "74100"
    },
    {
      "id": 12129,
      "district_id": 164,
      "name": "YILMAZLAR MAH (HOCAOĞLU KÖYÜ)",
      "area": "KOZCAĞIZ",
      "postal_code": "74400"
    },
    {
      "id": 12130,
      "district_id": 164,
      "name": "YUKARI ALİ OSMANLAR MAH (ÖZBAŞI KÖYÜ)",
      "area": "KOZCAĞIZ",
      "postal_code": "74400"
    },
    {
      "id": 12131,
      "district_id": 164,
      "name": "YUKARI MAH (AKAĞAÇ KÖYÜ)",
      "area": "KOZCAĞIZ",
      "postal_code": "74400"
    },
    {
      "id": 12132,
      "district_id": 164,
      "name": "YUKARI MAH (AŞAĞIDERE KÖYÜ)",
      "area": "KOZCAĞIZ",
      "postal_code": "74400"
    },
    {
      "id": 12133,
      "district_id": 164,
      "name": "YUKARI MAH (ÇAYIR KÖYÜ)",
      "area": "MERKEZKÖYLER",
      "postal_code": "74110"
    },
    {
      "id": 12134,
      "district_id": 164,
      "name": "YUKARI MAH (ELLİBAŞ KÖYÜ)",
      "area": "KOZCAĞIZ",
      "postal_code": "74400"
    },
    {
      "id": 12135,
      "district_id": 164,
      "name": "YUKARI MAH (EPÇİLERKADI KÖYÜ)",
      "area": "MERKEZKÖYLER",
      "postal_code": "74110"
    },
    {
      "id": 12136,
      "district_id": 164,
      "name": "YUKARI MAH (GERİŞ KÖYÜ)",
      "area": "MERKEZKÖYLER",
      "postal_code": "74110"
    },
    {
      "id": 12137,
      "district_id": 164,
      "name": "YUKARI MAH (KARACAOĞLU KÖYÜ)",
      "area": "KOZCAĞIZ",
      "postal_code": "74400"
    },
    {
      "id": 12138,
      "district_id": 164,
      "name": "YUKARI MAH (KARAHÜSEYİNLİ KÖYÜ)",
      "area": "MERKEZKÖYLER",
      "postal_code": "74110"
    },
    {
      "id": 12139,
      "district_id": 164,
      "name": "YUKARI MAH (ÖZBAŞI KÖYÜ)",
      "area": "KOZCAĞIZ",
      "postal_code": "74400"
    },
    {
      "id": 12140,
      "district_id": 164,
      "name": "YUKARI MAH (SÜLEK KÖYÜ)",
      "area": "KOZCAĞIZ",
      "postal_code": "74400"
    },
    {
      "id": 12141,
      "district_id": 164,
      "name": "YUKARI MAH (ULUKÖY KÖYÜ)",
      "area": "KOZCAĞIZ",
      "postal_code": "74400"
    },
    {
      "id": 12142,
      "district_id": 164,
      "name": "YUKARI MAHELLE MERKEZ TOSYANI MAH (ÖZBAŞI KÖYÜ)",
      "area": "KOZCAĞIZ",
      "postal_code": "74400"
    },
    {
      "id": 12143,
      "district_id": 164,
      "name": "YUKARI YABALAR MAH (ÖZBAŞI KÖYÜ)",
      "area": "KOZCAĞIZ",
      "postal_code": "74400"
    },
    {
      "id": 12144,
      "district_id": 164,
      "name": "YUKARIKÖY MAH (AKÇALI KÖYÜ)",
      "area": "MERKEZKÖYLER",
      "postal_code": "74110"
    },
    {
      "id": 12145,
      "district_id": 164,
      "name": "YUKARIŞEYHLER KÖYÜ",
      "area": "MERKEZKÖYLER",
      "postal_code": "74110"
    },
    {
      "id": 12146,
      "district_id": 164,
      "name": "YUMUŞAKLAR MAH (KURT KÖYÜ)",
      "area": "MERKEZKÖYLER",
      "postal_code": "74110"
    },
    {
      "id": 12147,
      "district_id": 164,
      "name": "YUSUFBAŞOGLU MAH (HACIOSMANOĞLU KÖYÜ)",
      "area": "MERKEZKÖYLER",
      "postal_code": "74110"
    },
    {
      "id": 12148,
      "district_id": 164,
      "name": "YUSUFOĞLU MAH (ARIÖNÜ KÖYÜ)",
      "area": "MERKEZKÖYLER",
      "postal_code": "74110"
    },
    {
      "id": 12149,
      "district_id": 164,
      "name": "ZEYBEKLER MAH (ESENYURT KÖYÜ)",
      "area": "MERKEZKÖYLER",
      "postal_code": "74110"
    },
    {
      "id": 12150,
      "district_id": 164,
      "name": "ZOROĞLU MAH (BEDİL KÖYÜ)",
      "area": "KOZCAĞIZ",
      "postal_code": "74400"
    },
    {
      "id": 12151,
      "district_id": 164,
      "name": "ZOTLAR MAH (ESENYURT KÖYÜ)",
      "area": "MERKEZKÖYLER",
      "postal_code": "74110"
    },
    {
      "id": 12152,
      "district_id": 165,
      "name": "ABDALOĞLU MAH (ZAFER KÖYÜ)",
      "area": "KUMLUCA",
      "postal_code": "74410"
    },
    {
      "id": 12153,
      "district_id": 165,
      "name": "AHMET MAH (AŞAĞIDERE KÖYÜ)",
      "area": "MERKEZKÖYLER",
      "postal_code": "74602"
    },
    {
      "id": 12154,
      "district_id": 165,
      "name": "AHMET SOFUOĞLU MAH (KONAK KÖYÜ)",
      "area": "KUMLUCA",
      "postal_code": "74410"
    },
    {
      "id": 12155,
      "district_id": 165,
      "name": "AHMETÇELEBİ MAH (KOZANLI KÖYÜ)",
      "area": "MERKEZKÖYLER",
      "postal_code": "74602"
    },
    {
      "id": 12156,
      "district_id": 165,
      "name": "AKMEŞEYANI MAH (DODURGA KÖYÜ)",
      "area": "MERKEZKÖYLER",
      "postal_code": "74602"
    },
    {
      "id": 12157,
      "district_id": 165,
      "name": "AKSARAY MAH (AKÖRENSÖKÜLER KÖYÜ)",
      "area": "KUMLUCA",
      "postal_code": "74410"
    },
    {
      "id": 12158,
      "district_id": 165,
      "name": "AKTAŞ MAH (AKTAŞ KÖYÜ)",
      "area": "MERKEZKÖYLER",
      "postal_code": "74602"
    },
    {
      "id": 12159,
      "district_id": 165,
      "name": "AKTOPRAK MAH (HASANÖREN KÖYÜ)",
      "area": "MERKEZKÖYLER",
      "postal_code": "74602"
    },
    {
      "id": 12160,
      "district_id": 165,
      "name": "ALAKÖY MAH (ÇUBUKLU KÖYÜ)",
      "area": "KUMLUCA",
      "postal_code": "74410"
    },
    {
      "id": 12161,
      "district_id": 165,
      "name": "ALAOĞLU MAH (GÜNEYÖREN KÖYÜ)",
      "area": "MERKEZKÖYLER",
      "postal_code": "74602"
    },
    {
      "id": 12162,
      "district_id": 165,
      "name": "ALAOĞLU MAH (ULUKÖY KÖYÜ)",
      "area": "KUMLUCA",
      "postal_code": "74410"
    },
    {
      "id": 12163,
      "district_id": 165,
      "name": "ALİ EFENDİOĞLU MAH (AKÖRENSÖKÜLER KÖYÜ)",
      "area": "KUMLUCA",
      "postal_code": "74410"
    },
    {
      "id": 12164,
      "district_id": 165,
      "name": "ALİ KADIOĞLU MAH (HİSARKÖY KÖYÜ)",
      "area": "KUMLUCA",
      "postal_code": "74410"
    },
    {
      "id": 12165,
      "district_id": 165,
      "name": "ALİ MAH (AĞAKÖY KÖYÜ)",
      "area": "MERKEZKÖYLER",
      "postal_code": "74602"
    },
    {
      "id": 12166,
      "district_id": 165,
      "name": "ALİÇELEBİ MAH (KAYABAŞI KÖYÜ)",
      "area": "MERKEZKÖYLER",
      "postal_code": "74602"
    },
    {
      "id": 12167,
      "district_id": 165,
      "name": "ALNEK MAH (KARAKIŞLA KÖYÜ)",
      "area": "MERKEZKÖYLER",
      "postal_code": "74602"
    },
    {
      "id": 12168,
      "district_id": 165,
      "name": "ANDIZ MAH (YENİKÖY KÖYÜ)",
      "area": "MERKEZKÖYLER",
      "postal_code": "74602"
    },
    {
      "id": 12169,
      "district_id": 165,
      "name": "ARAÇLAR MAH (HOCAKÖY KÖYÜ)",
      "area": "MERKEZKÖYLER",
      "postal_code": "74602"
    },
    {
      "id": 12170,
      "district_id": 165,
      "name": "AŞAĞI MAH (AŞAĞIÇERÇİ KÖYÜ)",
      "area": "MERKEZKÖYLER",
      "postal_code": "74602"
    },
    {
      "id": 12171,
      "district_id": 165,
      "name": "AŞAĞI MAH (BALICAK KÖYÜ)",
      "area": "MERKEZKÖYLER",
      "postal_code": "74602"
    },
    {
      "id": 12172,
      "district_id": 165,
      "name": "AŞAĞI MAH (ÇERDE KÖYÜ)",
      "area": "MERKEZKÖYLER",
      "postal_code": "74602"
    },
    {
      "id": 12173,
      "district_id": 165,
      "name": "AŞAĞI MAH (ÇUBUKBELİ KÖYÜ)",
      "area": "MERKEZKÖYLER",
      "postal_code": "74602"
    },
    {
      "id": 12174,
      "district_id": 165,
      "name": "AŞAĞI MAH (KARAHASAN KÖYÜ)",
      "area": "MERKEZKÖYLER",
      "postal_code": "74602"
    },
    {
      "id": 12175,
      "district_id": 165,
      "name": "AŞAĞI MAH (KİRSİNLER KÖYÜ)",
      "area": "KUMLUCA",
      "postal_code": "74410"
    },
    {
      "id": 12176,
      "district_id": 165,
      "name": "AŞAĞI MAH (KIYIKLAR KÖYÜ)",
      "area": "KUMLUCA",
      "postal_code": "74410"
    },
    {
      "id": 12177,
      "district_id": 165,
      "name": "AŞAĞI MAH (SARNIÇ KÖYÜ)",
      "area": "MERKEZKÖYLER",
      "postal_code": "74602"
    },
    {
      "id": 12178,
      "district_id": 165,
      "name": "AŞAĞIAVLU MAH (ŞİRİNLER KÖYÜ)",
      "area": "MERKEZKÖYLER",
      "postal_code": "74602"
    },
    {
      "id": 12179,
      "district_id": 165,
      "name": "AŞAĞIDERE MAH (AŞAĞIKÖY KÖYÜ)",
      "area": "MERKEZKÖYLER",
      "postal_code": "74602"
    },
    {
      "id": 12180,
      "district_id": 165,
      "name": "AŞAĞIDORUCA MAH (DORUCAŞAHİNCİ KÖYÜ)",
      "area": "MERKEZKÖYLER",
      "postal_code": "74602"
    },
    {
      "id": 12181,
      "district_id": 165,
      "name": "ASLANCI MAH (DODURGA KÖYÜ)",
      "area": "MERKEZKÖYLER",
      "postal_code": "74602"
    },
    {
      "id": 12182,
      "district_id": 165,
      "name": "AYAKLI MAH (ELDEŞ KÖYÜ)",
      "area": "MERKEZKÖYLER",
      "postal_code": "74602"
    },
    {
      "id": 12183,
      "district_id": 165,
      "name": "AZGIN MAH (ULUKÖY KÖYÜ)",
      "area": "KUMLUCA",
      "postal_code": "74410"
    },
    {
      "id": 12184,
      "district_id": 165,
      "name": "BAKIŞOĞLU MAH (HOCAKÖY KÖYÜ)",
      "area": "MERKEZKÖYLER",
      "postal_code": "74602"
    },
    {
      "id": 12185,
      "district_id": 165,
      "name": "BALDERESİ MAH (KAYABAŞI KÖYÜ)",
      "area": "MERKEZKÖYLER",
      "postal_code": "74602"
    },
    {
      "id": 12186,
      "district_id": 165,
      "name": "BARAKA MAH (GÜNEYÖREN KÖYÜ)",
      "area": "MERKEZKÖYLER",
      "postal_code": "74602"
    },
    {
      "id": 12187,
      "district_id": 165,
      "name": "BAYIRLAR MAH (AKÖRENSÖKÜLER KÖYÜ)",
      "area": "KUMLUCA",
      "postal_code": "74410"
    },
    {
      "id": 12188,
      "district_id": 165,
      "name": "BAYISLAR MAH (AKÖRENSÖKÜLER KÖYÜ)",
      "area": "KUMLUCA",
      "postal_code": "74410"
    },
    {
      "id": 12189,
      "district_id": 165,
      "name": "BAYRAKTAROĞLU MAH (YILANLAR KÖYÜ)",
      "area": "KUMLUCA",
      "postal_code": "74410"
    },
    {
      "id": 12190,
      "district_id": 165,
      "name": "BAYRAMBAŞOĞLU MAH (İĞNECİLER KÖYÜ)",
      "area": "MERKEZKÖYLER",
      "postal_code": "74602"
    },
    {
      "id": 12191,
      "district_id": 165,
      "name": "BAYRAMOĞLU MAH (CEYÜPLER KÖYÜ)",
      "area": "KUMLUCA",
      "postal_code": "74410"
    },
    {
      "id": 12192,
      "district_id": 165,
      "name": "BEKİR MAH (AŞAĞIDERE KÖYÜ)",
      "area": "MERKEZKÖYLER",
      "postal_code": "74602"
    },
    {
      "id": 12193,
      "district_id": 165,
      "name": "BELENSARNIÇ MAH (GÜNEYÖREN KÖYÜ)",
      "area": "MERKEZKÖYLER",
      "postal_code": "74602"
    },
    {
      "id": 12194,
      "district_id": 165,
      "name": "BIYIKLI MAH (AĞAKÖY KÖYÜ)",
      "area": "MERKEZKÖYLER",
      "postal_code": "74602"
    },
    {
      "id": 12195,
      "district_id": 165,
      "name": "BOĞAZ MAH (KİRSİNLER KÖYÜ)",
      "area": "KUMLUCA",
      "postal_code": "74410"
    },
    {
      "id": 12196,
      "district_id": 165,
      "name": "BÖREKÇİLER MAH (KAYABAŞI KÖYÜ)",
      "area": "MERKEZKÖYLER",
      "postal_code": "74602"
    },
    {
      "id": 12197,
      "district_id": 165,
      "name": "BUDAMIŞ MAH (ULUKAYA KÖYÜ)",
      "area": "MERKEZKÖYLER",
      "postal_code": "74602"
    },
    {
      "id": 12198,
      "district_id": 165,
      "name": "ÇAMÇI MAH (BALICAK KÖYÜ)",
      "area": "MERKEZKÖYLER",
      "postal_code": "74602"
    },
    {
      "id": 12199,
      "district_id": 165,
      "name": "ÇAMDİBİ MAH (ALIÇLI KÖYÜ)",
      "area": "MERKEZKÖYLER",
      "postal_code": "74602"
    },
    {
      "id": 12200,
      "district_id": 165,
      "name": "CAMİYANI MERKEZ MAH (GÖKPINAR KÖYÜ)",
      "area": "MERKEZKÖYLER",
      "postal_code": "74602"
    },
    {
      "id": 12201,
      "district_id": 165,
      "name": "CAMUŞOĞLU MAH (DOĞANKÖY KÖYÜ)",
      "area": "KUMLUCA",
      "postal_code": "74410"
    },
    {
      "id": 12202,
      "district_id": 165,
      "name": "ÇANDIRLAR MAH (HİSARKÖY KÖYÜ)",
      "area": "KUMLUCA",
      "postal_code": "74410"
    },
    {
      "id": 12203,
      "district_id": 165,
      "name": "ÇAVUŞOĞLU MAH (ÇAVUŞKÖY KÖYÜ)",
      "area": "MERKEZKÖYLER",
      "postal_code": "74602"
    },
    {
      "id": 12204,
      "district_id": 165,
      "name": "ÇAYIRLIOĞLU MAH (DORUCAŞAHİNCİ KÖYÜ)",
      "area": "MERKEZKÖYLER",
      "postal_code": "74602"
    },
    {
      "id": 12205,
      "district_id": 165,
      "name": "ÇAYTARLA MAH (ZAFER KÖYÜ)",
      "area": "KUMLUCA",
      "postal_code": "74410"
    },
    {
      "id": 12206,
      "district_id": 165,
      "name": "CEBECİ MAH (BALICAK KÖYÜ)",
      "area": "MERKEZKÖYLER",
      "postal_code": "74602"
    },
    {
      "id": 12207,
      "district_id": 165,
      "name": "CEBECİ MAH (ESELER KÖYÜ)",
      "area": "MERKEZKÖYLER",
      "postal_code": "74602"
    },
    {
      "id": 12208,
      "district_id": 165,
      "name": "ÇENGELLİ MAH (KIZILLAR KÖYÜ)",
      "area": "KUMLUCA",
      "postal_code": "74410"
    },
    {
      "id": 12209,
      "district_id": 165,
      "name": "CEYÜPLER MAH (CEYÜPLER KÖYÜ)",
      "area": "KUMLUCA",
      "postal_code": "74410"
    },
    {
      "id": 12210,
      "district_id": 165,
      "name": "ÇIRAKLAR MAH (ALIÇLI KÖYÜ)",
      "area": "MERKEZKÖYLER",
      "postal_code": "74602"
    },
    {
      "id": 12211,
      "district_id": 165,
      "name": "ÇİTOĞLU MAH (ABDURRAHMAN KÖYÜ)",
      "area": "MERKEZKÖYLER",
      "postal_code": "74602"
    },
    {
      "id": 12212,
      "district_id": 165,
      "name": "CÜCEOĞLU MAH (KALECİK KÖYÜ)",
      "area": "MERKEZKÖYLER",
      "postal_code": "74602"
    },
    {
      "id": 12213,
      "district_id": 165,
      "name": "ÇUKURTARLA MAH (YENİKIŞLA KÖYÜ)",
      "area": "KUMLUCA",
      "postal_code": "74410"
    },
    {
      "id": 12214,
      "district_id": 165,
      "name": "CUMADÜZÜ MAH (KIYIKLAR KÖYÜ)",
      "area": "KUMLUCA",
      "postal_code": "74410"
    },
    {
      "id": 12215,
      "district_id": 165,
      "name": "DAĞLAR MAH (DÖNGELLER KÖYÜ)",
      "area": "KUMLUCA",
      "postal_code": "74410"
    },
    {
      "id": 12216,
      "district_id": 165,
      "name": "DANAGÖLÜ MAH (ŞİRİNLER KÖYÜ)",
      "area": "MERKEZKÖYLER",
      "postal_code": "74602"
    },
    {
      "id": 12217,
      "district_id": 165,
      "name": "DAVUTLAR MAH (DODURGA KÖYÜ)",
      "area": "MERKEZKÖYLER",
      "postal_code": "74602"
    },
    {
      "id": 12218,
      "district_id": 165,
      "name": "DEDEOĞLU MAH (CEYÜPLER KÖYÜ)",
      "area": "KUMLUCA",
      "postal_code": "74410"
    },
    {
      "id": 12219,
      "district_id": 165,
      "name": "DEĞİRMENCİK MAH (ELMACIK KÖYÜ)",
      "area": "MERKEZKÖYLER",
      "postal_code": "74602"
    },
    {
      "id": 12220,
      "district_id": 165,
      "name": "DEĞİRMENYANI MAH (ELDEŞ KÖYÜ)",
      "area": "MERKEZKÖYLER",
      "postal_code": "74602"
    },
    {
      "id": 12221,
      "district_id": 165,
      "name": "DEĞİRMENYANI MAH (HİSARKÖY KÖYÜ)",
      "area": "KUMLUCA",
      "postal_code": "74410"
    },
    {
      "id": 12222,
      "district_id": 165,
      "name": "DEĞİRMENYANI MAH (İNCEÇAM KÖYÜ)",
      "area": "MERKEZKÖYLER",
      "postal_code": "74602"
    },
    {
      "id": 12223,
      "district_id": 165,
      "name": "DEĞİRMENYANI MAH (YENİKIŞLA KÖYÜ)",
      "area": "KUMLUCA",
      "postal_code": "74410"
    },
    {
      "id": 12224,
      "district_id": 165,
      "name": "DEĞİRMENYANI MAH (ZAFER KÖYÜ)",
      "area": "KUMLUCA",
      "postal_code": "74410"
    },
    {
      "id": 12225,
      "district_id": 165,
      "name": "DEMİRCİ MAH (HOCAKÖY KÖYÜ)",
      "area": "MERKEZKÖYLER",
      "postal_code": "74602"
    },
    {
      "id": 12226,
      "district_id": 165,
      "name": "DEMİRCİ MAH (İNCEÇAM KÖYÜ)",
      "area": "MERKEZKÖYLER",
      "postal_code": "74602"
    },
    {
      "id": 12227,
      "district_id": 165,
      "name": "DEMİRCİ MAH (KALECİK KÖYÜ)",
      "area": "MERKEZKÖYLER",
      "postal_code": "74602"
    },
    {
      "id": 12228,
      "district_id": 165,
      "name": "DEMİRCİLER MAH (ABDURRAHMAN KÖYÜ)",
      "area": "MERKEZKÖYLER",
      "postal_code": "74602"
    },
    {
      "id": 12229,
      "district_id": 165,
      "name": "DEMİRCİLER MAH (SARNIÇ KÖYÜ)",
      "area": "MERKEZKÖYLER",
      "postal_code": "74602"
    },
    {
      "id": 12230,
      "district_id": 165,
      "name": "DEMİREN MAH (DORUCAŞAHİNCİ KÖYÜ)",
      "area": "MERKEZKÖYLER",
      "postal_code": "74602"
    },
    {
      "id": 12231,
      "district_id": 165,
      "name": "DENGEZLER MAH (DÖNGELLER KÖYÜ)",
      "area": "KUMLUCA",
      "postal_code": "74410"
    },
    {
      "id": 12232,
      "district_id": 165,
      "name": "DERE MAH (ARPACIK KÖYÜ)",
      "area": "MERKEZKÖYLER",
      "postal_code": "74602"
    },
    {
      "id": 12233,
      "district_id": 165,
      "name": "DERE MAH (GÜNEYÖREN KÖYÜ)",
      "area": "MERKEZKÖYLER",
      "postal_code": "74602"
    },
    {
      "id": 12234,
      "district_id": 165,
      "name": "DERE MAH (KİRAZCIK KÖYÜ)",
      "area": "MERKEZKÖYLER",
      "postal_code": "74602"
    },
    {
      "id": 12235,
      "district_id": 165,
      "name": "DERE MAH (YILANLAR KÖYÜ)",
      "area": "KUMLUCA",
      "postal_code": "74410"
    },
    {
      "id": 12236,
      "district_id": 165,
      "name": "DERECAMİ MAH (KONAK KÖYÜ)",
      "area": "KUMLUCA",
      "postal_code": "74410"
    },
    {
      "id": 12237,
      "district_id": 165,
      "name": "DERECİK MAH (ABDİPAŞA BELDESİ)",
      "area": "ABDİPAŞA",
      "postal_code": "74610"
    },
    {
      "id": 12238,
      "district_id": 165,
      "name": "DERELİ MAH (SARIFASIL KÖYÜ)",
      "area": "MERKEZKÖYLER",
      "postal_code": "74602"
    },
    {
      "id": 12239,
      "district_id": 165,
      "name": "DOĞANKIZI MAH (AKÖRENSÖKÜLER KÖYÜ)",
      "area": "KUMLUCA",
      "postal_code": "74410"
    },
    {
      "id": 12240,
      "district_id": 165,
      "name": "DORUK MAH (İBRAHİMDERESİ KÖYÜ)",
      "area": "MERKEZKÖYLER",
      "postal_code": "74602"
    },
    {
      "id": 12241,
      "district_id": 165,
      "name": "DUTLU MAH (KÖKLÜ KÖYÜ)",
      "area": "MERKEZKÖYLER",
      "postal_code": "74602"
    },
    {
      "id": 12242,
      "district_id": 165,
      "name": "DÜZ MAH (AŞAĞIEMİRCE KÖYÜ)",
      "area": "MERKEZKÖYLER",
      "postal_code": "74602"
    },
    {
      "id": 12243,
      "district_id": 165,
      "name": "DÜZ MAH (BUĞURLAR KÖYÜ)",
      "area": "MERKEZKÖYLER",
      "postal_code": "74602"
    },
    {
      "id": 12244,
      "district_id": 165,
      "name": "DÜZ MAH (ÇUBUKBELİ KÖYÜ)",
      "area": "MERKEZKÖYLER",
      "postal_code": "74602"
    },
    {
      "id": 12245,
      "district_id": 165,
      "name": "DÜZ MAH (ELDEŞ KÖYÜ)",
      "area": "MERKEZKÖYLER",
      "postal_code": "74602"
    },
    {
      "id": 12246,
      "district_id": 165,
      "name": "DÜZAĞAÇ MAH (AKÖRENSÖKÜLER KÖYÜ)",
      "area": "KUMLUCA",
      "postal_code": "74410"
    },
    {
      "id": 12247,
      "district_id": 165,
      "name": "DÜZYER MAH (AKÖRENSÖKÜLER KÖYÜ)",
      "area": "KUMLUCA",
      "postal_code": "74410"
    },
    {
      "id": 12248,
      "district_id": 165,
      "name": "EDİLER MAH (DODURGA KÖYÜ)",
      "area": "MERKEZKÖYLER",
      "postal_code": "74602"
    },
    {
      "id": 12249,
      "district_id": 165,
      "name": "EKMEKÇİOĞLU MAH (ÇUBUKLU KÖYÜ)",
      "area": "KUMLUCA",
      "postal_code": "74410"
    },
    {
      "id": 12250,
      "district_id": 165,
      "name": "ELMALIK MAH (ESELER KÖYÜ)",
      "area": "MERKEZKÖYLER",
      "postal_code": "74602"
    },
    {
      "id": 12251,
      "district_id": 165,
      "name": "EMİR MAH (AŞAĞIDERE KÖYÜ)",
      "area": "MERKEZKÖYLER",
      "postal_code": "74602"
    },
    {
      "id": 12252,
      "district_id": 165,
      "name": "EMİRTAŞ MAH (ELDEŞ KÖYÜ)",
      "area": "MERKEZKÖYLER",
      "postal_code": "74602"
    },
    {
      "id": 12253,
      "district_id": 165,
      "name": "ESE MAH (ESELER KÖYÜ)",
      "area": "MERKEZKÖYLER",
      "postal_code": "74602"
    },
    {
      "id": 12254,
      "district_id": 165,
      "name": "ESEOĞLU MAH (YILANLAR KÖYÜ)",
      "area": "KUMLUCA",
      "postal_code": "74410"
    },
    {
      "id": 12255,
      "district_id": 165,
      "name": "ESKİOĞLU MAH (GÖKPINAR KÖYÜ)",
      "area": "MERKEZKÖYLER",
      "postal_code": "74602"
    },
    {
      "id": 12256,
      "district_id": 165,
      "name": "ESKÖY MAH (SARNIÇ KÖYÜ)",
      "area": "MERKEZKÖYLER",
      "postal_code": "74602"
    },
    {
      "id": 12257,
      "district_id": 165,
      "name": "ESMİR MAH (ÜÇSARAY KÖYÜ)",
      "area": "KUMLUCA",
      "postal_code": "74410"
    },
    {
      "id": 12258,
      "district_id": 165,
      "name": "FABRİKAYANI MAH (ZAFER KÖYÜ)",
      "area": "KUMLUCA",
      "postal_code": "74410"
    },
    {
      "id": 12259,
      "district_id": 165,
      "name": "FAZLIOĞLU MAH (ZAFER KÖYÜ)",
      "area": "KUMLUCA",
      "postal_code": "74410"
    },
    {
      "id": 12260,
      "district_id": 165,
      "name": "FIŞKIN MAH (KÜLLÜ KÖYÜ)",
      "area": "MERKEZKÖYLER",
      "postal_code": "74602"
    },
    {
      "id": 12261,
      "district_id": 165,
      "name": "FURUNCUOĞLU MAH (CEYÜPLER KÖYÜ)",
      "area": "KUMLUCA",
      "postal_code": "74410"
    },
    {
      "id": 12262,
      "district_id": 165,
      "name": "GALLEŞOĞLU MAH (HİSARKÖY KÖYÜ)",
      "area": "KUMLUCA",
      "postal_code": "74410"
    },
    {
      "id": 12263,
      "district_id": 165,
      "name": "GEDİKLER MAH (ESELER KÖYÜ)",
      "area": "MERKEZKÖYLER",
      "postal_code": "74602"
    },
    {
      "id": 12264,
      "district_id": 165,
      "name": "GEGEN MAH (ÇERDE KÖYÜ)",
      "area": "MERKEZKÖYLER",
      "postal_code": "74602"
    },
    {
      "id": 12265,
      "district_id": 165,
      "name": "GERİŞ MAH (CEYÜPLER KÖYÜ)",
      "area": "KUMLUCA",
      "postal_code": "74410"
    },
    {
      "id": 12266,
      "district_id": 165,
      "name": "GÖKDERE MAH (YILANLAR KÖYÜ)",
      "area": "KUMLUCA",
      "postal_code": "74410"
    },
    {
      "id": 12267,
      "district_id": 165,
      "name": "GÖKMENOĞLU MAH (ÇUBUKLU KÖYÜ)",
      "area": "KUMLUCA",
      "postal_code": "74410"
    },
    {
      "id": 12268,
      "district_id": 165,
      "name": "GÖKSU MAH (YUKARIDERE KÖYÜ)",
      "area": "MERKEZKÖYLER",
      "postal_code": "74602"
    },
    {
      "id": 12269,
      "district_id": 165,
      "name": "GÜRGENCAMİ MAH (KADIKÖY KÖYÜ)",
      "area": "MERKEZKÖYLER",
      "postal_code": "74602"
    },
    {
      "id": 12270,
      "district_id": 165,
      "name": "GÜVENDİK MAH (KONUKLU KÖYÜ)",
      "area": "KUMLUCA",
      "postal_code": "74410"
    },
    {
      "id": 12271,
      "district_id": 165,
      "name": "HACI MAH (AKTAŞ KÖYÜ)",
      "area": "MERKEZKÖYLER",
      "postal_code": "74602"
    },
    {
      "id": 12272,
      "district_id": 165,
      "name": "HACI MAH (KÜLLÜ KÖYÜ)",
      "area": "MERKEZKÖYLER",
      "postal_code": "74602"
    },
    {
      "id": 12273,
      "district_id": 165,
      "name": "HACIKADIOĞLU MAH (HİSARKÖY KÖYÜ)",
      "area": "KUMLUCA",
      "postal_code": "74410"
    },
    {
      "id": 12274,
      "district_id": 165,
      "name": "HAPLIOĞLU MAH (AKÖRENSÖKÜLER KÖYÜ)",
      "area": "KUMLUCA",
      "postal_code": "74410"
    },
    {
      "id": 12275,
      "district_id": 165,
      "name": "HATİPLER MAH (ÇUBUKBELİ KÖYÜ)",
      "area": "MERKEZKÖYLER",
      "postal_code": "74602"
    },
    {
      "id": 12276,
      "district_id": 165,
      "name": "HENDEK MAH (SARIFASIL KÖYÜ)",
      "area": "MERKEZKÖYLER",
      "postal_code": "74602"
    },
    {
      "id": 12277,
      "district_id": 165,
      "name": "HİMMETOĞLU MAH (YENİKÖY KÖYÜ)",
      "area": "MERKEZKÖYLER",
      "postal_code": "74602"
    },
    {
      "id": 12278,
      "district_id": 165,
      "name": "HIRADÜZÜ MAH (AŞAĞIEMİRCE KÖYÜ)",
      "area": "MERKEZKÖYLER",
      "postal_code": "74602"
    },
    {
      "id": 12279,
      "district_id": 165,
      "name": "HİSAR MAH (HİSARKÖY KÖYÜ)",
      "area": "KUMLUCA",
      "postal_code": "74410"
    },
    {
      "id": 12280,
      "district_id": 165,
      "name": "HIZARCIOĞLU MAH (DOĞANKÖY KÖYÜ)",
      "area": "KUMLUCA",
      "postal_code": "74410"
    },
    {
      "id": 12281,
      "district_id": 165,
      "name": "HOCA MAH (HOCAKÖY KÖYÜ)",
      "area": "MERKEZKÖYLER",
      "postal_code": "74602"
    },
    {
      "id": 12282,
      "district_id": 165,
      "name": "HOCAOĞLU MAH (HİSARKÖY KÖYÜ)",
      "area": "KUMLUCA",
      "postal_code": "74410"
    },
    {
      "id": 12283,
      "district_id": 165,
      "name": "HOCAOĞLU MAH (ÖNCÜLER KÖYÜ)",
      "area": "KUMLUCA",
      "postal_code": "74410"
    },
    {
      "id": 12284,
      "district_id": 165,
      "name": "HÜSEYİN MAH (AŞAĞIDERE KÖYÜ)",
      "area": "MERKEZKÖYLER",
      "postal_code": "74602"
    },
    {
      "id": 12285,
      "district_id": 165,
      "name": "ILAVIÇ MAH (ARPACIK KÖYÜ)",
      "area": "MERKEZKÖYLER",
      "postal_code": "74602"
    },
    {
      "id": 12286,
      "district_id": 165,
      "name": "İMAMLAR MAH (ÜÇSARAY KÖYÜ)",
      "area": "KUMLUCA",
      "postal_code": "74410"
    },
    {
      "id": 12287,
      "district_id": 165,
      "name": "İMAMOĞLU MAH (AKTAŞ KÖYÜ)",
      "area": "MERKEZKÖYLER",
      "postal_code": "74602"
    },
    {
      "id": 12288,
      "district_id": 165,
      "name": "İNCİLLER MAH (DÖREKLER KÖYÜ)",
      "area": "MERKEZKÖYLER",
      "postal_code": "74602"
    },
    {
      "id": 12289,
      "district_id": 165,
      "name": "İNCİRLER MAH (KEÇİDERESİ KÖYÜ)",
      "area": "KUMLUCA",
      "postal_code": "74410"
    },
    {
      "id": 12290,
      "district_id": 165,
      "name": "İNEBEY MAH (ULUKÖY KÖYÜ)",
      "area": "KUMLUCA",
      "postal_code": "74410"
    },
    {
      "id": 12291,
      "district_id": 165,
      "name": "ISIRGANLI KÖYÜ",
      "area": "MERKEZKÖYLER",
      "postal_code": "74602"
    },
    {
      "id": 12292,
      "district_id": 165,
      "name": "İSLAMLAR MAH (KADIKÖY KÖYÜ)",
      "area": "MERKEZKÖYLER",
      "postal_code": "74602"
    },
    {
      "id": 12293,
      "district_id": 165,
      "name": "İSMAİLAĞA MAH (İNCEÇAM KÖYÜ)",
      "area": "MERKEZKÖYLER",
      "postal_code": "74602"
    },
    {
      "id": 12294,
      "district_id": 165,
      "name": "KABAOĞLU MAH (İĞNECİLER KÖYÜ)",
      "area": "MERKEZKÖYLER",
      "postal_code": "74602"
    },
    {
      "id": 12295,
      "district_id": 165,
      "name": "KABASAKALOĞLU MAH (ZAFER KÖYÜ)",
      "area": "KUMLUCA",
      "postal_code": "74410"
    },
    {
      "id": 12296,
      "district_id": 165,
      "name": "KADI MAH (AKTAŞ KÖYÜ)",
      "area": "MERKEZKÖYLER",
      "postal_code": "74602"
    },
    {
      "id": 12297,
      "district_id": 165,
      "name": "KADI MAH (İNCEÇAM KÖYÜ)",
      "area": "MERKEZKÖYLER",
      "postal_code": "74602"
    },
    {
      "id": 12298,
      "district_id": 165,
      "name": "KADIOĞLU MAH (ABDİPAŞA BELDESİ)",
      "area": "ABDİPAŞA",
      "postal_code": "74610"
    },
    {
      "id": 12299,
      "district_id": 165,
      "name": "KADIOĞLU MAH (BAĞDATLI KÖYÜ)",
      "area": "KUMLUCA",
      "postal_code": "74410"
    },
    {
      "id": 12300,
      "district_id": 165,
      "name": "KADIOĞLU MAH (ÜÇSARAY KÖYÜ)",
      "area": "KUMLUCA",
      "postal_code": "74410"
    },
    {
      "id": 12301,
      "district_id": 165,
      "name": "KADİRAĞA MAH (GÖKPINAR KÖYÜ)",
      "area": "MERKEZKÖYLER",
      "postal_code": "74602"
    },
    {
      "id": 12302,
      "district_id": 165,
      "name": "KAHYAOĞLU MAH (DÖNGELLER KÖYÜ)",
      "area": "KUMLUCA",
      "postal_code": "74410"
    },
    {
      "id": 12303,
      "district_id": 165,
      "name": "KALDIRIM MAH",
      "area": "ULUS",
      "postal_code": "74600"
    },
    {
      "id": 12304,
      "district_id": 165,
      "name": "KALFALAR MAH (DERELİ KÖYÜ)",
      "area": "MERKEZKÖYLER",
      "postal_code": "74602"
    },
    {
      "id": 12305,
      "district_id": 165,
      "name": "KANATOĞLU MAH (KIYIKLAR KÖYÜ)",
      "area": "KUMLUCA",
      "postal_code": "74410"
    },
    {
      "id": 12306,
      "district_id": 165,
      "name": "KANAVAKA MAH (HOCAKÖY KÖYÜ)",
      "area": "MERKEZKÖYLER",
      "postal_code": "74602"
    },
    {
      "id": 12307,
      "district_id": 165,
      "name": "KANBUROĞLU MAH (DERELİ KÖYÜ)",
      "area": "MERKEZKÖYLER",
      "postal_code": "74602"
    },
    {
      "id": 12308,
      "district_id": 165,
      "name": "KARABACAK MAH (ULUKÖY KÖYÜ)",
      "area": "KUMLUCA",
      "postal_code": "74410"
    },
    {
      "id": 12309,
      "district_id": 165,
      "name": "KARABOYUNOĞLU MAH (ABDURRAHMAN KÖYÜ)",
      "area": "MERKEZKÖYLER",
      "postal_code": "74602"
    },
    {
      "id": 12310,
      "district_id": 165,
      "name": "KARADAYILAR MAH (GÖKPINAR KÖYÜ)",
      "area": "MERKEZKÖYLER",
      "postal_code": "74602"
    },
    {
      "id": 12311,
      "district_id": 165,
      "name": "KARADİKEN MAH (ABDİPAŞA BELDESİ)",
      "area": "ABDİPAŞA",
      "postal_code": "74610"
    },
    {
      "id": 12312,
      "district_id": 165,
      "name": "KARAGÖL MAH (AŞAĞIEMİRCE KÖYÜ)",
      "area": "MERKEZKÖYLER",
      "postal_code": "74602"
    },
    {
      "id": 12313,
      "district_id": 165,
      "name": "KARAKAÇOĞLU MAH (ABDURRAHMAN KÖYÜ)",
      "area": "MERKEZKÖYLER",
      "postal_code": "74602"
    },
    {
      "id": 12314,
      "district_id": 165,
      "name": "KARAKAŞOĞLU MAH (AKÖRENSÖKÜLER KÖYÜ)",
      "area": "KUMLUCA",
      "postal_code": "74410"
    },
    {
      "id": 12315,
      "district_id": 165,
      "name": "KARAKUZ MAH (GÜNEYÖREN KÖYÜ)",
      "area": "MERKEZKÖYLER",
      "postal_code": "74602"
    },
    {
      "id": 12316,
      "district_id": 165,
      "name": "KARAMADANOĞLU MAH (KADIKÖY KÖYÜ)",
      "area": "MERKEZKÖYLER",
      "postal_code": "74602"
    },
    {
      "id": 12317,
      "district_id": 165,
      "name": "KARAMANOĞLU MAH (DODURGA KÖYÜ)",
      "area": "MERKEZKÖYLER",
      "postal_code": "74602"
    },
    {
      "id": 12318,
      "district_id": 165,
      "name": "KARASA MAH (DÜZKÖY KÖYÜ)",
      "area": "MERKEZKÖYLER",
      "postal_code": "74602"
    },
    {
      "id": 12319,
      "district_id": 165,
      "name": "KARAVELİOĞLU MAH (ZAFER KÖYÜ)",
      "area": "KUMLUCA",
      "postal_code": "74410"
    },
    {
      "id": 12320,
      "district_id": 165,
      "name": "KARGACAK MAH (ELDEŞ KÖYÜ)",
      "area": "MERKEZKÖYLER",
      "postal_code": "74602"
    },
    {
      "id": 12321,
      "district_id": 165,
      "name": "KAŞALTI MAH (KALECİK KÖYÜ)",
      "area": "MERKEZKÖYLER",
      "postal_code": "74602"
    },
    {
      "id": 12322,
      "district_id": 165,
      "name": "KASIMLAR MAH",
      "area": "ULUS",
      "postal_code": "74600"
    },
    {
      "id": 12323,
      "district_id": 165,
      "name": "KAVAKLIKALDIRIM MAH (KUMLUCA BELDESİ)",
      "area": "KUMLUCA",
      "postal_code": "74410"
    },
    {
      "id": 12324,
      "district_id": 165,
      "name": "KAVLAKDİBİ MAH (BAHÇECİK KÖYÜ)",
      "area": "MERKEZKÖYLER",
      "postal_code": "74602"
    },
    {
      "id": 12325,
      "district_id": 165,
      "name": "KAYACILAR MAH (İĞNECİLER KÖYÜ)",
      "area": "MERKEZKÖYLER",
      "postal_code": "74602"
    },
    {
      "id": 12326,
      "district_id": 165,
      "name": "KAYICILAR MAH (KARAKIŞLA KÖYÜ)",
      "area": "MERKEZKÖYLER",
      "postal_code": "74602"
    },
    {
      "id": 12327,
      "district_id": 165,
      "name": "KAYRALTI MAH (BUĞURLAR KÖYÜ)",
      "area": "MERKEZKÖYLER",
      "postal_code": "74602"
    },
    {
      "id": 12328,
      "district_id": 165,
      "name": "KAYRANÇI MAH (HOCAKÖY KÖYÜ)",
      "area": "MERKEZKÖYLER",
      "postal_code": "74602"
    },
    {
      "id": 12329,
      "district_id": 165,
      "name": "KAZASKEROĞLU MAH (ZAFER KÖYÜ)",
      "area": "KUMLUCA",
      "postal_code": "74410"
    },
    {
      "id": 12330,
      "district_id": 165,
      "name": "KELOĞLU MAH (ZAFER KÖYÜ)",
      "area": "KUMLUCA",
      "postal_code": "74410"
    },
    {
      "id": 12331,
      "district_id": 165,
      "name": "KEMERLİ MAH (AŞAĞIÇAMLI KÖYÜ)",
      "area": "MERKEZKÖYLER",
      "postal_code": "74602"
    },
    {
      "id": 12332,
      "district_id": 165,
      "name": "KERPİÇLİ MAH (YUKARIDERE KÖYÜ)",
      "area": "MERKEZKÖYLER",
      "postal_code": "74602"
    },
    {
      "id": 12333,
      "district_id": 165,
      "name": "KESTANE MAH (ELDEŞ KÖYÜ)",
      "area": "MERKEZKÖYLER",
      "postal_code": "74602"
    },
    {
      "id": 12334,
      "district_id": 165,
      "name": "KINAKAYASI MAH (HOCAKÖY KÖYÜ)",
      "area": "MERKEZKÖYLER",
      "postal_code": "74602"
    },
    {
      "id": 12335,
      "district_id": 165,
      "name": "KIRAHARMANI MAH (İĞNECİLER KÖYÜ)",
      "area": "MERKEZKÖYLER",
      "postal_code": "74602"
    },
    {
      "id": 12336,
      "district_id": 165,
      "name": "KIRANÜZERİ MAH (KALECİK KÖYÜ)",
      "area": "MERKEZKÖYLER",
      "postal_code": "74602"
    },
    {
      "id": 12337,
      "district_id": 165,
      "name": "KIZILELMA MAH (KALECİK KÖYÜ)",
      "area": "MERKEZKÖYLER",
      "postal_code": "74602"
    },
    {
      "id": 12338,
      "district_id": 165,
      "name": "KIZILOVAZ MAH (AKÖRENSÖKÜLER KÖYÜ)",
      "area": "KUMLUCA",
      "postal_code": "74410"
    },
    {
      "id": 12339,
      "district_id": 165,
      "name": "KOÇAK MAH (AŞAĞIÇAMLI KÖYÜ)",
      "area": "MERKEZKÖYLER",
      "postal_code": "74602"
    },
    {
      "id": 12340,
      "district_id": 165,
      "name": "KOCAKAHYA MAH (KIYIKLAR KÖYÜ)",
      "area": "KUMLUCA",
      "postal_code": "74410"
    },
    {
      "id": 12341,
      "district_id": 165,
      "name": "KOÇALİ MAH (ÇUBUKBELİ KÖYÜ)",
      "area": "MERKEZKÖYLER",
      "postal_code": "74602"
    },
    {
      "id": 12342,
      "district_id": 165,
      "name": "KÖHÜNLER MAH (KONAK KÖYÜ)",
      "area": "KUMLUCA",
      "postal_code": "74410"
    },
    {
      "id": 12343,
      "district_id": 165,
      "name": "KONUTEVLER MAH (ÇUBUKLU KÖYÜ)",
      "area": "KUMLUCA",
      "postal_code": "74410"
    },
    {
      "id": 12344,
      "district_id": 165,
      "name": "KÖSE MAH (ZAFER KÖYÜ)",
      "area": "KUMLUCA",
      "postal_code": "74410"
    },
    {
      "id": 12345,
      "district_id": 165,
      "name": "KÖSEOĞLU MAH (YILANLAR KÖYÜ)",
      "area": "KUMLUCA",
      "postal_code": "74410"
    },
    {
      "id": 12346,
      "district_id": 165,
      "name": "KULAKLAR MAH (ÖNCÜLER KÖYÜ)",
      "area": "KUMLUCA",
      "postal_code": "74410"
    },
    {
      "id": 12347,
      "district_id": 165,
      "name": "KULAKSIZOĞLU MAH (ULUKÖY KÖYÜ)",
      "area": "KUMLUCA",
      "postal_code": "74410"
    },
    {
      "id": 12348,
      "district_id": 165,
      "name": "KÜRTOĞLU MAH (GÜNEYÖREN KÖYÜ)",
      "area": "MERKEZKÖYLER",
      "postal_code": "74602"
    },
    {
      "id": 12349,
      "district_id": 165,
      "name": "KURUOĞLU MAH (DÜZKÖY KÖYÜ)",
      "area": "MERKEZKÖYLER",
      "postal_code": "74602"
    },
    {
      "id": 12350,
      "district_id": 165,
      "name": "KÜTÜKOĞLU MAH (HİSARKÖY KÖYÜ)",
      "area": "KUMLUCA",
      "postal_code": "74410"
    },
    {
      "id": 12351,
      "district_id": 165,
      "name": "KUZÖREN MAH (BUĞURLAR KÖYÜ)",
      "area": "MERKEZKÖYLER",
      "postal_code": "74602"
    },
    {
      "id": 12352,
      "district_id": 165,
      "name": "LAFAZANLAR MAH (GÖKPINAR KÖYÜ)",
      "area": "MERKEZKÖYLER",
      "postal_code": "74602"
    },
    {
      "id": 12353,
      "district_id": 165,
      "name": "MADENOĞLU MAH (ESELER KÖYÜ)",
      "area": "MERKEZKÖYLER",
      "postal_code": "74602"
    },
    {
      "id": 12354,
      "district_id": 165,
      "name": "MAKSADOĞLU MAH (ÇUBUKLU KÖYÜ)",
      "area": "KUMLUCA",
      "postal_code": "74410"
    },
    {
      "id": 12355,
      "district_id": 165,
      "name": "MARAZOĞLU MAH (DOĞANKÖY KÖYÜ)",
      "area": "KUMLUCA",
      "postal_code": "74410"
    },
    {
      "id": 12356,
      "district_id": 165,
      "name": "MERKEZ MAH (AĞAKÖY KÖYÜ)",
      "area": "MERKEZKÖYLER",
      "postal_code": "74602"
    },
    {
      "id": 12357,
      "district_id": 165,
      "name": "MERKEZ MAH (ALPI KÖYÜ)",
      "area": "MERKEZKÖYLER",
      "postal_code": "74602"
    },
    {
      "id": 12358,
      "district_id": 165,
      "name": "MERKEZ MAH (ARPACIK KÖYÜ)",
      "area": "MERKEZKÖYLER",
      "postal_code": "74602"
    },
    {
      "id": 12359,
      "district_id": 165,
      "name": "MERKEZ MAH (AŞAĞIÇAMLI KÖYÜ)",
      "area": "MERKEZKÖYLER",
      "postal_code": "74602"
    },
    {
      "id": 12360,
      "district_id": 165,
      "name": "MERKEZ MAH (AŞAĞIDERE KÖYÜ)",
      "area": "MERKEZKÖYLER",
      "postal_code": "74602"
    },
    {
      "id": 12361,
      "district_id": 165,
      "name": "MERKEZ MAH (AŞAĞIEMİRCE KÖYÜ)",
      "area": "MERKEZKÖYLER",
      "postal_code": "74602"
    },
    {
      "id": 12362,
      "district_id": 165,
      "name": "MERKEZ MAH (BAĞDATLI KÖYÜ)",
      "area": "KUMLUCA",
      "postal_code": "74410"
    },
    {
      "id": 12363,
      "district_id": 165,
      "name": "MERKEZ MAH (BAHÇECİK KÖYÜ)",
      "area": "MERKEZKÖYLER",
      "postal_code": "74602"
    },
    {
      "id": 12364,
      "district_id": 165,
      "name": "MERKEZ MAH (BUĞURLAR KÖYÜ)",
      "area": "MERKEZKÖYLER",
      "postal_code": "74602"
    },
    {
      "id": 12365,
      "district_id": 165,
      "name": "MERKEZ MAH (ÇUBUKLU KÖYÜ)",
      "area": "KUMLUCA",
      "postal_code": "74410"
    },
    {
      "id": 12366,
      "district_id": 165,
      "name": "MERKEZ MAH (DERELİ KÖYÜ)",
      "area": "MERKEZKÖYLER",
      "postal_code": "74602"
    },
    {
      "id": 12367,
      "district_id": 165,
      "name": "MERKEZ MAH (DİBEKTAŞ KÖYÜ)",
      "area": "KUMLUCA",
      "postal_code": "74410"
    },
    {
      "id": 12368,
      "district_id": 165,
      "name": "MERKEZ MAH (DODURGA KÖYÜ)",
      "area": "MERKEZKÖYLER",
      "postal_code": "74602"
    },
    {
      "id": 12369,
      "district_id": 165,
      "name": "MERKEZ MAH (DÖNGELLER KÖYÜ)",
      "area": "KUMLUCA",
      "postal_code": "74410"
    },
    {
      "id": 12370,
      "district_id": 165,
      "name": "MERKEZ MAH (DÖREKLER KÖYÜ)",
      "area": "MERKEZKÖYLER",
      "postal_code": "74602"
    },
    {
      "id": 12371,
      "district_id": 165,
      "name": "MERKEZ MAH (DÜZKÖY KÖYÜ)",
      "area": "MERKEZKÖYLER",
      "postal_code": "74602"
    },
    {
      "id": 12372,
      "district_id": 165,
      "name": "MERKEZ MAH (ELMACIK KÖYÜ)",
      "area": "MERKEZKÖYLER",
      "postal_code": "74602"
    },
    {
      "id": 12373,
      "district_id": 165,
      "name": "MERKEZ MAH (GÜNEYÖREN KÖYÜ)",
      "area": "MERKEZKÖYLER",
      "postal_code": "74602"
    },
    {
      "id": 12374,
      "district_id": 165,
      "name": "MERKEZ MAH (HASANÖREN KÖYÜ)",
      "area": "MERKEZKÖYLER",
      "postal_code": "74602"
    },
    {
      "id": 12375,
      "district_id": 165,
      "name": "MERKEZ MAH (İBRAHİMDERESİ KÖYÜ)",
      "area": "MERKEZKÖYLER",
      "postal_code": "74602"
    },
    {
      "id": 12376,
      "district_id": 165,
      "name": "MERKEZ MAH (KADIKÖY KÖYÜ)",
      "area": "MERKEZKÖYLER",
      "postal_code": "74602"
    },
    {
      "id": 12377,
      "district_id": 165,
      "name": "MERKEZ MAH (KALECİK KÖYÜ)",
      "area": "MERKEZKÖYLER",
      "postal_code": "74602"
    },
    {
      "id": 12378,
      "district_id": 165,
      "name": "MERKEZ MAH (KARAKIŞLA KÖYÜ)",
      "area": "MERKEZKÖYLER",
      "postal_code": "74602"
    },
    {
      "id": 12379,
      "district_id": 165,
      "name": "MERKEZ MAH (KAYABAŞI KÖYÜ)",
      "area": "MERKEZKÖYLER",
      "postal_code": "74602"
    },
    {
      "id": 12380,
      "district_id": 165,
      "name": "MERKEZ MAH (KEÇİDERESİ KÖYÜ)",
      "area": "KUMLUCA",
      "postal_code": "74410"
    },
    {
      "id": 12381,
      "district_id": 165,
      "name": "MERKEZ MAH (KİRAZCIK KÖYÜ)",
      "area": "MERKEZKÖYLER",
      "postal_code": "74602"
    },
    {
      "id": 12382,
      "district_id": 165,
      "name": "MERKEZ MAH (KIYIKLAR KÖYÜ)",
      "area": "KUMLUCA",
      "postal_code": "74410"
    },
    {
      "id": 12383,
      "district_id": 165,
      "name": "MERKEZ MAH (KIZILLAR KÖYÜ)",
      "area": "KUMLUCA",
      "postal_code": "74410"
    },
    {
      "id": 12384,
      "district_id": 165,
      "name": "MERKEZ MAH (KÖKLÜ KÖYÜ)",
      "area": "MERKEZKÖYLER",
      "postal_code": "74602"
    },
    {
      "id": 12385,
      "district_id": 165,
      "name": "MERKEZ MAH (KONAK KÖYÜ)",
      "area": "KUMLUCA",
      "postal_code": "74410"
    },
    {
      "id": 12386,
      "district_id": 165,
      "name": "MERKEZ MAH (KONUKLU KÖYÜ)",
      "area": "KUMLUCA",
      "postal_code": "74410"
    },
    {
      "id": 12387,
      "district_id": 165,
      "name": "MERKEZ MAH (KOZANLI KÖYÜ)",
      "area": "MERKEZKÖYLER",
      "postal_code": "74602"
    },
    {
      "id": 12388,
      "district_id": 165,
      "name": "MERKEZ MAH (KÜLLÜ KÖYÜ)",
      "area": "MERKEZKÖYLER",
      "postal_code": "74602"
    },
    {
      "id": 12389,
      "district_id": 165,
      "name": "MERKEZ MAH (KUMLUCA BELDESİ)",
      "area": "KUMLUCA",
      "postal_code": "74410"
    },
    {
      "id": 12390,
      "district_id": 165,
      "name": "MERKEZ MAH (SARIFASIL KÖYÜ)",
      "area": "MERKEZKÖYLER",
      "postal_code": "74602"
    },
    {
      "id": 12391,
      "district_id": 165,
      "name": "MERKEZ MAH (ŞİRİNLER KÖYÜ)",
      "area": "MERKEZKÖYLER",
      "postal_code": "74602"
    },
    {
      "id": 12392,
      "district_id": 165,
      "name": "MERKEZ MAH (ULUKAYA KÖYÜ)",
      "area": "MERKEZKÖYLER",
      "postal_code": "74602"
    },
    {
      "id": 12393,
      "district_id": 165,
      "name": "MERKEZ MAH (YENİKIŞLA KÖYÜ)",
      "area": "KUMLUCA",
      "postal_code": "74410"
    },
    {
      "id": 12394,
      "district_id": 165,
      "name": "MERKEZ MAH (YILANLAR KÖYÜ)",
      "area": "KUMLUCA",
      "postal_code": "74410"
    },
    {
      "id": 12395,
      "district_id": 165,
      "name": "MERKEZ MAH (YUKARIDERE KÖYÜ)",
      "area": "MERKEZKÖYLER",
      "postal_code": "74602"
    },
    {
      "id": 12396,
      "district_id": 165,
      "name": "MEZGELLER MAH",
      "area": "ULUS",
      "postal_code": "74600"
    },
    {
      "id": 12397,
      "district_id": 165,
      "name": "MİLNE MAH (ÜÇSARAY KÖYÜ)",
      "area": "KUMLUCA",
      "postal_code": "74410"
    },
    {
      "id": 12398,
      "district_id": 165,
      "name": "MOLLA MAH (İNCEÇAM KÖYÜ)",
      "area": "MERKEZKÖYLER",
      "postal_code": "74602"
    },
    {
      "id": 12399,
      "district_id": 165,
      "name": "MÜYESSEROĞLU MAH (HİSARKÖY KÖYÜ)",
      "area": "KUMLUCA",
      "postal_code": "74410"
    },
    {
      "id": 12400,
      "district_id": 165,
      "name": "OCAKLI MAH (AĞAKÖY KÖYÜ)",
      "area": "MERKEZKÖYLER",
      "postal_code": "74602"
    },
    {
      "id": 12401,
      "district_id": 165,
      "name": "ÖMERAĞA MAH (ULUKÖY KÖYÜ)",
      "area": "KUMLUCA",
      "postal_code": "74410"
    },
    {
      "id": 12402,
      "district_id": 165,
      "name": "ÖMEROĞLU MAH (ALIÇLI KÖYÜ)",
      "area": "MERKEZKÖYLER",
      "postal_code": "74602"
    },
    {
      "id": 12403,
      "district_id": 165,
      "name": "ÖMEROĞLU MAH (KADIKÖY KÖYÜ)",
      "area": "MERKEZKÖYLER",
      "postal_code": "74602"
    },
    {
      "id": 12404,
      "district_id": 165,
      "name": "ONAÇ MAH (BAHÇECİK KÖYÜ)",
      "area": "MERKEZKÖYLER",
      "postal_code": "74602"
    },
    {
      "id": 12405,
      "district_id": 165,
      "name": "ÖREN MAH (BAHÇECİK KÖYÜ)",
      "area": "MERKEZKÖYLER",
      "postal_code": "74602"
    },
    {
      "id": 12406,
      "district_id": 165,
      "name": "ÖREN MAH (ELDEŞ KÖYÜ)",
      "area": "MERKEZKÖYLER",
      "postal_code": "74602"
    },
    {
      "id": 12407,
      "district_id": 165,
      "name": "ÖREN MAH (KIZILLAR KÖYÜ)",
      "area": "KUMLUCA",
      "postal_code": "74410"
    },
    {
      "id": 12408,
      "district_id": 165,
      "name": "ORTA MAH (AŞAĞIKÖY KÖYÜ)",
      "area": "MERKEZKÖYLER",
      "postal_code": "74602"
    },
    {
      "id": 12409,
      "district_id": 165,
      "name": "ORTA MAH (ÇAVUŞKÖY KÖYÜ)",
      "area": "MERKEZKÖYLER",
      "postal_code": "74602"
    },
    {
      "id": 12410,
      "district_id": 165,
      "name": "ORTA MAH (KALECİK KÖYÜ)",
      "area": "MERKEZKÖYLER",
      "postal_code": "74602"
    },
    {
      "id": 12411,
      "district_id": 165,
      "name": "ORTA MAH (KARAHASAN KÖYÜ)",
      "area": "MERKEZKÖYLER",
      "postal_code": "74602"
    },
    {
      "id": 12412,
      "district_id": 165,
      "name": "ORTA MAH (SARNIÇ KÖYÜ)",
      "area": "MERKEZKÖYLER",
      "postal_code": "74602"
    },
    {
      "id": 12413,
      "district_id": 165,
      "name": "ORTA MAH (YENİKIŞLA KÖYÜ)",
      "area": "KUMLUCA",
      "postal_code": "74410"
    },
    {
      "id": 12414,
      "district_id": 165,
      "name": "OYRAK MAH (ESELER KÖYÜ)",
      "area": "MERKEZKÖYLER",
      "postal_code": "74602"
    },
    {
      "id": 12415,
      "district_id": 165,
      "name": "OZAN MAH (ELDEŞ KÖYÜ)",
      "area": "MERKEZKÖYLER",
      "postal_code": "74602"
    },
    {
      "id": 12416,
      "district_id": 165,
      "name": "PAŞALI MAH (AŞAĞIÇAMLI KÖYÜ)",
      "area": "MERKEZKÖYLER",
      "postal_code": "74602"
    },
    {
      "id": 12417,
      "district_id": 165,
      "name": "PAZAR MAH (ELDEŞ KÖYÜ)",
      "area": "MERKEZKÖYLER",
      "postal_code": "74602"
    },
    {
      "id": 12418,
      "district_id": 165,
      "name": "PAZAR MAH (KOZANLI KÖYÜ)",
      "area": "MERKEZKÖYLER",
      "postal_code": "74602"
    },
    {
      "id": 12419,
      "district_id": 165,
      "name": "PINARÖNÜ MAH (ELDEŞ KÖYÜ)",
      "area": "MERKEZKÖYLER",
      "postal_code": "74602"
    },
    {
      "id": 12420,
      "district_id": 165,
      "name": "RUMLUOĞLU MAH (GÜNEYÖREN KÖYÜ)",
      "area": "MERKEZKÖYLER",
      "postal_code": "74602"
    },
    {
      "id": 12421,
      "district_id": 165,
      "name": "ŞAHABETTİN MAH (ULUKÖY KÖYÜ)",
      "area": "KUMLUCA",
      "postal_code": "74410"
    },
    {
      "id": 12422,
      "district_id": 165,
      "name": "ŞAHİNOĞLU MAH (AĞAKÖY KÖYÜ)",
      "area": "MERKEZKÖYLER",
      "postal_code": "74602"
    },
    {
      "id": 12423,
      "district_id": 165,
      "name": "SAMAT MAH",
      "area": "ULUS",
      "postal_code": "74600"
    },
    {
      "id": 12424,
      "district_id": 165,
      "name": "SAMATLI MAH (KOZANLI KÖYÜ)",
      "area": "MERKEZKÖYLER",
      "postal_code": "74602"
    },
    {
      "id": 12425,
      "district_id": 165,
      "name": "SAP MAH (DÖREKLER KÖYÜ)",
      "area": "MERKEZKÖYLER",
      "postal_code": "74602"
    },
    {
      "id": 12426,
      "district_id": 165,
      "name": "SARICAAĞAÇ MAH (KÜLLÜ KÖYÜ)",
      "area": "MERKEZKÖYLER",
      "postal_code": "74602"
    },
    {
      "id": 12427,
      "district_id": 165,
      "name": "SAZ MAH",
      "area": "ULUS",
      "postal_code": "74600"
    },
    {
      "id": 12428,
      "district_id": 165,
      "name": "SEFERLER MAH (İNCEÇAM KÖYÜ)",
      "area": "MERKEZKÖYLER",
      "postal_code": "74602"
    },
    {
      "id": 12429,
      "district_id": 165,
      "name": "SEFEROĞLU MAH (DOĞANKÖY KÖYÜ)",
      "area": "KUMLUCA",
      "postal_code": "74410"
    },
    {
      "id": 12430,
      "district_id": 165,
      "name": "SERDAROĞLU MAH (KONUKLU KÖYÜ)",
      "area": "KUMLUCA",
      "postal_code": "74410"
    },
    {
      "id": 12431,
      "district_id": 165,
      "name": "SOFULAR MAH (HOCAKÖY KÖYÜ)",
      "area": "MERKEZKÖYLER",
      "postal_code": "74602"
    },
    {
      "id": 12432,
      "district_id": 165,
      "name": "SOFUOĞLU MAH (ÇUBUKLU KÖYÜ)",
      "area": "KUMLUCA",
      "postal_code": "74410"
    },
    {
      "id": 12433,
      "district_id": 165,
      "name": "SÖKÜLER MAH (AKÖRENSÖKÜLER KÖYÜ)",
      "area": "KUMLUCA",
      "postal_code": "74410"
    },
    {
      "id": 12434,
      "district_id": 165,
      "name": "SOMULLU MAH (ELMACIK KÖYÜ)",
      "area": "MERKEZKÖYLER",
      "postal_code": "74602"
    },
    {
      "id": 12435,
      "district_id": 165,
      "name": "SORGUNCUK MAH (YENİKÖY KÖYÜ)",
      "area": "MERKEZKÖYLER",
      "postal_code": "74602"
    },
    {
      "id": 12436,
      "district_id": 165,
      "name": "ŞÜKRÜOĞLU MAH (YENİKÖY KÖYÜ)",
      "area": "MERKEZKÖYLER",
      "postal_code": "74602"
    },
    {
      "id": 12437,
      "district_id": 165,
      "name": "TABAKLAR MAH (ÖNCÜLER KÖYÜ)",
      "area": "KUMLUCA",
      "postal_code": "74410"
    },
    {
      "id": 12438,
      "district_id": 165,
      "name": "TAHTABAŞOĞLU MAH (ABDURRAHMAN KÖYÜ)",
      "area": "MERKEZKÖYLER",
      "postal_code": "74602"
    },
    {
      "id": 12439,
      "district_id": 165,
      "name": "TANIŞMAN MAH (ESELER KÖYÜ)",
      "area": "MERKEZKÖYLER",
      "postal_code": "74602"
    },
    {
      "id": 12440,
      "district_id": 165,
      "name": "TAŞÇIOĞLU MAH (DÜZKÖY KÖYÜ)",
      "area": "MERKEZKÖYLER",
      "postal_code": "74602"
    },
    {
      "id": 12441,
      "district_id": 165,
      "name": "TEKMENOĞLU MAH (KADIKÖY KÖYÜ)",
      "area": "MERKEZKÖYLER",
      "postal_code": "74602"
    },
    {
      "id": 12442,
      "district_id": 165,
      "name": "TOMBOOĞLU MAH (ÇAVUŞKÖY KÖYÜ)",
      "area": "MERKEZKÖYLER",
      "postal_code": "74602"
    },
    {
      "id": 12443,
      "district_id": 165,
      "name": "ÜÇPINAR MAH (BALICAK KÖYÜ)",
      "area": "MERKEZKÖYLER",
      "postal_code": "74602"
    },
    {
      "id": 12444,
      "district_id": 165,
      "name": "ÜÇPINAR MAH (ZAFER KÖYÜ)",
      "area": "KUMLUCA",
      "postal_code": "74410"
    },
    {
      "id": 12445,
      "district_id": 165,
      "name": "ULU MAH (ULUKÖY KÖYÜ)",
      "area": "KUMLUCA",
      "postal_code": "74410"
    },
    {
      "id": 12446,
      "district_id": 165,
      "name": "ULUPINAR MAH (ABDİPAŞA BELDESİ)",
      "area": "ABDİPAŞA",
      "postal_code": "74610"
    },
    {
      "id": 12447,
      "district_id": 165,
      "name": "VİLDANLAR MAH (ESELER KÖYÜ)",
      "area": "MERKEZKÖYLER",
      "postal_code": "74602"
    },
    {
      "id": 12448,
      "district_id": 165,
      "name": "YALVAÇ MAH (HOCAKÖY KÖYÜ)",
      "area": "MERKEZKÖYLER",
      "postal_code": "74602"
    },
    {
      "id": 12449,
      "district_id": 165,
      "name": "YAMAKLAR MAH (KIYIKLAR KÖYÜ)",
      "area": "KUMLUCA",
      "postal_code": "74410"
    },
    {
      "id": 12450,
      "district_id": 165,
      "name": "YENİ MAH (BAHÇECİK KÖYÜ)",
      "area": "MERKEZKÖYLER",
      "postal_code": "74602"
    },
    {
      "id": 12451,
      "district_id": 165,
      "name": "YENİ MAH (CEYÜPLER KÖYÜ)",
      "area": "KUMLUCA",
      "postal_code": "74410"
    },
    {
      "id": 12452,
      "district_id": 165,
      "name": "YENİ MAH (DERELİ KÖYÜ)",
      "area": "MERKEZKÖYLER",
      "postal_code": "74602"
    },
    {
      "id": 12453,
      "district_id": 165,
      "name": "YENİ MAH (HASANÖREN KÖYÜ)",
      "area": "MERKEZKÖYLER",
      "postal_code": "74602"
    },
    {
      "id": 12454,
      "district_id": 165,
      "name": "YENİ MAH (KUMLUCA BELDESİ)",
      "area": "KUMLUCA",
      "postal_code": "74410"
    },
    {
      "id": 12455,
      "district_id": 165,
      "name": "YENİ MAH (SARNIÇ KÖYÜ)",
      "area": "MERKEZKÖYLER",
      "postal_code": "74602"
    },
    {
      "id": 12456,
      "district_id": 165,
      "name": "YENİ MAH (ULUKÖY KÖYÜ)",
      "area": "KUMLUCA",
      "postal_code": "74410"
    },
    {
      "id": 12457,
      "district_id": 165,
      "name": "YENİ MAH (YILANLAR KÖYÜ)",
      "area": "KUMLUCA",
      "postal_code": "74410"
    },
    {
      "id": 12458,
      "district_id": 165,
      "name": "YENİCE MAH (AŞAĞIDERE KÖYÜ)",
      "area": "MERKEZKÖYLER",
      "postal_code": "74602"
    },
    {
      "id": 12459,
      "district_id": 165,
      "name": "YEŞİLPAZAR MAH (ABDİPAŞA BELDESİ)",
      "area": "ABDİPAŞA",
      "postal_code": "74610"
    },
    {
      "id": 12460,
      "district_id": 165,
      "name": "YİRMİBEŞOĞLU MAH (ULUKÖY KÖYÜ)",
      "area": "KUMLUCA",
      "postal_code": "74410"
    },
    {
      "id": 12461,
      "district_id": 165,
      "name": "YUKARI MAH (AŞAĞIÇERÇİ KÖYÜ)",
      "area": "MERKEZKÖYLER",
      "postal_code": "74602"
    },
    {
      "id": 12462,
      "district_id": 165,
      "name": "YUKARI MAH (AŞAĞIEMİRCE KÖYÜ)",
      "area": "MERKEZKÖYLER",
      "postal_code": "74602"
    },
    {
      "id": 12463,
      "district_id": 165,
      "name": "YUKARI MAH (AŞAĞIKÖY KÖYÜ)",
      "area": "MERKEZKÖYLER",
      "postal_code": "74602"
    },
    {
      "id": 12464,
      "district_id": 165,
      "name": "YUKARI MAH (BALICAK KÖYÜ)",
      "area": "MERKEZKÖYLER",
      "postal_code": "74602"
    },
    {
      "id": 12465,
      "district_id": 165,
      "name": "YUKARI MAH (ÇERDE KÖYÜ)",
      "area": "MERKEZKÖYLER",
      "postal_code": "74602"
    },
    {
      "id": 12466,
      "district_id": 165,
      "name": "YUKARI MAH (ÇUBUKBELİ KÖYÜ)",
      "area": "MERKEZKÖYLER",
      "postal_code": "74602"
    },
    {
      "id": 12467,
      "district_id": 165,
      "name": "YUKARI MAH (KARAHASAN KÖYÜ)",
      "area": "MERKEZKÖYLER",
      "postal_code": "74602"
    },
    {
      "id": 12468,
      "district_id": 165,
      "name": "YUKARI MAH (KİRSİNLER KÖYÜ)",
      "area": "KUMLUCA",
      "postal_code": "74410"
    },
    {
      "id": 12469,
      "district_id": 165,
      "name": "YUKARIAVLU MAH (ŞİRİNLER KÖYÜ)",
      "area": "MERKEZKÖYLER",
      "postal_code": "74602"
    },
    {
      "id": 12470,
      "district_id": 165,
      "name": "YUKARIDORUCA MAH (DORUCAŞAHİNCİ KÖYÜ)",
      "area": "MERKEZKÖYLER",
      "postal_code": "74602"
    },
    {
      "id": 12471,
      "district_id": 165,
      "name": "ZAROĞLU MAH (HİSARKÖY KÖYÜ)",
      "area": "KUMLUCA",
      "postal_code": "74410"
    },
    {
      "id": 12472,
      "district_id": 165,
      "name": "ZOPUNOĞLU MAH (ABDURRAHMAN KÖYÜ)",
      "area": "MERKEZKÖYLER",
      "postal_code": "74602"
    }
  ]
}