{
  "neighborhoods": [
    {
      "id": 23464,
      "district_id": 309,
      "name": "ACARA MAH (DOĞANCILAR KÖYÜ)",
      "area": "MERKEZKÖYLER",
      "postal_code": "81652"
    },
    {
      "id": 23465,
      "district_id": 309,
      "name": "AHMETDAĞI MAH (TAHİRLİ KÖYÜ)",
      "area": "MERKEZKÖYLER",
      "postal_code": "81652"
    },
    {
      "id": 23466,
      "district_id": 309,
      "name": "AKKAYA KÖYÜ",
      "area": "MERKEZKÖYLER",
      "postal_code": "81652"
    },
    {
      "id": 23467,
      "district_id": 309,
      "name": "AKTAŞ KÖYÜ",
      "area": "MERKEZKÖYLER",
      "postal_code": "81652"
    },
    {
      "id": 23468,
      "district_id": 309,
      "name": "ALTINÇAY KÖYÜ",
      "area": "MERKEZKÖYLER",
      "postal_code": "81652"
    },
    {
      "id": 23469,
      "district_id": 309,
      "name": "ARABACI KÖYÜ",
      "area": "MERKEZKÖYLER",
      "postal_code": "81652"
    },
    {
      "id": 23470,
      "district_id": 309,
      "name": "AYAZLI MAH",
      "area": "AKÇAKOCA",
      "postal_code": "81650"
    },
    {
      "id": 23471,
      "district_id": 309,
      "name": "BALATLI KÖYÜ",
      "area": "MERKEZKÖYLER",
      "postal_code": "81652"
    },
    {
      "id": 23472,
      "district_id": 309,
      "name": "BATTALLAR MAH (KARATAVUK KÖYÜ)",
      "area": "MERKEZKÖYLER",
      "postal_code": "81652"
    },
    {
      "id": 23473,
      "district_id": 309,
      "name": "BAYHANLI KÖYÜ",
      "area": "MERKEZKÖYLER",
      "postal_code": "81652"
    },
    {
      "id": 23474,
      "district_id": 309,
      "name": "BEYLİK AĞACI MAH (KURUKAVAK KÖYÜ)",
      "area": "MERKEZKÖYLER",
      "postal_code": "81652"
    },
    {
      "id": 23475,
      "district_id": 309,
      "name": "BEYÖREN KÖYÜ",
      "area": "MERKEZKÖYLER",
      "postal_code": "81652"
    },
    {
      "id": 23476,
      "district_id": 309,
      "name": "ÇAYAĞZI KÖYÜ",
      "area": "MERKEZKÖYLER",
      "postal_code": "81652"
    },
    {
      "id": 23477,
      "district_id": 309,
      "name": "ÇİÇEKPINAR KÖYÜ",
      "area": "MERKEZKÖYLER",
      "postal_code": "81652"
    },
    {
      "id": 23478,
      "district_id": 309,
      "name": "CUMHURİYET MAH",
      "area": "AKÇAKOCA",
      "postal_code": "81650"
    },
    {
      "id": 23479,
      "district_id": 309,
      "name": "DADALI KÖYÜ",
      "area": "MERKEZKÖYLER",
      "postal_code": "81652"
    },
    {
      "id": 23480,
      "district_id": 309,
      "name": "DAVUTAĞA KÖYÜ",
      "area": "MERKEZKÖYLER",
      "postal_code": "81652"
    },
    {
      "id": 23481,
      "district_id": 309,
      "name": "DEREDİBİ KÖYÜ",
      "area": "MERKEZKÖYLER",
      "postal_code": "81652"
    },
    {
      "id": 23482,
      "district_id": 309,
      "name": "DEREKÖY KÖYÜ",
      "area": "MERKEZKÖYLER",
      "postal_code": "81652"
    },
    {
      "id": 23483,
      "district_id": 309,
      "name": "DİLAVER KÖYÜ",
      "area": "MERKEZKÖYLER",
      "postal_code": "81652"
    },
    {
      "id": 23484,
      "district_id": 309,
      "name": "DOĞANCILAR MAH (DOĞANCILAR KÖYÜ)",
      "area": "MERKEZKÖYLER",
      "postal_code": "81652"
    },
    {
      "id": 23485,
      "district_id": 309,
      "name": "DÖNGELLİ KÖYÜ",
      "area": "MERKEZKÖYLER",
      "postal_code": "81652"
    },
    {
      "id": 23486,
      "district_id": 309,
      "name": "DÖNGELLİ MAH (DÖNGELLİ KÖYÜ)",
      "area": "MERKEZKÖYLER",
      "postal_code": "81652"
    },
    {
      "id": 23487,
      "district_id": 309,
      "name": "EDİLLİ AĞZI MAH (EDİLLİ KÖYÜ)",
      "area": "MERKEZKÖYLER",
      "postal_code": "81652"
    },
    {
      "id": 23488,
      "district_id": 309,
      "name": "EDİLLİ KÖYÜ",
      "area": "MERKEZKÖYLER",
      "postal_code": "81652"
    },
    {
      "id": 23489,
      "district_id": 309,
      "name": "ESMAHANIM KÖYÜ",
      "area": "MERKEZKÖYLER",
      "postal_code": "81652"
    },
    {
      "id": 23490,
      "district_id": 309,
      "name": "FAKILLI KÖYÜ",
      "area": "MERKEZKÖYLER",
      "postal_code": "81652"
    },
    {
      "id": 23491,
      "district_id": 309,
      "name": "GİRESUNLULAR MAH (DOĞANCILAR KÖYÜ)",
      "area": "MERKEZKÖYLER",
      "postal_code": "81652"
    },
    {
      "id": 23492,
      "district_id": 309,
      "name": "GÖKTEPE KÖYÜ",
      "area": "MERKEZKÖYLER",
      "postal_code": "81652"
    },
    {
      "id": 23493,
      "district_id": 309,
      "name": "HACI YUSUFLAR MAH",
      "area": "AKÇAKOCA",
      "postal_code": "81650"
    },
    {
      "id": 23494,
      "district_id": 309,
      "name": "HEMŞİN KÖYÜ",
      "area": "MERKEZKÖYLER",
      "postal_code": "81652"
    },
    {
      "id": 23495,
      "district_id": 309,
      "name": "KALKIN KÖYÜ",
      "area": "MERKEZKÖYLER",
      "postal_code": "81652"
    },
    {
      "id": 23496,
      "district_id": 309,
      "name": "KARABURUN 2 MAH (HASANÇAVUŞ KÖYÜ)",
      "area": "MERKEZKÖYLER",
      "postal_code": "81652"
    },
    {
      "id": 23497,
      "district_id": 309,
      "name": "KARABURUN MAH (HASANÇAVUŞ KÖYÜ)",
      "area": "MERKEZKÖYLER",
      "postal_code": "81652"
    },
    {
      "id": 23498,
      "district_id": 309,
      "name": "KAYADİBİ MAH (KARATAVUK KÖYÜ)",
      "area": "MERKEZKÖYLER",
      "postal_code": "81652"
    },
    {
      "id": 23499,
      "district_id": 309,
      "name": "KEÇİKAYA MAH (PAŞALAR KÖYÜ)",
      "area": "MERKEZKÖYLER",
      "postal_code": "81652"
    },
    {
      "id": 23500,
      "district_id": 309,
      "name": "KEPENÇ KÖYÜ",
      "area": "MERKEZKÖYLER",
      "postal_code": "81652"
    },
    {
      "id": 23501,
      "district_id": 309,
      "name": "KINIK KÖYÜ",
      "area": "MERKEZKÖYLER",
      "postal_code": "81652"
    },
    {
      "id": 23502,
      "district_id": 309,
      "name": "KİRAZLI KÖYÜ",
      "area": "MERKEZKÖYLER",
      "postal_code": "81652"
    },
    {
      "id": 23503,
      "district_id": 309,
      "name": "KİRAZYANI MAH (ÇAYAĞZI KÖYÜ)",
      "area": "MERKEZKÖYLER",
      "postal_code": "81652"
    },
    {
      "id": 23504,
      "district_id": 309,
      "name": "KOÇAR KÖYÜ",
      "area": "MERKEZKÖYLER",
      "postal_code": "81652"
    },
    {
      "id": 23505,
      "district_id": 309,
      "name": "KOÇULLU KÖYÜ",
      "area": "MERKEZKÖYLER",
      "postal_code": "81652"
    },
    {
      "id": 23506,
      "district_id": 309,
      "name": "KÖYİÇİ MAH (HASANÇAVUŞ KÖYÜ)",
      "area": "MERKEZKÖYLER",
      "postal_code": "81652"
    },
    {
      "id": 23507,
      "district_id": 309,
      "name": "KÖYİÇİ MAH (KARATAVUK KÖYÜ)",
      "area": "MERKEZKÖYLER",
      "postal_code": "81652"
    },
    {
      "id": 23508,
      "district_id": 309,
      "name": "KUMPINAR MAH (ÇAYAĞZI KÖYÜ)",
      "area": "MERKEZKÖYLER",
      "postal_code": "81652"
    },
    {
      "id": 23509,
      "district_id": 309,
      "name": "KÜPLER KÖYÜ",
      "area": "MERKEZKÖYLER",
      "postal_code": "81652"
    },
    {
      "id": 23510,
      "district_id": 309,
      "name": "KURUGÖL KÖYÜ",
      "area": "MERKEZKÖYLER",
      "postal_code": "81652"
    },
    {
      "id": 23511,
      "district_id": 309,
      "name": "KURUKAVAK MAH (KURUKAVAK KÖYÜ)",
      "area": "MERKEZKÖYLER",
      "postal_code": "81652"
    },
    {
      "id": 23512,
      "district_id": 309,
      "name": "MELENAĞZI KÖYÜ",
      "area": "MERKEZKÖYLER",
      "postal_code": "81652"
    },
    {
      "id": 23513,
      "district_id": 309,
      "name": "MERKEZ MAH (KARATAVUK KÖYÜ)",
      "area": "MERKEZKÖYLER",
      "postal_code": "81652"
    },
    {
      "id": 23514,
      "district_id": 309,
      "name": "NAZIMBEY KÖYÜ",
      "area": "MERKEZKÖYLER",
      "postal_code": "81652"
    },
    {
      "id": 23515,
      "district_id": 309,
      "name": "ORHANGAZİ MAH",
      "area": "AKÇAKOCA",
      "postal_code": "81650"
    },
    {
      "id": 23516,
      "district_id": 309,
      "name": "ORTANCA KÖYÜ",
      "area": "MERKEZKÖYLER",
      "postal_code": "81652"
    },
    {
      "id": 23517,
      "district_id": 309,
      "name": "OSMANİYE MAH",
      "area": "AKÇAKOCA",
      "postal_code": "81650"
    },
    {
      "id": 23518,
      "district_id": 309,
      "name": "PAŞALAR KÖYÜ",
      "area": "MERKEZKÖYLER",
      "postal_code": "81652"
    },
    {
      "id": 23519,
      "district_id": 309,
      "name": "SARIYAYLA KÖYÜ",
      "area": "MERKEZKÖYLER",
      "postal_code": "81652"
    },
    {
      "id": 23520,
      "district_id": 309,
      "name": "SUBAŞI KÖYÜ",
      "area": "MERKEZKÖYLER",
      "postal_code": "81652"
    },
    {
      "id": 23521,
      "district_id": 309,
      "name": "TAHİRLİ KÖYÜ",
      "area": "MERKEZKÖYLER",
      "postal_code": "81652"
    },
    {
      "id": 23522,
      "district_id": 309,
      "name": "TEPEKÖY KÖYÜ",
      "area": "MERKEZKÖYLER",
      "postal_code": "81652"
    },
    {
      "id": 23523,
      "district_id": 309,
      "name": "UĞURLU KÖYÜ",
      "area": "MERKEZKÖYLER",
      "postal_code": "81652"
    },
    {
      "id": 23524,
      "district_id": 309,
      "name": "YALI MAH",
      "area": "AKÇAKOCA",
      "postal_code": "81650"
    },
    {
      "id": 23525,
      "district_id": 309,
      "name": "YALI MAH (BAYHANLI KÖYÜ)",
      "area": "MERKEZKÖYLER",
      "postal_code": "81652"
    },
    {
      "id": 23526,
      "district_id": 309,
      "name": "YENİ MAH",
      "area": "AKÇAKOCA",
      "postal_code": "81650"
    },
    {
      "id": 23527,
      "district_id": 309,
      "name": "YENİCE KÖYÜ",
      "area": "MERKEZKÖYLER",
      "postal_code": "81652"
    },
    {
      "id": 23528,
      "district_id": 309,
      "name": "YEŞİLKÖY KÖYÜ",
      "area": "MERKEZKÖYLER",
      "postal_code": "81652"
    },
    {
      "id": 23529,
      "district_id": 309,
      "name": "YUKARI MAH",
      "area": "AKÇAKOCA",
      "postal_code": "81650"
    },
    {
      "id": 23530,
      "district_id": 310,
      "name": "AKPINAR KÖYÜ",
      "area": "MERKEZKÖYLER",
      "postal_code": "81702"
    },
    {
      "id": 23531,
      "district_id": 310,
      "name": "ALİ USTA MAH (ÇELİKDERE KÖYÜ)",
      "area": "MERKEZKÖYLER",
      "postal_code": "81702"
    },
    {
      "id": 23532,
      "district_id": 310,
      "name": "ALT MAH (ÇELİKDERE KÖYÜ)",
      "area": "MERKEZKÖYLER",
      "postal_code": "81702"
    },
    {
      "id": 23533,
      "district_id": 310,
      "name": "ARİF MAH (ÜVEZBELİ KÖYÜ)",
      "area": "MERKEZKÖYLER",
      "postal_code": "81702"
    },
    {
      "id": 23534,
      "district_id": 310,
      "name": "CAMİ MAH (SUBAŞI KÖYÜ)",
      "area": "MERKEZKÖYLER",
      "postal_code": "81702"
    },
    {
      "id": 23535,
      "district_id": 310,
      "name": "ÇAMLIPINAR KÖYÜ",
      "area": "MERKEZKÖYLER",
      "postal_code": "81702"
    },
    {
      "id": 23536,
      "district_id": 310,
      "name": "ÇEVRİK MAH",
      "area": "CUMAYERİ",
      "postal_code": "81700"
    },
    {
      "id": 23537,
      "district_id": 310,
      "name": "DEĞİRMEN MAH (SUBAŞI KÖYÜ)",
      "area": "MERKEZKÖYLER",
      "postal_code": "81702"
    },
    {
      "id": 23538,
      "district_id": 310,
      "name": "DERE MAH (KIZILÜZÜM KÖYÜ)",
      "area": "MERKEZKÖYLER",
      "postal_code": "81702"
    },
    {
      "id": 23539,
      "district_id": 310,
      "name": "DERE MAH (YENİTEPE KÖYÜ)",
      "area": "MERKEZKÖYLER",
      "postal_code": "81702"
    },
    {
      "id": 23540,
      "district_id": 310,
      "name": "ELMALIDERE MAH (YEŞİLTEPE KÖYÜ)",
      "area": "MERKEZKÖYLER",
      "postal_code": "81702"
    },
    {
      "id": 23541,
      "district_id": 310,
      "name": "ESENTEPE KÖYÜ",
      "area": "MERKEZKÖYLER",
      "postal_code": "81702"
    },
    {
      "id": 23542,
      "district_id": 310,
      "name": "ESKİOĞLU MAH (YEŞİLTEPE KÖYÜ)",
      "area": "MERKEZKÖYLER",
      "postal_code": "81702"
    },
    {
      "id": 23543,
      "district_id": 310,
      "name": "FIRINYANI MAH (ORDULUKARADERE KÖYÜ)",
      "area": "MERKEZKÖYLER",
      "postal_code": "81702"
    },
    {
      "id": 23544,
      "district_id": 310,
      "name": "GÜNEY MAH (ORDULUKARADERE KÖYÜ)",
      "area": "MERKEZKÖYLER",
      "postal_code": "81702"
    },
    {
      "id": 23545,
      "district_id": 310,
      "name": "HARMANKAYA KÖYÜ",
      "area": "MERKEZKÖYLER",
      "postal_code": "81702"
    },
    {
      "id": 23546,
      "district_id": 310,
      "name": "HATİPOĞLU MAH (KIZILÜZÜM KÖYÜ)",
      "area": "MERKEZKÖYLER",
      "postal_code": "81702"
    },
    {
      "id": 23547,
      "district_id": 310,
      "name": "IĞDIR KÖYÜ",
      "area": "MERKEZKÖYLER",
      "postal_code": "81702"
    },
    {
      "id": 23548,
      "district_id": 310,
      "name": "İMRİZ MAH (HAMASCIK KÖYÜ)",
      "area": "MERKEZKÖYLER",
      "postal_code": "81702"
    },
    {
      "id": 23549,
      "district_id": 310,
      "name": "KABAÇAYIR MAH (AVLAYAN KÖYÜ)",
      "area": "MERKEZKÖYLER",
      "postal_code": "81702"
    },
    {
      "id": 23550,
      "district_id": 310,
      "name": "KAŞALTI MAH (ÜVEZBELİ KÖYÜ)",
      "area": "MERKEZKÖYLER",
      "postal_code": "81702"
    },
    {
      "id": 23551,
      "district_id": 310,
      "name": "KERSEN DÜZÜ MAH (ÜVEZBELİ KÖYÜ)",
      "area": "MERKEZKÖYLER",
      "postal_code": "81702"
    },
    {
      "id": 23552,
      "district_id": 310,
      "name": "KIRAN MAH (ÇELİKDERE KÖYÜ)",
      "area": "MERKEZKÖYLER",
      "postal_code": "81702"
    },
    {
      "id": 23553,
      "district_id": 310,
      "name": "KIRAN MAH (ÜVEZBELİ KÖYÜ)",
      "area": "MERKEZKÖYLER",
      "postal_code": "81702"
    },
    {
      "id": 23554,
      "district_id": 310,
      "name": "KIRAN MAH (YEŞİLTEPE KÖYÜ)",
      "area": "MERKEZKÖYLER",
      "postal_code": "81702"
    },
    {
      "id": 23555,
      "district_id": 310,
      "name": "KORAZOĞLU MAH (DOKUZDEĞİRMEN KÖYÜ)",
      "area": "MERKEZKÖYLER",
      "postal_code": "81702"
    },
    {
      "id": 23556,
      "district_id": 310,
      "name": "KOZLAR MAH (AVLAYAN KÖYÜ)",
      "area": "MERKEZKÖYLER",
      "postal_code": "81702"
    },
    {
      "id": 23557,
      "district_id": 310,
      "name": "KÜREKLİK MAH (ÜVEZBELİ KÖYÜ)",
      "area": "MERKEZKÖYLER",
      "postal_code": "81702"
    },
    {
      "id": 23558,
      "district_id": 310,
      "name": "KURU ALİ MAH (KIZILÜZÜM KÖYÜ)",
      "area": "MERKEZKÖYLER",
      "postal_code": "81702"
    },
    {
      "id": 23559,
      "district_id": 310,
      "name": "KUZ MAH (ORDULUKARADERE KÖYÜ)",
      "area": "MERKEZKÖYLER",
      "postal_code": "81702"
    },
    {
      "id": 23560,
      "district_id": 310,
      "name": "MEHMET AKİF MAH",
      "area": "CUMAYERİ",
      "postal_code": "81700"
    },
    {
      "id": 23561,
      "district_id": 310,
      "name": "MERKEZ MAH (AVLAYAN KÖYÜ)",
      "area": "MERKEZKÖYLER",
      "postal_code": "81702"
    },
    {
      "id": 23562,
      "district_id": 310,
      "name": "MERKEZ MAH (BÜYÜKMELEN KÖYÜ)",
      "area": "MERKEZKÖYLER",
      "postal_code": "81702"
    },
    {
      "id": 23563,
      "district_id": 310,
      "name": "MERKEZ MAH (ÇELİKDERE KÖYÜ)",
      "area": "MERKEZKÖYLER",
      "postal_code": "81702"
    },
    {
      "id": 23564,
      "district_id": 310,
      "name": "MERKEZ MAH (DOKUZDEĞİRMEN KÖYÜ)",
      "area": "MERKEZKÖYLER",
      "postal_code": "81702"
    },
    {
      "id": 23565,
      "district_id": 310,
      "name": "MERKEZ MAH (HAMASCIK KÖYÜ)",
      "area": "MERKEZKÖYLER",
      "postal_code": "81702"
    },
    {
      "id": 23566,
      "district_id": 310,
      "name": "MERKEZ MAH (KIZILÜZÜM KÖYÜ)",
      "area": "MERKEZKÖYLER",
      "postal_code": "81702"
    },
    {
      "id": 23567,
      "district_id": 310,
      "name": "MERKEZ MAH (ORDULUKARADERE KÖYÜ)",
      "area": "MERKEZKÖYLER",
      "postal_code": "81702"
    },
    {
      "id": 23568,
      "district_id": 310,
      "name": "MERKEZ MAH (SIRTPINAR KÖYÜ)",
      "area": "MERKEZKÖYLER",
      "postal_code": "81702"
    },
    {
      "id": 23569,
      "district_id": 310,
      "name": "MERKEZ MAH (ÜVEZBELİ KÖYÜ)",
      "area": "MERKEZKÖYLER",
      "postal_code": "81702"
    },
    {
      "id": 23570,
      "district_id": 310,
      "name": "MERKEZ MAH (YENİTEPE KÖYÜ)",
      "area": "MERKEZKÖYLER",
      "postal_code": "81702"
    },
    {
      "id": 23571,
      "district_id": 310,
      "name": "MISIRLIK KÖYÜ",
      "area": "MERKEZKÖYLER",
      "postal_code": "81702"
    },
    {
      "id": 23572,
      "district_id": 310,
      "name": "OKUL MAH (ORDULUKARADERE KÖYÜ)",
      "area": "MERKEZKÖYLER",
      "postal_code": "81702"
    },
    {
      "id": 23573,
      "district_id": 310,
      "name": "ÖREN KÖYÜ",
      "area": "MERKEZKÖYLER",
      "postal_code": "81702"
    },
    {
      "id": 23574,
      "district_id": 310,
      "name": "ÖREN MAH (SIRTPINAR KÖYÜ)",
      "area": "MERKEZKÖYLER",
      "postal_code": "81702"
    },
    {
      "id": 23575,
      "district_id": 310,
      "name": "ÖRENİÇİ MAH (ÇELİKDERE KÖYÜ)",
      "area": "MERKEZKÖYLER",
      "postal_code": "81702"
    },
    {
      "id": 23576,
      "district_id": 310,
      "name": "ORTA MAH",
      "area": "CUMAYERİ",
      "postal_code": "81700"
    },
    {
      "id": 23577,
      "district_id": 310,
      "name": "ORTA MAH (YEŞİLTEPE KÖYÜ)",
      "area": "MERKEZKÖYLER",
      "postal_code": "81702"
    },
    {
      "id": 23578,
      "district_id": 310,
      "name": "OSMANCIK MAH (AVLAYAN KÖYÜ)",
      "area": "MERKEZKÖYLER",
      "postal_code": "81702"
    },
    {
      "id": 23579,
      "district_id": 310,
      "name": "ŞAKİR MAH (ORDULUKARADERE KÖYÜ)",
      "area": "MERKEZKÖYLER",
      "postal_code": "81702"
    },
    {
      "id": 23580,
      "district_id": 310,
      "name": "SIVAZOĞLU MAH (ÜVEZBELİ KÖYÜ)",
      "area": "MERKEZKÖYLER",
      "postal_code": "81702"
    },
    {
      "id": 23581,
      "district_id": 310,
      "name": "SÜLEYMAN HANCI MAH (BÜYÜKMELEN KÖYÜ)",
      "area": "MERKEZKÖYLER",
      "postal_code": "81702"
    },
    {
      "id": 23582,
      "district_id": 310,
      "name": "TAŞLIK KÖYÜ",
      "area": "MERKEZKÖYLER",
      "postal_code": "81702"
    },
    {
      "id": 23583,
      "district_id": 310,
      "name": "TOMAS MAH (HAMASCIK KÖYÜ)",
      "area": "MERKEZKÖYLER",
      "postal_code": "81702"
    },
    {
      "id": 23584,
      "district_id": 310,
      "name": "YAKA MAH",
      "area": "CUMAYERİ",
      "postal_code": "81700"
    },
    {
      "id": 23585,
      "district_id": 310,
      "name": "YENİ MAH",
      "area": "CUMAYERİ",
      "postal_code": "81700"
    },
    {
      "id": 23586,
      "district_id": 310,
      "name": "YUKARIAVLAYAN KÖYÜ",
      "area": "MERKEZKÖYLER",
      "postal_code": "81702"
    },
    {
      "id": 23587,
      "district_id": 311,
      "name": "ALİMLER MAH (PIRPIR KÖYÜ)",
      "area": "MERKEZKÖYLER",
      "postal_code": "81752"
    },
    {
      "id": 23588,
      "district_id": 311,
      "name": "ARABACI MAH",
      "area": "ÇİLİMLİ",
      "postal_code": "81750"
    },
    {
      "id": 23589,
      "district_id": 311,
      "name": "BIÇKIBAŞI KÖYÜ",
      "area": "MERKEZKÖYLER",
      "postal_code": "81752"
    },
    {
      "id": 23590,
      "district_id": 311,
      "name": "ÇAKALLAR MAH (PIRPIR KÖYÜ)",
      "area": "MERKEZKÖYLER",
      "postal_code": "81752"
    },
    {
      "id": 23591,
      "district_id": 311,
      "name": "ÇALILIK KÖYÜ",
      "area": "MERKEZKÖYLER",
      "postal_code": "81752"
    },
    {
      "id": 23592,
      "district_id": 311,
      "name": "ÇİLİMLİ OSB MAH (SÖĞÜTLÜ KÖYÜ)",
      "area": "MERKEZKÖYLER",
      "postal_code": "81752"
    },
    {
      "id": 23593,
      "district_id": 311,
      "name": "DİKMELİ MAH (DİKMELİ KÖYÜ)",
      "area": "MERKEZKÖYLER",
      "postal_code": "81752"
    },
    {
      "id": 23594,
      "district_id": 311,
      "name": "DÖNGELLİ MAH",
      "area": "ÇİLİMLİ",
      "postal_code": "81750"
    },
    {
      "id": 23595,
      "district_id": 311,
      "name": "ESENLİ KÖYÜ",
      "area": "MERKEZKÖYLER",
      "postal_code": "81752"
    },
    {
      "id": 23596,
      "district_id": 311,
      "name": "GÜLEBELER MAH (DİKMELİ KÖYÜ)",
      "area": "MERKEZKÖYLER",
      "postal_code": "81752"
    },
    {
      "id": 23597,
      "district_id": 311,
      "name": "HIZARDERE KÖYÜ",
      "area": "MERKEZKÖYLER",
      "postal_code": "81752"
    },
    {
      "id": 23598,
      "district_id": 311,
      "name": "İSHAKLAR KÖYÜ",
      "area": "MERKEZKÖYLER",
      "postal_code": "81752"
    },
    {
      "id": 23599,
      "district_id": 311,
      "name": "KAFYAYLA KÖYÜ",
      "area": "MERKEZKÖYLER",
      "postal_code": "81752"
    },
    {
      "id": 23600,
      "district_id": 311,
      "name": "KANAL MAH (PIRPIR KÖYÜ)",
      "area": "MERKEZKÖYLER",
      "postal_code": "81752"
    },
    {
      "id": 23601,
      "district_id": 311,
      "name": "KARAÇÖRTLEN KÖYÜ",
      "area": "MERKEZKÖYLER",
      "postal_code": "81752"
    },
    {
      "id": 23602,
      "district_id": 311,
      "name": "KAVAKLIK MAH (KIRKHARMAN KÖYÜ)",
      "area": "MERKEZKÖYLER",
      "postal_code": "81752"
    },
    {
      "id": 23603,
      "district_id": 311,
      "name": "KİRAZTARLA KÖYÜ",
      "area": "MERKEZKÖYLER",
      "postal_code": "81752"
    },
    {
      "id": 23604,
      "district_id": 311,
      "name": "KOCAVELİLER MAH (PIRPIR KÖYÜ)",
      "area": "MERKEZKÖYLER",
      "postal_code": "81752"
    },
    {
      "id": 23605,
      "district_id": 311,
      "name": "KÜLTÜR MAH (PIRPIR KÖYÜ)",
      "area": "MERKEZKÖYLER",
      "postal_code": "81752"
    },
    {
      "id": 23606,
      "district_id": 311,
      "name": "KUŞOĞLU KÖYÜ",
      "area": "MERKEZKÖYLER",
      "postal_code": "81752"
    },
    {
      "id": 23607,
      "district_id": 311,
      "name": "MAHİRAĞA MAH",
      "area": "ÇİLİMLİ",
      "postal_code": "81750"
    },
    {
      "id": 23608,
      "district_id": 311,
      "name": "MERKEZ MAH (ALACAMESCİT KÖYÜ)",
      "area": "MERKEZKÖYLER",
      "postal_code": "81752"
    },
    {
      "id": 23609,
      "district_id": 311,
      "name": "MERKEZ MAH (DİKMELİ KÖYÜ)",
      "area": "MERKEZKÖYLER",
      "postal_code": "81752"
    },
    {
      "id": 23610,
      "district_id": 311,
      "name": "MERKEZ MAH (KIRKHARMAN KÖYÜ)",
      "area": "MERKEZKÖYLER",
      "postal_code": "81752"
    },
    {
      "id": 23611,
      "district_id": 311,
      "name": "MERKEZ MAH (YENİVAKIF KÖYÜ)",
      "area": "MERKEZKÖYLER",
      "postal_code": "81752"
    },
    {
      "id": 23612,
      "district_id": 311,
      "name": "ÖMERCİKLER MAH (PIRPIR KÖYÜ)",
      "area": "MERKEZKÖYLER",
      "postal_code": "81752"
    },
    {
      "id": 23613,
      "district_id": 311,
      "name": "ORMAN MAH (ALACAMESCİT KÖYÜ)",
      "area": "MERKEZKÖYLER",
      "postal_code": "81752"
    },
    {
      "id": 23614,
      "district_id": 311,
      "name": "ORTA MAH (PIRPIR KÖYÜ)",
      "area": "MERKEZKÖYLER",
      "postal_code": "81752"
    },
    {
      "id": 23615,
      "district_id": 311,
      "name": "SARIMEŞE KÖYÜ",
      "area": "MERKEZKÖYLER",
      "postal_code": "81752"
    },
    {
      "id": 23616,
      "district_id": 311,
      "name": "ŞEREFİYE MAH",
      "area": "ÇİLİMLİ",
      "postal_code": "81750"
    },
    {
      "id": 23617,
      "district_id": 311,
      "name": "SÖĞÜTLÜ MAH (SÖĞÜTLÜ KÖYÜ)",
      "area": "MERKEZKÖYLER",
      "postal_code": "81752"
    },
    {
      "id": 23618,
      "district_id": 311,
      "name": "TEPEKÖY KÖYÜ",
      "area": "MERKEZKÖYLER",
      "postal_code": "81752"
    },
    {
      "id": 23619,
      "district_id": 311,
      "name": "TOPÇULAR MAH",
      "area": "ÇİLİMLİ",
      "postal_code": "81750"
    },
    {
      "id": 23620,
      "district_id": 311,
      "name": "ULUCAMİ MAH",
      "area": "ÇİLİMLİ",
      "postal_code": "81750"
    },
    {
      "id": 23621,
      "district_id": 311,
      "name": "YENİ MAH (YENİVAKIF KÖYÜ)",
      "area": "MERKEZKÖYLER",
      "postal_code": "81752"
    },
    {
      "id": 23622,
      "district_id": 311,
      "name": "YENİKÖY KÖYÜ",
      "area": "MERKEZKÖYLER",
      "postal_code": "81752"
    },
    {
      "id": 23623,
      "district_id": 311,
      "name": "YEŞİL MAH",
      "area": "ÇİLİMLİ",
      "postal_code": "81750"
    },
    {
      "id": 23624,
      "district_id": 311,
      "name": "YEŞİLTEPE MAH",
      "area": "ÇİLİMLİ",
      "postal_code": "81750"
    },
    {
      "id": 23625,
      "district_id": 311,
      "name": "YUKARIKARAKÖY KÖYÜ",
      "area": "MERKEZKÖYLER",
      "postal_code": "81752"
    },
    {
      "id": 23626,
      "district_id": 311,
      "name": "YUKARIKÖY MAH (KIRKHARMAN KÖYÜ)",
      "area": "MERKEZKÖYLER",
      "postal_code": "81752"
    },
    {
      "id": 23627,
      "district_id": 312,
      "name": "AÇMA MAH",
      "area": "GÖLYAKA",
      "postal_code": "81800"
    },
    {
      "id": 23628,
      "district_id": 312,
      "name": "AKSU KÖYÜ",
      "area": "MERKEZ KÖYLER",
      "postal_code": "81802"
    },
    {
      "id": 23629,
      "district_id": 312,
      "name": "ALBAYRAK MAH (SAÇMALIPINAR KÖYÜ)",
      "area": "MERKEZ KÖYLER",
      "postal_code": "81802"
    },
    {
      "id": 23630,
      "district_id": 312,
      "name": "ALT MAH (BEKİROĞLU KÖYÜ)",
      "area": "MERKEZ KÖYLER",
      "postal_code": "81802"
    },
    {
      "id": 23631,
      "district_id": 312,
      "name": "BAKACAK KÖYÜ",
      "area": "MERKEZ KÖYLER",
      "postal_code": "81802"
    },
    {
      "id": 23632,
      "district_id": 312,
      "name": "BALKAYA MAH (SAÇMALIPINAR KÖYÜ)",
      "area": "MERKEZ KÖYLER",
      "postal_code": "81802"
    },
    {
      "id": 23633,
      "district_id": 312,
      "name": "BIÇKI MAH (SAÇMALIPINAR KÖYÜ)",
      "area": "MERKEZ KÖYLER",
      "postal_code": "81802"
    },
    {
      "id": 23634,
      "district_id": 312,
      "name": "ÇAY KÖYÜ",
      "area": "MERKEZ KÖYLER",
      "postal_code": "81802"
    },
    {
      "id": 23635,
      "district_id": 312,
      "name": "CEVİZLİK MAH (HAMAMÜSTÜ KÖYÜ)",
      "area": "MERKEZ KÖYLER",
      "postal_code": "81802"
    },
    {
      "id": 23636,
      "district_id": 312,
      "name": "CİNO MAH (YUNUSEFENDİ KÖYÜ)",
      "area": "MERKEZ KÖYLER",
      "postal_code": "81802"
    },
    {
      "id": 23637,
      "district_id": 312,
      "name": "CUMAKIRI MAH",
      "area": "GÖLYAKA",
      "postal_code": "81800"
    },
    {
      "id": 23638,
      "district_id": 312,
      "name": "DELİ MEHMET MAH (GÜZELDERE KÖYÜ)",
      "area": "MERKEZ KÖYLER",
      "postal_code": "81802"
    },
    {
      "id": 23639,
      "district_id": 312,
      "name": "DELİHÜSEYİN MAH (DEĞİRMENTEPE KÖYÜ)",
      "area": "MERKEZ KÖYLER",
      "postal_code": "81802"
    },
    {
      "id": 23640,
      "district_id": 312,
      "name": "DERE MAH (ÇAMLIBEL KÖYÜ)",
      "area": "MERKEZ KÖYLER",
      "postal_code": "81802"
    },
    {
      "id": 23641,
      "district_id": 312,
      "name": "DERE MAH (HAMAMÜSTÜ KÖYÜ)",
      "area": "MERKEZ KÖYLER",
      "postal_code": "81802"
    },
    {
      "id": 23642,
      "district_id": 312,
      "name": "DURSUNLU MAH (DEĞİRMENTEPE KÖYÜ)",
      "area": "MERKEZ KÖYLER",
      "postal_code": "81802"
    },
    {
      "id": 23643,
      "district_id": 312,
      "name": "ESEN MAH",
      "area": "GÖLYAKA",
      "postal_code": "81800"
    },
    {
      "id": 23644,
      "district_id": 312,
      "name": "FATİH MAH",
      "area": "GÖLYAKA",
      "postal_code": "81800"
    },
    {
      "id": 23645,
      "district_id": 312,
      "name": "GÖKÇEDERE KÖYÜ",
      "area": "MERKEZ KÖYLER",
      "postal_code": "81802"
    },
    {
      "id": 23646,
      "district_id": 312,
      "name": "GÖLCÜK MAH (HAMAMÜSTÜ KÖYÜ)",
      "area": "MERKEZ KÖYLER",
      "postal_code": "81802"
    },
    {
      "id": 23647,
      "district_id": 312,
      "name": "GÜNEY MAH (SAÇMALIPINAR KÖYÜ)",
      "area": "MERKEZ KÖYLER",
      "postal_code": "81802"
    },
    {
      "id": 23648,
      "district_id": 312,
      "name": "GÜZELDERE KÖYÜ",
      "area": "MERKEZ KÖYLER",
      "postal_code": "81802"
    },
    {
      "id": 23649,
      "district_id": 312,
      "name": "HACIOĞLU MAH (BEKİROĞLU KÖYÜ)",
      "area": "MERKEZ KÖYLER",
      "postal_code": "81802"
    },
    {
      "id": 23650,
      "district_id": 312,
      "name": "HACISÜLEYMANBEY KÖYÜ",
      "area": "MERKEZ KÖYLER",
      "postal_code": "81802"
    },
    {
      "id": 23651,
      "district_id": 312,
      "name": "HACIYAKUP KÖYÜ",
      "area": "MERKEZ KÖYLER",
      "postal_code": "81802"
    },
    {
      "id": 23652,
      "district_id": 312,
      "name": "İÇMELER MAH",
      "area": "MERKEZ KÖYLER",
      "postal_code": "81802"
    },
    {
      "id": 23653,
      "district_id": 312,
      "name": "İMAMLAR MAH",
      "area": "GÖLYAKA",
      "postal_code": "81800"
    },
    {
      "id": 23654,
      "district_id": 312,
      "name": "KARACA MAH (ÇAMLIBEL KÖYÜ)",
      "area": "MERKEZ KÖYLER",
      "postal_code": "81802"
    },
    {
      "id": 23655,
      "district_id": 312,
      "name": "KARAMAHMUT MAH (SAÇMALIPINAR KÖYÜ)",
      "area": "MERKEZ KÖYLER",
      "postal_code": "81802"
    },
    {
      "id": 23656,
      "district_id": 312,
      "name": "KEMERYANI KÖYÜ",
      "area": "MERKEZ KÖYLER",
      "postal_code": "81802"
    },
    {
      "id": 23657,
      "district_id": 312,
      "name": "KIRAN MAH (SAÇMALIPINAR KÖYÜ)",
      "area": "MERKEZ KÖYLER",
      "postal_code": "81802"
    },
    {
      "id": 23658,
      "district_id": 312,
      "name": "KIZILCIK MAH (DEĞİRMENTEPE KÖYÜ)",
      "area": "MERKEZ KÖYLER",
      "postal_code": "81802"
    },
    {
      "id": 23659,
      "district_id": 312,
      "name": "KÜLTÜR MAH",
      "area": "GÖLYAKA",
      "postal_code": "81800"
    },
    {
      "id": 23660,
      "district_id": 312,
      "name": "KUM MAH (BEKİROĞLU KÖYÜ)",
      "area": "MERKEZ KÖYLER",
      "postal_code": "81802"
    },
    {
      "id": 23661,
      "district_id": 312,
      "name": "KURTDÜZÜ MAH (SAÇMALIPINAR KÖYÜ)",
      "area": "MERKEZ KÖYLER",
      "postal_code": "81802"
    },
    {
      "id": 23662,
      "district_id": 312,
      "name": "KUYUDÜZÜ MAH",
      "area": "GÖLYAKA",
      "postal_code": "81800"
    },
    {
      "id": 23663,
      "district_id": 312,
      "name": "MERKEZ MAH (BEKİROĞLU KÖYÜ)",
      "area": "MERKEZ KÖYLER",
      "postal_code": "81802"
    },
    {
      "id": 23664,
      "district_id": 312,
      "name": "MERKEZ MAH (ÇAMLIBEL KÖYÜ)",
      "area": "MERKEZ KÖYLER",
      "postal_code": "81802"
    },
    {
      "id": 23665,
      "district_id": 312,
      "name": "MERKEZ MAH (DEĞİRMENTEPE KÖYÜ)",
      "area": "MERKEZ KÖYLER",
      "postal_code": "81802"
    },
    {
      "id": 23666,
      "district_id": 312,
      "name": "MERKEZ MAH (HAMAMÜSTÜ KÖYÜ)",
      "area": "MERKEZ KÖYLER",
      "postal_code": "81802"
    },
    {
      "id": 23667,
      "district_id": 312,
      "name": "MERKEZ MAH (YUNUSEFENDİ KÖYÜ)",
      "area": "MERKEZ KÖYLER",
      "postal_code": "81802"
    },
    {
      "id": 23668,
      "district_id": 312,
      "name": "MUHAPDEDE KÖYÜ",
      "area": "MERKEZ KÖYLER",
      "postal_code": "81802"
    },
    {
      "id": 23669,
      "district_id": 312,
      "name": "ORTA MAH (HAMAMÜSTÜ KÖYÜ)",
      "area": "MERKEZ KÖYLER",
      "postal_code": "81802"
    },
    {
      "id": 23670,
      "district_id": 312,
      "name": "ORTA MAH (SAÇMALIPINAR KÖYÜ)",
      "area": "MERKEZ KÖYLER",
      "postal_code": "81802"
    },
    {
      "id": 23671,
      "district_id": 312,
      "name": "SARIDERE KÖYÜ",
      "area": "MERKEZ KÖYLER",
      "postal_code": "81802"
    },
    {
      "id": 23672,
      "district_id": 312,
      "name": "ŞİMŞİRLİTEPE MAH (SAÇMALIPINAR KÖYÜ)",
      "area": "MERKEZ KÖYLER",
      "postal_code": "81802"
    },
    {
      "id": 23673,
      "district_id": 312,
      "name": "TAŞLIK KÖYÜ",
      "area": "MERKEZ KÖYLER",
      "postal_code": "81802"
    },
    {
      "id": 23674,
      "district_id": 312,
      "name": "YANIK 1 MAH (SAÇMALIPINAR KÖYÜ)",
      "area": "MERKEZ KÖYLER",
      "postal_code": "81802"
    },
    {
      "id": 23675,
      "district_id": 312,
      "name": "YANIK 2 MAH (SAÇMALIPINAR KÖYÜ)",
      "area": "MERKEZ KÖYLER",
      "postal_code": "81802"
    },
    {
      "id": 23676,
      "district_id": 312,
      "name": "YAZIPINAR MAH",
      "area": "GÖLYAKA",
      "postal_code": "81800"
    },
    {
      "id": 23677,
      "district_id": 312,
      "name": "YAZLIK MAH",
      "area": "MERKEZ KÖYLER",
      "postal_code": "81802"
    },
    {
      "id": 23678,
      "district_id": 312,
      "name": "YENİ MAH",
      "area": "GÖLYAKA",
      "postal_code": "81800"
    },
    {
      "id": 23679,
      "district_id": 312,
      "name": "YENİ MAH (SAÇMALIPINAR KÖYÜ)",
      "area": "MERKEZ KÖYLER",
      "postal_code": "81802"
    },
    {
      "id": 23680,
      "district_id": 312,
      "name": "YEŞİL MAH",
      "area": "GÖLYAKA",
      "postal_code": "81800"
    },
    {
      "id": 23681,
      "district_id": 312,
      "name": "YEŞİLOVA KÖYÜ",
      "area": "MERKEZ KÖYLER",
      "postal_code": "81802"
    },
    {
      "id": 23682,
      "district_id": 312,
      "name": "ZEKERİYA KÖYÜ",
      "area": "MERKEZ KÖYLER",
      "postal_code": "81802"
    },
    {
      "id": 23683,
      "district_id": 313,
      "name": "ADAKÖY KÖYÜ",
      "area": "MERKEZKÖYLER",
      "postal_code": "81852"
    },
    {
      "id": 23684,
      "district_id": 313,
      "name": "ADAKÖYÜ MAH (ADAKÖY KÖYÜ)",
      "area": "MERKEZKÖYLER",
      "postal_code": "81852"
    },
    {
      "id": 23685,
      "district_id": 313,
      "name": "ARDIÇDİBİ KÖYÜ",
      "area": "MERKEZKÖYLER",
      "postal_code": "81852"
    },
    {
      "id": 23686,
      "district_id": 313,
      "name": "ÇAYBÜKÜ KÖYÜ",
      "area": "MERKEZKÖYLER",
      "postal_code": "81852"
    },
    {
      "id": 23687,
      "district_id": 313,
      "name": "ÇAYBÜKÜ MAH (ÇAYBÜKÜ KÖYÜ)",
      "area": "MERKEZKÖYLER",
      "postal_code": "81852"
    },
    {
      "id": 23688,
      "district_id": 313,
      "name": "DEDEDÜZÜ KÖYÜ",
      "area": "MERKEZKÖYLER",
      "postal_code": "81852"
    },
    {
      "id": 23689,
      "district_id": 313,
      "name": "DEREKÖY KÖYÜ",
      "area": "MERKEZKÖYLER",
      "postal_code": "81852"
    },
    {
      "id": 23690,
      "district_id": 313,
      "name": "ELMACIK KÖYÜ",
      "area": "MERKEZKÖYLER",
      "postal_code": "81852"
    },
    {
      "id": 23691,
      "district_id": 313,
      "name": "FATİH MAH",
      "area": "GÜMÜŞOVA",
      "postal_code": "81850"
    },
    {
      "id": 23692,
      "district_id": 313,
      "name": "HACIKADİRLER KÖYÜ",
      "area": "MERKEZKÖYLER",
      "postal_code": "81852"
    },
    {
      "id": 23693,
      "district_id": 313,
      "name": "HACIKADİRLER MAH (HACIKADİRLER KÖYÜ)",
      "area": "MERKEZKÖYLER",
      "postal_code": "81852"
    },
    {
      "id": 23694,
      "district_id": 313,
      "name": "HACILAR MAH",
      "area": "GÜMÜŞOVA",
      "postal_code": "81850"
    },
    {
      "id": 23695,
      "district_id": 313,
      "name": "HALİLBEY KÖYÜ",
      "area": "MERKEZKÖYLER",
      "postal_code": "81852"
    },
    {
      "id": 23696,
      "district_id": 313,
      "name": "KAHVELERYANI KÖYÜ",
      "area": "MERKEZKÖYLER",
      "postal_code": "81852"
    },
    {
      "id": 23697,
      "district_id": 313,
      "name": "KAHVELERYANI MAH (KAHVELERYANI KÖYÜ)",
      "area": "MERKEZKÖYLER",
      "postal_code": "81852"
    },
    {
      "id": 23698,
      "district_id": 313,
      "name": "KIŞLA MAH",
      "area": "GÜMÜŞOVA",
      "postal_code": "81850"
    },
    {
      "id": 23699,
      "district_id": 313,
      "name": "KIYIKÖY KÖYÜ",
      "area": "MERKEZKÖYLER",
      "postal_code": "81852"
    },
    {
      "id": 23700,
      "district_id": 313,
      "name": "KÜLTÜR MAH",
      "area": "GÜMÜŞOVA",
      "postal_code": "81850"
    },
    {
      "id": 23701,
      "district_id": 313,
      "name": "MERKEZ MAH",
      "area": "GÜMÜŞOVA",
      "postal_code": "81850"
    },
    {
      "id": 23702,
      "district_id": 313,
      "name": "PAZARCIK KÖYÜ",
      "area": "MERKEZKÖYLER",
      "postal_code": "81852"
    },
    {
      "id": 23703,
      "district_id": 313,
      "name": "SELAMLAR MAH (SELAMLAR KÖYÜ)",
      "area": "MERKEZKÖYLER",
      "postal_code": "81852"
    },
    {
      "id": 23704,
      "district_id": 313,
      "name": "SOĞUKSU KÖYÜ",
      "area": "MERKEZKÖYLER",
      "postal_code": "81852"
    },
    {
      "id": 23705,
      "district_id": 313,
      "name": "SULTANİYE KÖYÜ",
      "area": "MERKEZKÖYLER",
      "postal_code": "81852"
    },
    {
      "id": 23706,
      "district_id": 313,
      "name": "YAKABAŞI KÖYÜ",
      "area": "MERKEZKÖYLER",
      "postal_code": "81852"
    },
    {
      "id": 23707,
      "district_id": 313,
      "name": "YAKABAŞI MAH (YAKABAŞI KÖYÜ)",
      "area": "MERKEZKÖYLER",
      "postal_code": "81852"
    },
    {
      "id": 23708,
      "district_id": 313,
      "name": "YENİ MAH",
      "area": "GÜMÜŞOVA",
      "postal_code": "81850"
    },
    {
      "id": 23709,
      "district_id": 313,
      "name": "YEŞİLYAYLA KÖYÜ",
      "area": "MERKEZKÖYLER",
      "postal_code": "81852"
    },
    {
      "id": 23710,
      "district_id": 313,
      "name": "YILDIZTEPE KÖYÜ",
      "area": "MERKEZKÖYLER",
      "postal_code": "81852"
    },
    {
      "id": 23711,
      "district_id": 313,
      "name": "YONGALIK KÖYÜ",
      "area": "MERKEZKÖYLER",
      "postal_code": "81852"
    },
    {
      "id": 23712,
      "district_id": 314,
      "name": "28 EVLER MAH (DARIYERİ YÖRÜKLER KÖYÜ)",
      "area": "MERKEZKÖYLER",
      "postal_code": "81902"
    },
    {
      "id": 23713,
      "district_id": 314,
      "name": "ALT MAH (ÇATALÇAM KÖYÜ)",
      "area": "MERKEZKÖYLER",
      "postal_code": "81902"
    },
    {
      "id": 23714,
      "district_id": 314,
      "name": "ALT MAH (HACIAZİZLER KÖYÜ)",
      "area": "MERKEZKÖYLER",
      "postal_code": "81902"
    },
    {
      "id": 23715,
      "district_id": 314,
      "name": "BAŞYAZICIOĞLU DAĞ EVLERİ MAH (DARIYERİBAKACAK KÖYÜ)",
      "area": "MERKEZKÖYLER",
      "postal_code": "81902"
    },
    {
      "id": 23716,
      "district_id": 314,
      "name": "BEKTAŞLI MAH (BIÇKIYANI KÖYÜ)",
      "area": "MERKEZKÖYLER",
      "postal_code": "81902"
    },
    {
      "id": 23717,
      "district_id": 314,
      "name": "BÜLBÜLDERE MAH (ÇAMOLUK KÖYÜ)",
      "area": "MERKEZKÖYLER",
      "postal_code": "81902"
    },
    {
      "id": 23718,
      "district_id": 314,
      "name": "ÇAKIRSAYVAN KÖYÜ",
      "area": "MERKEZKÖYLER",
      "postal_code": "81902"
    },
    {
      "id": 23719,
      "district_id": 314,
      "name": "ÇAMLIK MAH (ÇATALÇAM KÖYÜ)",
      "area": "MERKEZKÖYLER",
      "postal_code": "81902"
    },
    {
      "id": 23720,
      "district_id": 314,
      "name": "ÇAYKARA MAH (YEŞİLTEPE KÖYÜ)",
      "area": "MERKEZKÖYLER",
      "postal_code": "81902"
    },
    {
      "id": 23721,
      "district_id": 314,
      "name": "ÇELE MAH",
      "area": "KAYNAŞLI",
      "postal_code": "81900"
    },
    {
      "id": 23722,
      "district_id": 314,
      "name": "ÇİLLİOĞLU MAH (SARIÇÖKEK KÖYÜ)",
      "area": "MERKEZKÖYLER",
      "postal_code": "81902"
    },
    {
      "id": 23723,
      "district_id": 314,
      "name": "ÇİMENLİKORULUK MAH (TAVAK KÖYÜ)",
      "area": "MERKEZKÖYLER",
      "postal_code": "81902"
    },
    {
      "id": 23724,
      "district_id": 314,
      "name": "D-100 BOLUDAĞI KARAYOLU MAH (DARIYERİBAKACAK KÖYÜ)",
      "area": "MERKEZKÖYLER",
      "postal_code": "81902"
    },
    {
      "id": 23725,
      "district_id": 314,
      "name": "D-100 KARAYOLU MAH (DARIYERİHASANBEY KÖYÜ)",
      "area": "MERKEZKÖYLER",
      "postal_code": "81902"
    },
    {
      "id": 23726,
      "district_id": 314,
      "name": "DEGİRMENYANI MAH (SARIÇÖKEK KÖYÜ)",
      "area": "MERKEZKÖYLER",
      "postal_code": "81902"
    },
    {
      "id": 23727,
      "district_id": 314,
      "name": "DERE MAH (ÇAMLICA KÖYÜ)",
      "area": "MERKEZKÖYLER",
      "postal_code": "81902"
    },
    {
      "id": 23728,
      "district_id": 314,
      "name": "DERE MAH (DİPSİZGÖL KÖYÜ)",
      "area": "MERKEZKÖYLER",
      "postal_code": "81902"
    },
    {
      "id": 23729,
      "district_id": 314,
      "name": "DEREBOYU MAH (DARIYERİHASANBEY KÖYÜ)",
      "area": "MERKEZKÖYLER",
      "postal_code": "81902"
    },
    {
      "id": 23730,
      "district_id": 314,
      "name": "DİP MAH (DARIYERİHASANBEY KÖYÜ)",
      "area": "MERKEZKÖYLER",
      "postal_code": "81902"
    },
    {
      "id": 23731,
      "district_id": 314,
      "name": "DOĞANTEPE MAH (DİPSİZGÖL KÖYÜ)",
      "area": "MERKEZKÖYLER",
      "postal_code": "81902"
    },
    {
      "id": 23732,
      "district_id": 314,
      "name": "DÜZGÖSTEK MAH (YENİYURT KÖYÜ)",
      "area": "MERKEZKÖYLER",
      "postal_code": "81902"
    },
    {
      "id": 23733,
      "district_id": 314,
      "name": "DÜZORMANI MAH (SARIÇÖKEK KÖYÜ)",
      "area": "MERKEZKÖYLER",
      "postal_code": "81902"
    },
    {
      "id": 23734,
      "district_id": 314,
      "name": "EĞRELTİLİ MAH (YENİYURT KÖYÜ)",
      "area": "MERKEZKÖYLER",
      "postal_code": "81902"
    },
    {
      "id": 23735,
      "district_id": 314,
      "name": "ELMALI MAH (DARIYERİHASANBEY KÖYÜ)",
      "area": "MERKEZKÖYLER",
      "postal_code": "81902"
    },
    {
      "id": 23736,
      "district_id": 314,
      "name": "ESKİKÖY MAH",
      "area": "KAYNAŞLI",
      "postal_code": "81900"
    },
    {
      "id": 23737,
      "district_id": 314,
      "name": "FATİH MAH (ÜÇKÖPRÜ KÖYÜ)",
      "area": "MERKEZKÖYLER",
      "postal_code": "81902"
    },
    {
      "id": 23738,
      "district_id": 314,
      "name": "FENERBAHÇE MAH (ÜÇKÖPRÜ KÖYÜ)",
      "area": "MERKEZKÖYLER",
      "postal_code": "81902"
    },
    {
      "id": 23739,
      "district_id": 314,
      "name": "FINDIKLI KÖYÜ",
      "area": "MERKEZKÖYLER",
      "postal_code": "81902"
    },
    {
      "id": 23740,
      "district_id": 314,
      "name": "FINDIKLI MAH (ÇATALÇAM KÖYÜ)",
      "area": "MERKEZKÖYLER",
      "postal_code": "81902"
    },
    {
      "id": 23741,
      "district_id": 314,
      "name": "GÜLDERE MAH (DARIYERİHASANBEY KÖYÜ)",
      "area": "MERKEZKÖYLER",
      "postal_code": "81902"
    },
    {
      "id": 23742,
      "district_id": 314,
      "name": "GÜNEY MAH (SAZKÖY KÖYÜ)",
      "area": "MERKEZKÖYLER",
      "postal_code": "81902"
    },
    {
      "id": 23743,
      "district_id": 314,
      "name": "HACIMEHMET MAH (DARIYERİMENGENCİK KÖYÜ)",
      "area": "MERKEZKÖYLER",
      "postal_code": "81902"
    },
    {
      "id": 23744,
      "district_id": 314,
      "name": "HAMZALI MAH (BIÇKIYANI KÖYÜ)",
      "area": "MERKEZKÖYLER",
      "postal_code": "81902"
    },
    {
      "id": 23745,
      "district_id": 314,
      "name": "HENDANOĞLU MAH (DARIYERİHASANBEY KÖYÜ)",
      "area": "MERKEZKÖYLER",
      "postal_code": "81902"
    },
    {
      "id": 23746,
      "district_id": 314,
      "name": "İLHANLI MAH (YENİYURT KÖYÜ)",
      "area": "MERKEZKÖYLER",
      "postal_code": "81902"
    },
    {
      "id": 23747,
      "district_id": 314,
      "name": "KAHVECİ MAH (DARIYERİMENGENCİK KÖYÜ)",
      "area": "MERKEZKÖYLER",
      "postal_code": "81902"
    },
    {
      "id": 23748,
      "district_id": 314,
      "name": "KARAÇALI MAH",
      "area": "KAYNAŞLI",
      "postal_code": "81900"
    },
    {
      "id": 23749,
      "district_id": 314,
      "name": "KARŞI MAH (YENİYURT KÖYÜ)",
      "area": "MERKEZKÖYLER",
      "postal_code": "81902"
    },
    {
      "id": 23750,
      "district_id": 314,
      "name": "KOYTAKLI MAH (ÇAMLICA KÖYÜ)",
      "area": "MERKEZKÖYLER",
      "postal_code": "81902"
    },
    {
      "id": 23751,
      "district_id": 314,
      "name": "KÜLTÜR MAH (DİPSİZGÖL KÖYÜ)",
      "area": "MERKEZKÖYLER",
      "postal_code": "81902"
    },
    {
      "id": 23752,
      "district_id": 314,
      "name": "KULUBEYANI MAH (DARIYERİHASANBEY KÖYÜ)",
      "area": "MERKEZKÖYLER",
      "postal_code": "81902"
    },
    {
      "id": 23753,
      "district_id": 314,
      "name": "KUMLUCA MAH",
      "area": "KAYNAŞLI",
      "postal_code": "81900"
    },
    {
      "id": 23754,
      "district_id": 314,
      "name": "KUZUMLU MAH (BIÇKIYANI KÖYÜ)",
      "area": "MERKEZKÖYLER",
      "postal_code": "81902"
    },
    {
      "id": 23755,
      "district_id": 314,
      "name": "MEHMETPINAR MAH (YENİYURT KÖYÜ)",
      "area": "MERKEZKÖYLER",
      "postal_code": "81902"
    },
    {
      "id": 23756,
      "district_id": 314,
      "name": "MERKEZ MAH",
      "area": "KAYNAŞLI",
      "postal_code": "81900"
    },
    {
      "id": 23757,
      "district_id": 314,
      "name": "MERKEZ MAH (ALTUNKÖY KÖYÜ)",
      "area": "MERKEZKÖYLER",
      "postal_code": "81902"
    },
    {
      "id": 23758,
      "district_id": 314,
      "name": "MERKEZ MAH (BIÇKIYANI KÖYÜ)",
      "area": "MERKEZKÖYLER",
      "postal_code": "81902"
    },
    {
      "id": 23759,
      "district_id": 314,
      "name": "MERKEZ MAH (ÇAMLICA KÖYÜ)",
      "area": "MERKEZKÖYLER",
      "postal_code": "81902"
    },
    {
      "id": 23760,
      "district_id": 314,
      "name": "MERKEZ MAH (ÇAMOLUK KÖYÜ)",
      "area": "MERKEZKÖYLER",
      "postal_code": "81902"
    },
    {
      "id": 23761,
      "district_id": 314,
      "name": "MERKEZ MAH (ÇATALÇAM KÖYÜ)",
      "area": "MERKEZKÖYLER",
      "postal_code": "81902"
    },
    {
      "id": 23762,
      "district_id": 314,
      "name": "MERKEZ MAH (DARIYERİ YÖRÜKLER KÖYÜ)",
      "area": "MERKEZKÖYLER",
      "postal_code": "81902"
    },
    {
      "id": 23763,
      "district_id": 314,
      "name": "MERKEZ MAH (DARIYERİBAKACAK KÖYÜ)",
      "area": "MERKEZKÖYLER",
      "postal_code": "81902"
    },
    {
      "id": 23764,
      "district_id": 314,
      "name": "MERKEZ MAH (DARIYERİHASANBEY KÖYÜ)",
      "area": "MERKEZKÖYLER",
      "postal_code": "81902"
    },
    {
      "id": 23765,
      "district_id": 314,
      "name": "MERKEZ MAH (DARIYERİMENGENCİK KÖYÜ)",
      "area": "MERKEZKÖYLER",
      "postal_code": "81902"
    },
    {
      "id": 23766,
      "district_id": 314,
      "name": "MERKEZ MAH (DİPSİZGÖL KÖYÜ)",
      "area": "MERKEZKÖYLER",
      "postal_code": "81902"
    },
    {
      "id": 23767,
      "district_id": 314,
      "name": "MERKEZ MAH (HACIAZİZLER KÖYÜ)",
      "area": "MERKEZKÖYLER",
      "postal_code": "81902"
    },
    {
      "id": 23768,
      "district_id": 314,
      "name": "MERKEZ MAH (MURATBEY KÖYÜ)",
      "area": "MERKEZKÖYLER",
      "postal_code": "81902"
    },
    {
      "id": 23769,
      "district_id": 314,
      "name": "MERKEZ MAH (SARIÇÖKEK KÖYÜ)",
      "area": "MERKEZKÖYLER",
      "postal_code": "81902"
    },
    {
      "id": 23770,
      "district_id": 314,
      "name": "MERKEZ MAH (SAZKÖY KÖYÜ)",
      "area": "MERKEZKÖYLER",
      "postal_code": "81902"
    },
    {
      "id": 23771,
      "district_id": 314,
      "name": "MERKEZ MAH (TAVAK KÖYÜ)",
      "area": "MERKEZKÖYLER",
      "postal_code": "81902"
    },
    {
      "id": 23772,
      "district_id": 314,
      "name": "MERKEZ MAH (YENİYURT KÖYÜ)",
      "area": "MERKEZKÖYLER",
      "postal_code": "81902"
    },
    {
      "id": 23773,
      "district_id": 314,
      "name": "MERKEZ MAH (YEŞİLTEPE KÖYÜ)",
      "area": "MERKEZKÖYLER",
      "postal_code": "81902"
    },
    {
      "id": 23774,
      "district_id": 314,
      "name": "MERKEZYAYLA MAH (ALTUNKÖY KÖYÜ)",
      "area": "MERKEZKÖYLER",
      "postal_code": "81902"
    },
    {
      "id": 23775,
      "district_id": 314,
      "name": "MEŞELİK MAH (DARIYERİHASANBEY KÖYÜ)",
      "area": "MERKEZKÖYLER",
      "postal_code": "81902"
    },
    {
      "id": 23776,
      "district_id": 314,
      "name": "OFLU MAH (ALTUNKÖY KÖYÜ)",
      "area": "MERKEZKÖYLER",
      "postal_code": "81902"
    },
    {
      "id": 23777,
      "district_id": 314,
      "name": "ONBAŞI MAH (TAVAK KÖYÜ)",
      "area": "MERKEZKÖYLER",
      "postal_code": "81902"
    },
    {
      "id": 23778,
      "district_id": 314,
      "name": "ORTA MAH (DİPSİZGÖL KÖYÜ)",
      "area": "MERKEZKÖYLER",
      "postal_code": "81902"
    },
    {
      "id": 23779,
      "district_id": 314,
      "name": "ORTA MAH (HACIAZİZLER KÖYÜ)",
      "area": "MERKEZKÖYLER",
      "postal_code": "81902"
    },
    {
      "id": 23780,
      "district_id": 314,
      "name": "OSMANÇAVUŞ MAH (TAVAK KÖYÜ)",
      "area": "MERKEZKÖYLER",
      "postal_code": "81902"
    },
    {
      "id": 23781,
      "district_id": 314,
      "name": "ŞAFAK MAH (ÜÇKÖPRÜ KÖYÜ)",
      "area": "MERKEZKÖYLER",
      "postal_code": "81902"
    },
    {
      "id": 23782,
      "district_id": 314,
      "name": "SAĞLIK MAH (DİPSİZGÖL KÖYÜ)",
      "area": "MERKEZKÖYLER",
      "postal_code": "81902"
    },
    {
      "id": 23783,
      "district_id": 314,
      "name": "SARIYER MAH",
      "area": "KAYNAŞLI",
      "postal_code": "81900"
    },
    {
      "id": 23784,
      "district_id": 314,
      "name": "ŞEVKİ MAH (DARIYERİHASANBEY KÖYÜ)",
      "area": "MERKEZKÖYLER",
      "postal_code": "81902"
    },
    {
      "id": 23785,
      "district_id": 314,
      "name": "ŞİMŞİR MAH",
      "area": "KAYNAŞLI",
      "postal_code": "81900"
    },
    {
      "id": 23786,
      "district_id": 314,
      "name": "SİNEKLİ MAH (ÇAKIRSAYVAN KÖYÜ)",
      "area": "MERKEZKÖYLER",
      "postal_code": "81902"
    },
    {
      "id": 23787,
      "district_id": 314,
      "name": "ŞİRİNEVLER MAH (DARIYERİHASANBEY KÖYÜ)",
      "area": "MERKEZKÖYLER",
      "postal_code": "81902"
    },
    {
      "id": 23788,
      "district_id": 314,
      "name": "SOĞUKSU MAH (YEŞİLTEPE KÖYÜ)",
      "area": "MERKEZKÖYLER",
      "postal_code": "81902"
    },
    {
      "id": 23789,
      "district_id": 314,
      "name": "TAHTALIK MAH (SARIÇÖKEK KÖYÜ)",
      "area": "MERKEZKÖYLER",
      "postal_code": "81902"
    },
    {
      "id": 23790,
      "district_id": 314,
      "name": "TAŞALTI MAH (DARIYERİHASANBEY KÖYÜ)",
      "area": "MERKEZKÖYLER",
      "postal_code": "81902"
    },
    {
      "id": 23791,
      "district_id": 314,
      "name": "TEKİRSU MAH (DİPSİZGÖL KÖYÜ)",
      "area": "MERKEZKÖYLER",
      "postal_code": "81902"
    },
    {
      "id": 23792,
      "district_id": 314,
      "name": "TÜTEKYATAK MAH (YENİYURT KÖYÜ)",
      "area": "MERKEZKÖYLER",
      "postal_code": "81902"
    },
    {
      "id": 23793,
      "district_id": 314,
      "name": "UFUK MAH (ÜÇKÖPRÜ KÖYÜ)",
      "area": "MERKEZKÖYLER",
      "postal_code": "81902"
    },
    {
      "id": 23794,
      "district_id": 314,
      "name": "ÜST MAH (ÇATALÇAM KÖYÜ)",
      "area": "MERKEZKÖYLER",
      "postal_code": "81902"
    },
    {
      "id": 23795,
      "district_id": 314,
      "name": "VELİOĞLU ALİOSMAN MAH (MURATBEY KÖYÜ)",
      "area": "MERKEZKÖYLER",
      "postal_code": "81902"
    },
    {
      "id": 23796,
      "district_id": 314,
      "name": "VEYSELUSTA MAH (TAVAK KÖYÜ)",
      "area": "MERKEZKÖYLER",
      "postal_code": "81902"
    },
    {
      "id": 23797,
      "district_id": 314,
      "name": "YAĞCILAR BİLAL MAH (MURATBEY KÖYÜ)",
      "area": "MERKEZKÖYLER",
      "postal_code": "81902"
    },
    {
      "id": 23798,
      "district_id": 314,
      "name": "YENİDOĞAN MAH (ÜÇKÖPRÜ KÖYÜ)",
      "area": "MERKEZKÖYLER",
      "postal_code": "81902"
    },
    {
      "id": 23799,
      "district_id": 315,
      "name": "AÇMALAR MAH (ASAR KÖYÜ)",
      "area": "MERKEZKÖYLER",
      "postal_code": "81100"
    },
    {
      "id": 23800,
      "district_id": 315,
      "name": "AFANOĞLU MAH (YENİ AYNALI KÖYÜ)",
      "area": "MERKEZKÖYLER",
      "postal_code": "81100"
    },
    {
      "id": 23801,
      "district_id": 315,
      "name": "AĞAKÖYÜ MAH",
      "area": "ÇAY",
      "postal_code": "81020"
    },
    {
      "id": 23802,
      "district_id": 315,
      "name": "AKBIYIKLAR KÖYÜ",
      "area": "MERKEZKÖYLER",
      "postal_code": "81100"
    },
    {
      "id": 23803,
      "district_id": 315,
      "name": "AKINLAR MAH",
      "area": "HAMİDİYE",
      "postal_code": "81040"
    },
    {
      "id": 23804,
      "district_id": 315,
      "name": "AKPINAR MAH",
      "area": "KOÇYAZI",
      "postal_code": "81030"
    },
    {
      "id": 23805,
      "district_id": 315,
      "name": "AKTARLA KÖYÜ",
      "area": "MERKEZKÖYLER",
      "postal_code": "81100"
    },
    {
      "id": 23806,
      "district_id": 315,
      "name": "AKYAZI MAH",
      "area": "MERKEZKÖYLER",
      "postal_code": "81100"
    },
    {
      "id": 23807,
      "district_id": 315,
      "name": "ALAÇAM MAH (DERDİN KÖYÜ)",
      "area": "MERKEZKÖYLER",
      "postal_code": "81100"
    },
    {
      "id": 23808,
      "district_id": 315,
      "name": "ALTINPINAR KÖYÜ",
      "area": "MERKEZKÖYLER",
      "postal_code": "81100"
    },
    {
      "id": 23809,
      "district_id": 315,
      "name": "ARAPÇİFTLİĞİ MAH",
      "area": "HAMİDİYE",
      "postal_code": "81040"
    },
    {
      "id": 23810,
      "district_id": 315,
      "name": "AŞAĞI MAH (YÖRÜK KÖYÜ)",
      "area": "MERKEZKÖYLER",
      "postal_code": "81100"
    },
    {
      "id": 23811,
      "district_id": 315,
      "name": "AYNALI KÖYÜ",
      "area": "MERKEZKÖYLER",
      "postal_code": "81100"
    },
    {
      "id": 23812,
      "district_id": 315,
      "name": "AZİZİYE MAH",
      "area": "CEDİDİYE",
      "postal_code": "81010"
    },
    {
      "id": 23813,
      "district_id": 315,
      "name": "AZMİMİLLİ MAH",
      "area": "ÇAY",
      "postal_code": "81020"
    },
    {
      "id": 23814,
      "district_id": 315,
      "name": "BAHÇELİEVLER MAH",
      "area": "BAHÇEŞEHİR",
      "postal_code": "81630"
    },
    {
      "id": 23815,
      "district_id": 315,
      "name": "BAHÇELİEVLER MAH (DERDİN KÖYÜ)",
      "area": "MERKEZKÖYLER",
      "postal_code": "81100"
    },
    {
      "id": 23816,
      "district_id": 315,
      "name": "BALLAR MAH (BOĞAZİÇİ BELDESİ)",
      "area": "BOĞAZİÇİ",
      "postal_code": "81610"
    },
    {
      "id": 23817,
      "district_id": 315,
      "name": "BATAKLI ÇİFTLİK KÖYÜ",
      "area": "MERKEZKÖYLER",
      "postal_code": "81100"
    },
    {
      "id": 23818,
      "district_id": 315,
      "name": "BEYCİLER MAH",
      "area": "KOÇYAZI",
      "postal_code": "81030"
    },
    {
      "id": 23819,
      "district_id": 315,
      "name": "BEYTEPE MAH (BEYKÖY BELDESİ)",
      "area": "BEYKÖY",
      "postal_code": "81600"
    },
    {
      "id": 23820,
      "district_id": 315,
      "name": "BOSTANLIK KÖYÜ",
      "area": "MERKEZKÖYLER",
      "postal_code": "81100"
    },
    {
      "id": 23821,
      "district_id": 315,
      "name": "BUCAKKURULU MAH (SAMANDERE KÖYÜ)",
      "area": "MERKEZKÖYLER",
      "postal_code": "81100"
    },
    {
      "id": 23822,
      "district_id": 315,
      "name": "BÜK MAH (ÇINARDÜZÜ KÖYÜ)",
      "area": "MERKEZKÖYLER",
      "postal_code": "81100"
    },
    {
      "id": 23823,
      "district_id": 315,
      "name": "BURHANİYE MAH",
      "area": "CEDİDİYE",
      "postal_code": "81010"
    },
    {
      "id": 23824,
      "district_id": 315,
      "name": "BÜYÜKAÇMA KÖYÜ",
      "area": "BEYKÖY",
      "postal_code": "81600"
    },
    {
      "id": 23825,
      "district_id": 315,
      "name": "ÇAKIRHACI İBRAHİM KÖYÜ",
      "area": "MERKEZKÖYLER",
      "postal_code": "81100"
    },
    {
      "id": 23826,
      "district_id": 315,
      "name": "ÇAKIRLAR MAH",
      "area": "BAHÇEŞEHİR",
      "postal_code": "81630"
    },
    {
      "id": 23827,
      "district_id": 315,
      "name": "ÇAKMANLAR MAH (SİNİRCİ KÖYÜ)",
      "area": "MERKEZKÖYLER",
      "postal_code": "81100"
    },
    {
      "id": 23828,
      "district_id": 315,
      "name": "ÇALICUMA KÖYÜ",
      "area": "BEYKÖY",
      "postal_code": "81600"
    },
    {
      "id": 23829,
      "district_id": 315,
      "name": "ÇAM MAH (ESKİ MENGENCİK KÖYÜ)",
      "area": "MERKEZKÖYLER",
      "postal_code": "81100"
    },
    {
      "id": 23830,
      "district_id": 315,
      "name": "CAMİKEBİR MAH",
      "area": "CEDİDİYE",
      "postal_code": "81010"
    },
    {
      "id": 23831,
      "district_id": 315,
      "name": "ÇAMKÖY MAH",
      "area": "HAMİDİYE",
      "postal_code": "81040"
    },
    {
      "id": 23832,
      "district_id": 315,
      "name": "ÇAMLIEVLER MAH",
      "area": "BAHÇEŞEHİR",
      "postal_code": "81630"
    },
    {
      "id": 23833,
      "district_id": 315,
      "name": "ÇAMLIK MAH (UĞUR KÖYÜ)",
      "area": "MERKEZKÖYLER",
      "postal_code": "81100"
    },
    {
      "id": 23834,
      "district_id": 315,
      "name": "ÇAMLISU KÖYÜ",
      "area": "MERKEZKÖYLER",
      "postal_code": "81100"
    },
    {
      "id": 23835,
      "district_id": 315,
      "name": "ÇAVUŞLAR MAH",
      "area": "KOÇYAZI",
      "postal_code": "81030"
    },
    {
      "id": 23836,
      "district_id": 315,
      "name": "ÇAY MAH",
      "area": "ÇAY",
      "postal_code": "81020"
    },
    {
      "id": 23837,
      "district_id": 315,
      "name": "ÇAYIRBAŞI MAH (NASIRLI KÖYÜ)",
      "area": "MERKEZKÖYLER",
      "postal_code": "81100"
    },
    {
      "id": 23838,
      "district_id": 315,
      "name": "ÇAYIRTARLA MAH (BOĞAZİÇİ BELDESİ)",
      "area": "BOĞAZİÇİ",
      "postal_code": "81610"
    },
    {
      "id": 23839,
      "district_id": 315,
      "name": "CEDİDİYE MAH",
      "area": "CEDİDİYE",
      "postal_code": "81010"
    },
    {
      "id": 23840,
      "district_id": 315,
      "name": "ÇİÇEK MAH (İSTİLLİ KÖYÜ)",
      "area": "MERKEZKÖYLER",
      "postal_code": "81100"
    },
    {
      "id": 23841,
      "district_id": 315,
      "name": "ÇİFTEPINARLAR MAH",
      "area": "KONURALP",
      "postal_code": "81620"
    },
    {
      "id": 23842,
      "district_id": 315,
      "name": "ÇİFTLİK KÖYÜ",
      "area": "MERKEZKÖYLER",
      "postal_code": "81100"
    },
    {
      "id": 23843,
      "district_id": 315,
      "name": "ÇİMEN MAH (YENİ TAŞKÖPRÜ KÖYÜ)",
      "area": "MERKEZKÖYLER",
      "postal_code": "81100"
    },
    {
      "id": 23844,
      "district_id": 315,
      "name": "ÇINARLI KÖYÜ",
      "area": "MERKEZKÖYLER",
      "postal_code": "81100"
    },
    {
      "id": 23845,
      "district_id": 315,
      "name": "ÇOBANOĞLU MAH (YENİ AYNALI KÖYÜ)",
      "area": "MERKEZKÖYLER",
      "postal_code": "81100"
    },
    {
      "id": 23846,
      "district_id": 315,
      "name": "ÇORAK MAH (KAYMAKÇI KÖYÜ)",
      "area": "MERKEZKÖYLER",
      "postal_code": "81100"
    },
    {
      "id": 23847,
      "district_id": 315,
      "name": "ÇORAK MAH (UĞUR KÖYÜ)",
      "area": "MERKEZKÖYLER",
      "postal_code": "81100"
    },
    {
      "id": 23848,
      "district_id": 315,
      "name": "CUMA MAH (AYDINPINAR KÖYÜ)",
      "area": "MERKEZKÖYLER",
      "postal_code": "81100"
    },
    {
      "id": 23849,
      "district_id": 315,
      "name": "CUMHURİYET MAH",
      "area": "KOÇYAZI",
      "postal_code": "81030"
    },
    {
      "id": 23850,
      "district_id": 315,
      "name": "CUMHURİYET MAH (BEYKÖY BELDESİ)",
      "area": "BEYKÖY",
      "postal_code": "81600"
    },
    {
      "id": 23851,
      "district_id": 315,
      "name": "CUMHURİYET MAH (ÜÇYOL KÖYÜ)",
      "area": "MERKEZKÖYLER",
      "postal_code": "81100"
    },
    {
      "id": 23852,
      "district_id": 315,
      "name": "CUMHURİYET OSB2 MAH (BEYKÖY BELDESİ)",
      "area": "BEYKÖY",
      "postal_code": "81600"
    },
    {
      "id": 23853,
      "district_id": 315,
      "name": "DARICI MAH",
      "area": "ÇAY",
      "postal_code": "81020"
    },
    {
      "id": 23854,
      "district_id": 315,
      "name": "DEDELER MAH",
      "area": "KOÇYAZI",
      "postal_code": "81030"
    },
    {
      "id": 23855,
      "district_id": 315,
      "name": "DEĞİRMEN MAH (GÖLORMANI KÖYÜ)",
      "area": "MERKEZKÖYLER",
      "postal_code": "81100"
    },
    {
      "id": 23856,
      "district_id": 315,
      "name": "DEĞİRMENBAŞI MAH (BEYKÖY BELDESİ)",
      "area": "BEYKÖY",
      "postal_code": "81600"
    },
    {
      "id": 23857,
      "district_id": 315,
      "name": "DEĞİRMENÜSTÜ MAH (SAMANDERE KÖYÜ)",
      "area": "MERKEZKÖYLER",
      "postal_code": "81100"
    },
    {
      "id": 23858,
      "district_id": 315,
      "name": "DEMETEVLER MAH",
      "area": "BAHÇEŞEHİR",
      "postal_code": "81630"
    },
    {
      "id": 23859,
      "district_id": 315,
      "name": "DEMİRCİLER MAH (ASAR KÖYÜ)",
      "area": "MERKEZKÖYLER",
      "postal_code": "81100"
    },
    {
      "id": 23860,
      "district_id": 315,
      "name": "DEPO MAH (GÖLORMANI KÖYÜ)",
      "area": "MERKEZKÖYLER",
      "postal_code": "81100"
    },
    {
      "id": 23861,
      "district_id": 315,
      "name": "DERE MAH (DERDİN KÖYÜ)",
      "area": "MERKEZKÖYLER",
      "postal_code": "81100"
    },
    {
      "id": 23862,
      "district_id": 315,
      "name": "DERE MAH (KURTSUYU KÖYÜ)",
      "area": "MERKEZKÖYLER",
      "postal_code": "81100"
    },
    {
      "id": 23863,
      "district_id": 315,
      "name": "DERELİTÜTÜNCÜ MAH",
      "area": "KOÇYAZI",
      "postal_code": "81030"
    },
    {
      "id": 23864,
      "district_id": 315,
      "name": "DEVELİ BESNİ KÖYÜ",
      "area": "MERKEZKÖYLER",
      "postal_code": "81100"
    },
    {
      "id": 23865,
      "district_id": 315,
      "name": "DEVELİ MAH (HACI AHMETLER KÖYÜ)",
      "area": "MERKEZKÖYLER",
      "postal_code": "81100"
    },
    {
      "id": 23866,
      "district_id": 315,
      "name": "DOĞANLI KÖYÜ",
      "area": "MERKEZKÖYLER",
      "postal_code": "81100"
    },
    {
      "id": 23867,
      "district_id": 315,
      "name": "DOKUZPINAR MAH (BOĞAZİÇİ BELDESİ)",
      "area": "BOĞAZİÇİ",
      "postal_code": "81610"
    },
    {
      "id": 23868,
      "district_id": 315,
      "name": "DORUK MAH (DERDİN KÖYÜ)",
      "area": "MERKEZKÖYLER",
      "postal_code": "81100"
    },
    {
      "id": 23869,
      "district_id": 315,
      "name": "DURAKLAR KÖYÜ",
      "area": "MERKEZKÖYLER",
      "postal_code": "81100"
    },
    {
      "id": 23870,
      "district_id": 315,
      "name": "EFENDİ MAH (HOCAOĞLU KÖYÜ)",
      "area": "MERKEZKÖYLER",
      "postal_code": "81100"
    },
    {
      "id": 23871,
      "district_id": 315,
      "name": "EMİNAÇMA KÖYÜ",
      "area": "MERKEZKÖYLER",
      "postal_code": "81100"
    },
    {
      "id": 23872,
      "district_id": 315,
      "name": "ERDEMLİ KÖYÜ",
      "area": "MERKEZKÖYLER",
      "postal_code": "81100"
    },
    {
      "id": 23873,
      "district_id": 315,
      "name": "ESENTEPE KÖYÜ",
      "area": "MERKEZKÖYLER",
      "postal_code": "81100"
    },
    {
      "id": 23874,
      "district_id": 315,
      "name": "ESENTEPE MAH",
      "area": "BAHÇEŞEHİR",
      "postal_code": "81630"
    },
    {
      "id": 23875,
      "district_id": 315,
      "name": "FABRİKA MAH (DERDİN KÖYÜ)",
      "area": "MERKEZKÖYLER",
      "postal_code": "81100"
    },
    {
      "id": 23876,
      "district_id": 315,
      "name": "FATİH MAH",
      "area": "HAMİDİYE",
      "postal_code": "81040"
    },
    {
      "id": 23877,
      "district_id": 315,
      "name": "FEVZİÇAKMAK MAH",
      "area": "CEDİDİYE",
      "postal_code": "81010"
    },
    {
      "id": 23878,
      "district_id": 315,
      "name": "FINDIKÇUKURU MAH (UĞUR KÖYÜ)",
      "area": "MERKEZKÖYLER",
      "postal_code": "81100"
    },
    {
      "id": 23879,
      "district_id": 315,
      "name": "FINDIKLI AKSU KÖYÜ",
      "area": "MERKEZKÖYLER",
      "postal_code": "81100"
    },
    {
      "id": 23880,
      "district_id": 315,
      "name": "GÖKÇE MAH",
      "area": "MERKEZKÖYLER",
      "postal_code": "81100"
    },
    {
      "id": 23881,
      "district_id": 315,
      "name": "GÜLDERE KÖYÜ",
      "area": "MERKEZKÖYLER",
      "postal_code": "81100"
    },
    {
      "id": 23882,
      "district_id": 315,
      "name": "GÜMÜŞPINAR KÖYÜ",
      "area": "MERKEZKÖYLER",
      "postal_code": "81100"
    },
    {
      "id": 23883,
      "district_id": 315,
      "name": "GÜNBAŞI MAH (GÜNBAŞI KÖYÜ)",
      "area": "MERKEZKÖYLER",
      "postal_code": "81100"
    },
    {
      "id": 23884,
      "district_id": 315,
      "name": "GÜNDOLAMASI KÖYÜ",
      "area": "MERKEZKÖYLER",
      "postal_code": "81100"
    },
    {
      "id": 23885,
      "district_id": 315,
      "name": "GÜZELBAHÇE MAH",
      "area": "BAHÇEŞEHİR",
      "postal_code": "81630"
    },
    {
      "id": 23886,
      "district_id": 315,
      "name": "HACI ALİLER KÖYÜ",
      "area": "MERKEZKÖYLER",
      "postal_code": "81100"
    },
    {
      "id": 23887,
      "district_id": 315,
      "name": "HACIMUSTAFADÜZÜ MAH (SAMANDERE KÖYÜ)",
      "area": "MERKEZKÖYLER",
      "postal_code": "81100"
    },
    {
      "id": 23888,
      "district_id": 315,
      "name": "HACIYATAĞI MAH (SAMANDERE KÖYÜ)",
      "area": "MERKEZKÖYLER",
      "postal_code": "81100"
    },
    {
      "id": 23889,
      "district_id": 315,
      "name": "HAKKI HOCA MAH (AYDINPINAR KÖYÜ)",
      "area": "MERKEZKÖYLER",
      "postal_code": "81100"
    },
    {
      "id": 23890,
      "district_id": 315,
      "name": "HAMAMDAĞI MAH (DERDİN KÖYÜ)",
      "area": "MERKEZKÖYLER",
      "postal_code": "81100"
    },
    {
      "id": 23891,
      "district_id": 315,
      "name": "HAMAMÜSTÜ MAH (DERDİN KÖYÜ)",
      "area": "MERKEZKÖYLER",
      "postal_code": "81100"
    },
    {
      "id": 23892,
      "district_id": 315,
      "name": "HAMİDİYE MAH",
      "area": "HAMİDİYE",
      "postal_code": "81040"
    },
    {
      "id": 23893,
      "district_id": 315,
      "name": "HAMZA MAH (AYBAŞI KÖYÜ)",
      "area": "MERKEZKÖYLER",
      "postal_code": "81100"
    },
    {
      "id": 23894,
      "district_id": 315,
      "name": "HASANLAR KÖYÜ",
      "area": "MERKEZKÖYLER",
      "postal_code": "81100"
    },
    {
      "id": 23895,
      "district_id": 315,
      "name": "HATIPLAR MAH (SİNİRCİ KÖYÜ)",
      "area": "MERKEZKÖYLER",
      "postal_code": "81100"
    },
    {
      "id": 23896,
      "district_id": 315,
      "name": "HATİPLİ MAH (HATİPLİ KETENCİLER KÖYÜ)",
      "area": "MERKEZKÖYLER",
      "postal_code": "81100"
    },
    {
      "id": 23897,
      "district_id": 315,
      "name": "HECİNLER MAH (ESENÇAM KÖYÜ)",
      "area": "MERKEZKÖYLER",
      "postal_code": "81100"
    },
    {
      "id": 23898,
      "district_id": 315,
      "name": "HÜRRİYET MAH (ÜÇYOL KÖYÜ)",
      "area": "MERKEZKÖYLER",
      "postal_code": "81100"
    },
    {
      "id": 23899,
      "district_id": 315,
      "name": "İHSANİYE KÖYÜ",
      "area": "MERKEZKÖYLER",
      "postal_code": "81100"
    },
    {
      "id": 23900,
      "district_id": 315,
      "name": "İSLAHİYE KÖYÜ",
      "area": "MERKEZKÖYLER",
      "postal_code": "81100"
    },
    {
      "id": 23901,
      "district_id": 315,
      "name": "İSLAHİYE MAH (İSLAHİYE KÖYÜ)",
      "area": "MERKEZKÖYLER",
      "postal_code": "81100"
    },
    {
      "id": 23902,
      "district_id": 315,
      "name": "İSTİKLAL MAH (BEYKÖY BELDESİ)",
      "area": "BEYKÖY",
      "postal_code": "81600"
    },
    {
      "id": 23903,
      "district_id": 315,
      "name": "İSTİKLAL MAH (ÜÇYOL KÖYÜ)",
      "area": "MERKEZKÖYLER",
      "postal_code": "81100"
    },
    {
      "id": 23904,
      "district_id": 315,
      "name": "İSTİKLAL OSB1 MAH (BEYKÖY BELDESİ)",
      "area": "BEYKÖY",
      "postal_code": "81600"
    },
    {
      "id": 23905,
      "district_id": 315,
      "name": "KABALAK MAH (BOĞAZİÇİ BELDESİ)",
      "area": "BOĞAZİÇİ",
      "postal_code": "81610"
    },
    {
      "id": 23906,
      "district_id": 315,
      "name": "KADIOĞLU KÖYÜ",
      "area": "MERKEZKÖYLER",
      "postal_code": "81100"
    },
    {
      "id": 23907,
      "district_id": 315,
      "name": "KALEDİBİ KÖYÜ",
      "area": "MERKEZKÖYLER",
      "postal_code": "81100"
    },
    {
      "id": 23908,
      "district_id": 315,
      "name": "KALYONCU MAH (GÖLORMANI KÖYÜ)",
      "area": "MERKEZKÖYLER",
      "postal_code": "81100"
    },
    {
      "id": 23909,
      "district_id": 315,
      "name": "KARA AĞAÇ MAH (GÜNBAŞI KÖYÜ)",
      "area": "MERKEZKÖYLER",
      "postal_code": "81100"
    },
    {
      "id": 23910,
      "district_id": 315,
      "name": "KARACA HACIMUSA MAH",
      "area": "HAMİDİYE",
      "postal_code": "81040"
    },
    {
      "id": 23911,
      "district_id": 315,
      "name": "KARACA MAH",
      "area": "KOÇYAZI",
      "postal_code": "81030"
    },
    {
      "id": 23912,
      "district_id": 315,
      "name": "KARAÇAVUŞ MAH (GÖLORMANI KÖYÜ)",
      "area": "MERKEZKÖYLER",
      "postal_code": "81100"
    },
    {
      "id": 23913,
      "district_id": 315,
      "name": "KARADERE HASANAĞA KÖYÜ",
      "area": "MERKEZKÖYLER",
      "postal_code": "81100"
    },
    {
      "id": 23914,
      "district_id": 315,
      "name": "KARAÖMER MAH (DÜVERDÜZÜ KÖYÜ)",
      "area": "MERKEZKÖYLER",
      "postal_code": "81100"
    },
    {
      "id": 23915,
      "district_id": 315,
      "name": "KARASAKAL MAH (GÖLORMANI KÖYÜ)",
      "area": "MERKEZKÖYLER",
      "postal_code": "81100"
    },
    {
      "id": 23916,
      "district_id": 315,
      "name": "KARDELEN MAH (DERDİN KÖYÜ)",
      "area": "MERKEZKÖYLER",
      "postal_code": "81100"
    },
    {
      "id": 23917,
      "district_id": 315,
      "name": "KASIM MAH (KEMERKASIM KÖYÜ)",
      "area": "MERKEZKÖYLER",
      "postal_code": "81100"
    },
    {
      "id": 23918,
      "district_id": 315,
      "name": "KAVAKBIÇKI KÖYÜ",
      "area": "MERKEZKÖYLER",
      "postal_code": "81100"
    },
    {
      "id": 23919,
      "district_id": 315,
      "name": "KAVAKLAR MAH (SİNİRCİ KÖYÜ)",
      "area": "MERKEZKÖYLER",
      "postal_code": "81100"
    },
    {
      "id": 23920,
      "district_id": 315,
      "name": "KAZUKOĞLU MAH",
      "area": "BAHÇEŞEHİR",
      "postal_code": "81630"
    },
    {
      "id": 23921,
      "district_id": 315,
      "name": "KEMER MAH (KEMERKASIM KÖYÜ)",
      "area": "MERKEZKÖYLER",
      "postal_code": "81100"
    },
    {
      "id": 23922,
      "district_id": 315,
      "name": "KETENCİLER MAH (HATİPLİ KETENCİLER KÖYÜ)",
      "area": "MERKEZKÖYLER",
      "postal_code": "81100"
    },
    {
      "id": 23923,
      "district_id": 315,
      "name": "KİRAZLI MAH",
      "area": "MERKEZKÖYLER",
      "postal_code": "81100"
    },
    {
      "id": 23924,
      "district_id": 315,
      "name": "KİREÇKUYUSU MAH (GÜVEN KÖYÜ)",
      "area": "MERKEZKÖYLER",
      "postal_code": "81100"
    },
    {
      "id": 23925,
      "district_id": 315,
      "name": "KİREMİTOCAĞI MAH",
      "area": "CEDİDİYE",
      "postal_code": "81010"
    },
    {
      "id": 23926,
      "district_id": 315,
      "name": "KIRKACAK MAH (GÜVEN KÖYÜ)",
      "area": "MERKEZKÖYLER",
      "postal_code": "81100"
    },
    {
      "id": 23927,
      "district_id": 315,
      "name": "KIZILCIK KÖYÜ",
      "area": "MERKEZKÖYLER",
      "postal_code": "81100"
    },
    {
      "id": 23928,
      "district_id": 315,
      "name": "KOCAYAYLA MAH (SAMANDERE KÖYÜ)",
      "area": "MERKEZKÖYLER",
      "postal_code": "81100"
    },
    {
      "id": 23929,
      "district_id": 315,
      "name": "KOÇYAZI MAH",
      "area": "KOÇYAZI",
      "postal_code": "81030"
    },
    {
      "id": 23930,
      "district_id": 315,
      "name": "KONAKLI KÖYÜ",
      "area": "MERKEZKÖYLER",
      "postal_code": "81100"
    },
    {
      "id": 23931,
      "district_id": 315,
      "name": "KÖPRÜBAŞI KÖYÜ",
      "area": "MERKEZKÖYLER",
      "postal_code": "81100"
    },
    {
      "id": 23932,
      "district_id": 315,
      "name": "KÖRPEŞLER MAH",
      "area": "HAMİDİYE",
      "postal_code": "81040"
    },
    {
      "id": 23933,
      "district_id": 315,
      "name": "KOZLUK KÖYÜ",
      "area": "MERKEZKÖYLER",
      "postal_code": "81100"
    },
    {
      "id": 23934,
      "district_id": 315,
      "name": "KÜÇÜKAHMET KÖYÜ",
      "area": "MERKEZKÖYLER",
      "postal_code": "81100"
    },
    {
      "id": 23935,
      "district_id": 315,
      "name": "KÜÇÜKMEHMET KÖYÜ",
      "area": "MERKEZKÖYLER",
      "postal_code": "81100"
    },
    {
      "id": 23936,
      "district_id": 315,
      "name": "KÜLTÜR MAH",
      "area": "CEDİDİYE",
      "postal_code": "81010"
    },
    {
      "id": 23937,
      "district_id": 315,
      "name": "KÜLTÜR MAH (BEYKÖY BELDESİ)",
      "area": "BEYKÖY",
      "postal_code": "81600"
    },
    {
      "id": 23938,
      "district_id": 315,
      "name": "KÜRT MAH (BALLICA KÖYÜ)",
      "area": "MERKEZKÖYLER",
      "postal_code": "81100"
    },
    {
      "id": 23939,
      "district_id": 315,
      "name": "KURUDERE MAH (DAĞDİBİ KÖYÜ)",
      "area": "MERKEZKÖYLER",
      "postal_code": "81100"
    },
    {
      "id": 23940,
      "district_id": 315,
      "name": "KURULUK MAH (ÇINARDÜZÜ KÖYÜ)",
      "area": "MERKEZKÖYLER",
      "postal_code": "81100"
    },
    {
      "id": 23941,
      "district_id": 315,
      "name": "KUŞAÇMASI KÖYÜ",
      "area": "MERKEZKÖYLER",
      "postal_code": "81100"
    },
    {
      "id": 23942,
      "district_id": 315,
      "name": "KUŞYUVASI MAH (SAMANDERE KÖYÜ)",
      "area": "MERKEZKÖYLER",
      "postal_code": "81100"
    },
    {
      "id": 23943,
      "district_id": 315,
      "name": "KUTLU KÖYÜ",
      "area": "MERKEZKÖYLER",
      "postal_code": "81100"
    },
    {
      "id": 23944,
      "district_id": 315,
      "name": "KUYUMCUHACIALİ MAH",
      "area": "BAHÇEŞEHİR",
      "postal_code": "81630"
    },
    {
      "id": 23945,
      "district_id": 315,
      "name": "MAMURE MAH",
      "area": "MERKEZKÖYLER",
      "postal_code": "81100"
    },
    {
      "id": 23946,
      "district_id": 315,
      "name": "MERGİÇ MAH",
      "area": "CEDİDİYE",
      "postal_code": "81010"
    },
    {
      "id": 23947,
      "district_id": 315,
      "name": "MERKEZ MAH (ASAR KÖYÜ)",
      "area": "MERKEZKÖYLER",
      "postal_code": "81100"
    },
    {
      "id": 23948,
      "district_id": 315,
      "name": "MERKEZ MAH (AYBAŞI KÖYÜ)",
      "area": "MERKEZKÖYLER",
      "postal_code": "81100"
    },
    {
      "id": 23949,
      "district_id": 315,
      "name": "MERKEZ MAH (AYDINPINAR KÖYÜ)",
      "area": "MERKEZKÖYLER",
      "postal_code": "81100"
    },
    {
      "id": 23950,
      "district_id": 315,
      "name": "MERKEZ MAH (BAHÇE KÖYÜ)",
      "area": "MERKEZKÖYLER",
      "postal_code": "81100"
    },
    {
      "id": 23951,
      "district_id": 315,
      "name": "MERKEZ MAH (BALLICA KÖYÜ)",
      "area": "MERKEZKÖYLER",
      "postal_code": "81100"
    },
    {
      "id": 23952,
      "district_id": 315,
      "name": "MERKEZ MAH (ÇINARDÜZÜ KÖYÜ)",
      "area": "MERKEZKÖYLER",
      "postal_code": "81100"
    },
    {
      "id": 23953,
      "district_id": 315,
      "name": "MERKEZ MAH (DAĞDİBİ KÖYÜ)",
      "area": "MERKEZKÖYLER",
      "postal_code": "81100"
    },
    {
      "id": 23954,
      "district_id": 315,
      "name": "MERKEZ MAH (DÜVERDÜZÜ KÖYÜ)",
      "area": "MERKEZKÖYLER",
      "postal_code": "81100"
    },
    {
      "id": 23955,
      "district_id": 315,
      "name": "MERKEZ MAH (DÜZ KÖYÜ)",
      "area": "MERKEZKÖYLER",
      "postal_code": "81100"
    },
    {
      "id": 23956,
      "district_id": 315,
      "name": "MERKEZ MAH (ESENÇAM KÖYÜ)",
      "area": "MERKEZKÖYLER",
      "postal_code": "81100"
    },
    {
      "id": 23957,
      "district_id": 315,
      "name": "MERKEZ MAH (ESKİ MENGENCİK KÖYÜ)",
      "area": "MERKEZKÖYLER",
      "postal_code": "81100"
    },
    {
      "id": 23958,
      "district_id": 315,
      "name": "MERKEZ MAH (GÖLORMANI KÖYÜ)",
      "area": "MERKEZKÖYLER",
      "postal_code": "81100"
    },
    {
      "id": 23959,
      "district_id": 315,
      "name": "MERKEZ MAH (GÜNBAŞI KÖYÜ)",
      "area": "MERKEZKÖYLER",
      "postal_code": "81100"
    },
    {
      "id": 23960,
      "district_id": 315,
      "name": "MERKEZ MAH (GÜVEN KÖYÜ)",
      "area": "MERKEZKÖYLER",
      "postal_code": "81100"
    },
    {
      "id": 23961,
      "district_id": 315,
      "name": "MERKEZ MAH (HACI AHMETLER KÖYÜ)",
      "area": "MERKEZKÖYLER",
      "postal_code": "81100"
    },
    {
      "id": 23962,
      "district_id": 315,
      "name": "MERKEZ MAH (HOCAOĞLU KÖYÜ)",
      "area": "MERKEZKÖYLER",
      "postal_code": "81100"
    },
    {
      "id": 23963,
      "district_id": 315,
      "name": "MERKEZ MAH (İSTİLLİ KÖYÜ)",
      "area": "MERKEZKÖYLER",
      "postal_code": "81100"
    },
    {
      "id": 23964,
      "district_id": 315,
      "name": "MERKEZ MAH (KAYMAKÇI KÖYÜ)",
      "area": "MERKEZKÖYLER",
      "postal_code": "81100"
    },
    {
      "id": 23965,
      "district_id": 315,
      "name": "MERKEZ MAH (KURTSUYU KÖYÜ)",
      "area": "MERKEZKÖYLER",
      "postal_code": "81100"
    },
    {
      "id": 23966,
      "district_id": 315,
      "name": "MERKEZ MAH (MUNCURLU KÖYÜ)",
      "area": "MERKEZKÖYLER",
      "postal_code": "81100"
    },
    {
      "id": 23967,
      "district_id": 315,
      "name": "MERKEZ MAH (NASIRLI KÖYÜ)",
      "area": "MERKEZKÖYLER",
      "postal_code": "81100"
    },
    {
      "id": 23968,
      "district_id": 315,
      "name": "MERKEZ MAH (SAMANDERE KÖYÜ)",
      "area": "MERKEZKÖYLER",
      "postal_code": "81100"
    },
    {
      "id": 23969,
      "district_id": 315,
      "name": "MERKEZ MAH (SİNİRCİ KÖYÜ)",
      "area": "MERKEZKÖYLER",
      "postal_code": "81100"
    },
    {
      "id": 23970,
      "district_id": 315,
      "name": "MERKEZ MAH (ÜÇYOL KÖYÜ)",
      "area": "MERKEZKÖYLER",
      "postal_code": "81100"
    },
    {
      "id": 23971,
      "district_id": 315,
      "name": "MERKEZ MAH (UĞUR KÖYÜ)",
      "area": "MERKEZKÖYLER",
      "postal_code": "81100"
    },
    {
      "id": 23972,
      "district_id": 315,
      "name": "MERKEZ MAH (YENİ AYNALI KÖYÜ)",
      "area": "MERKEZKÖYLER",
      "postal_code": "81100"
    },
    {
      "id": 23973,
      "district_id": 315,
      "name": "MERKEZ MAH (YENİ TAŞKÖPRÜ KÖYÜ)",
      "area": "MERKEZKÖYLER",
      "postal_code": "81100"
    },
    {
      "id": 23974,
      "district_id": 315,
      "name": "MERKEZ MAH (YÖRÜK KÖYÜ)",
      "area": "MERKEZKÖYLER",
      "postal_code": "81100"
    },
    {
      "id": 23975,
      "district_id": 315,
      "name": "MURADİYEMENGENCİK KÖYÜ",
      "area": "BEYKÖY",
      "postal_code": "81600"
    },
    {
      "id": 23976,
      "district_id": 315,
      "name": "MUSABABA KÖYÜ",
      "area": "MERKEZKÖYLER",
      "postal_code": "81100"
    },
    {
      "id": 23977,
      "district_id": 315,
      "name": "NALBANTOĞLU MAH",
      "area": "BAHÇEŞEHİR",
      "postal_code": "81630"
    },
    {
      "id": 23978,
      "district_id": 315,
      "name": "NUHLAR MAH (NASIRLI KÖYÜ)",
      "area": "MERKEZKÖYLER",
      "postal_code": "81100"
    },
    {
      "id": 23979,
      "district_id": 315,
      "name": "NUHLAR MAH (NUHLAR KÖYÜ)",
      "area": "MERKEZKÖYLER",
      "postal_code": "81100"
    },
    {
      "id": 23980,
      "district_id": 315,
      "name": "NUSRET YILMAZ MAH (GÖLORMANI KÖYÜ)",
      "area": "MERKEZKÖYLER",
      "postal_code": "81100"
    },
    {
      "id": 23981,
      "district_id": 315,
      "name": "NUSRETTİN MAH",
      "area": "CEDİDİYE",
      "postal_code": "81010"
    },
    {
      "id": 23982,
      "district_id": 315,
      "name": "ORHANGAZİ MAH",
      "area": "KONURALP",
      "postal_code": "81620"
    },
    {
      "id": 23983,
      "district_id": 315,
      "name": "ORTA MAH (YENİ AYNALI KÖYÜ)",
      "area": "MERKEZKÖYLER",
      "postal_code": "81100"
    },
    {
      "id": 23984,
      "district_id": 315,
      "name": "OSMANCA KÖYÜ",
      "area": "MERKEZKÖYLER",
      "postal_code": "81100"
    },
    {
      "id": 23985,
      "district_id": 315,
      "name": "OTLAKLAR MAH (KURTSUYU KÖYÜ)",
      "area": "MERKEZKÖYLER",
      "postal_code": "81100"
    },
    {
      "id": 23986,
      "district_id": 315,
      "name": "OTLUOĞLU MAH",
      "area": "MERKEZKÖYLER",
      "postal_code": "81100"
    },
    {
      "id": 23987,
      "district_id": 315,
      "name": "OVA MAH (YENİ AYNALI KÖYÜ)",
      "area": "MERKEZKÖYLER",
      "postal_code": "81100"
    },
    {
      "id": 23988,
      "district_id": 315,
      "name": "OVAPINAR KÖYÜ",
      "area": "BEYKÖY",
      "postal_code": "81600"
    },
    {
      "id": 23989,
      "district_id": 315,
      "name": "OZANLAR MAH",
      "area": "MERKEZKÖYLER",
      "postal_code": "81100"
    },
    {
      "id": 23990,
      "district_id": 315,
      "name": "ÖZYANIK KÖYÜ",
      "area": "MERKEZKÖYLER",
      "postal_code": "81100"
    },
    {
      "id": 23991,
      "district_id": 315,
      "name": "PAŞAKONAĞI KÖYÜ",
      "area": "MERKEZKÖYLER",
      "postal_code": "81100"
    },
    {
      "id": 23992,
      "district_id": 315,
      "name": "PAŞAORMANI KÖYÜ",
      "area": "MERKEZKÖYLER",
      "postal_code": "81100"
    },
    {
      "id": 23993,
      "district_id": 315,
      "name": "PETEKLİ MAH (KURTSUYU KÖYÜ)",
      "area": "MERKEZKÖYLER",
      "postal_code": "81100"
    },
    {
      "id": 23994,
      "district_id": 315,
      "name": "PINARLAR KÖYÜ",
      "area": "MERKEZKÖYLER",
      "postal_code": "81100"
    },
    {
      "id": 23995,
      "district_id": 315,
      "name": "POYRAZ MAH (GÜNBAŞI KÖYÜ)",
      "area": "MERKEZKÖYLER",
      "postal_code": "81100"
    },
    {
      "id": 23996,
      "district_id": 315,
      "name": "SADIK MAH (SAMANDERE KÖYÜ)",
      "area": "MERKEZKÖYLER",
      "postal_code": "81100"
    },
    {
      "id": 23997,
      "district_id": 315,
      "name": "SALLAR MAH",
      "area": "BAHÇEŞEHİR",
      "postal_code": "81630"
    },
    {
      "id": 23998,
      "district_id": 315,
      "name": "SANCAKDERE KÖYÜ",
      "area": "MERKEZKÖYLER",
      "postal_code": "81100"
    },
    {
      "id": 23999,
      "district_id": 315,
      "name": "SANCAKLAR MAH",
      "area": "HAMİDİYE",
      "postal_code": "81040"
    },
    {
      "id": 24000,
      "district_id": 315,
      "name": "SANTRAL MAH (AYDINPINAR KÖYÜ)",
      "area": "MERKEZKÖYLER",
      "postal_code": "81100"
    },
    {
      "id": 24001,
      "district_id": 315,
      "name": "SARAYYERİ MAH",
      "area": "HAMİDİYE",
      "postal_code": "81040"
    },
    {
      "id": 24002,
      "district_id": 315,
      "name": "SARIÇAM MAH (ÇINARDÜZÜ KÖYÜ)",
      "area": "MERKEZKÖYLER",
      "postal_code": "81100"
    },
    {
      "id": 24003,
      "district_id": 315,
      "name": "SARIKASIM MAH (NASIRLI KÖYÜ)",
      "area": "MERKEZKÖYLER",
      "postal_code": "81100"
    },
    {
      "id": 24004,
      "district_id": 315,
      "name": "ŞAZİYE KÖYÜ",
      "area": "MERKEZKÖYLER",
      "postal_code": "81100"
    },
    {
      "id": 24005,
      "district_id": 315,
      "name": "ŞEHİT BAYRAM GÖKMEN MAH",
      "area": "KONURALP",
      "postal_code": "81620"
    },
    {
      "id": 24006,
      "district_id": 315,
      "name": "ŞEHİT HÜSEYİN KIL MAH",
      "area": "KONURALP",
      "postal_code": "81620"
    },
    {
      "id": 24007,
      "district_id": 315,
      "name": "ŞEHİT KEMAL IŞILDAK MAH",
      "area": "KONURALP",
      "postal_code": "81620"
    },
    {
      "id": 24008,
      "district_id": 315,
      "name": "ŞEHİT MURAT DEMİR MAH",
      "area": "KONURALP",
      "postal_code": "81620"
    },
    {
      "id": 24009,
      "district_id": 315,
      "name": "ŞEKERPINAR MAH (BOĞAZİÇİ BELDESİ)",
      "area": "BOĞAZİÇİ",
      "postal_code": "81610"
    },
    {
      "id": 24010,
      "district_id": 315,
      "name": "ŞEREFİYE MAH",
      "area": "CEDİDİYE",
      "postal_code": "81010"
    },
    {
      "id": 24011,
      "district_id": 315,
      "name": "ŞIRALIK MAH",
      "area": "ÇAY",
      "postal_code": "81020"
    },
    {
      "id": 24012,
      "district_id": 315,
      "name": "SOĞUKPINAR MAH",
      "area": "KOÇYAZI",
      "postal_code": "81030"
    },
    {
      "id": 24013,
      "district_id": 315,
      "name": "ŞOSE ALTI MAH (AYDINPINAR KÖYÜ)",
      "area": "MERKEZKÖYLER",
      "postal_code": "81100"
    },
    {
      "id": 24014,
      "district_id": 315,
      "name": "SUNCUK KÖYÜ",
      "area": "MERKEZKÖYLER",
      "postal_code": "81100"
    },
    {
      "id": 24015,
      "district_id": 315,
      "name": "TANTAN KUYU MAH (KURTSUYU KÖYÜ)",
      "area": "MERKEZKÖYLER",
      "postal_code": "81100"
    },
    {
      "id": 24016,
      "district_id": 315,
      "name": "TAŞKÖPRÜ MAH",
      "area": "MERKEZKÖYLER",
      "postal_code": "81100"
    },
    {
      "id": 24017,
      "district_id": 315,
      "name": "TATİL KÖYÜ MAH (DERDİN KÖYÜ)",
      "area": "MERKEZKÖYLER",
      "postal_code": "81100"
    },
    {
      "id": 24018,
      "district_id": 315,
      "name": "TEPE ALTI MAH (GÜVEN KÖYÜ)",
      "area": "MERKEZKÖYLER",
      "postal_code": "81100"
    },
    {
      "id": 24019,
      "district_id": 315,
      "name": "TERZİALİLER MAH",
      "area": "KONURALP",
      "postal_code": "81620"
    },
    {
      "id": 24020,
      "district_id": 315,
      "name": "TINAZ MAH (YENİ TAŞKÖPRÜ KÖYÜ)",
      "area": "MERKEZKÖYLER",
      "postal_code": "81100"
    },
    {
      "id": 24021,
      "district_id": 315,
      "name": "TOKMAKTARLA MAH (NASIRLI KÖYÜ)",
      "area": "MERKEZKÖYLER",
      "postal_code": "81100"
    },
    {
      "id": 24022,
      "district_id": 315,
      "name": "TOKUŞLAR MAH",
      "area": "BAHÇEŞEHİR",
      "postal_code": "81630"
    },
    {
      "id": 24023,
      "district_id": 315,
      "name": "TONYALI MAH (KURTSUYU KÖYÜ)",
      "area": "MERKEZKÖYLER",
      "postal_code": "81100"
    },
    {
      "id": 24024,
      "district_id": 315,
      "name": "TURAPLAR KÖYÜ",
      "area": "MERKEZKÖYLER",
      "postal_code": "81100"
    },
    {
      "id": 24025,
      "district_id": 315,
      "name": "TÜTÜNLÜK MAH (SAMANDERE KÖYÜ)",
      "area": "MERKEZKÖYLER",
      "postal_code": "81100"
    },
    {
      "id": 24026,
      "district_id": 315,
      "name": "ÜÇKESE MAH (ESENÇAM KÖYÜ)",
      "area": "MERKEZKÖYLER",
      "postal_code": "81100"
    },
    {
      "id": 24027,
      "district_id": 315,
      "name": "UÇUK MAH (UĞUR KÖYÜ)",
      "area": "MERKEZKÖYLER",
      "postal_code": "81100"
    },
    {
      "id": 24028,
      "district_id": 315,
      "name": "UZUNALİ MAH (GÖLORMANI KÖYÜ)",
      "area": "MERKEZKÖYLER",
      "postal_code": "81100"
    },
    {
      "id": 24029,
      "district_id": 315,
      "name": "UZUNMUSTAFA MAH",
      "area": "CEDİDİYE",
      "postal_code": "81010"
    },
    {
      "id": 24030,
      "district_id": 315,
      "name": "YAHYALAR MAH",
      "area": "BAHÇEŞEHİR",
      "postal_code": "81630"
    },
    {
      "id": 24031,
      "district_id": 315,
      "name": "YAKA KÖYÜ",
      "area": "MERKEZKÖYLER",
      "postal_code": "81100"
    },
    {
      "id": 24032,
      "district_id": 315,
      "name": "YAMALI MAH (İSTİLLİ KÖYÜ)",
      "area": "MERKEZKÖYLER",
      "postal_code": "81100"
    },
    {
      "id": 24033,
      "district_id": 315,
      "name": "YANIK MAH (DERDİN KÖYÜ)",
      "area": "MERKEZKÖYLER",
      "postal_code": "81100"
    },
    {
      "id": 24034,
      "district_id": 315,
      "name": "YAYAKBAŞI KÖYÜ",
      "area": "MERKEZKÖYLER",
      "postal_code": "81100"
    },
    {
      "id": 24035,
      "district_id": 315,
      "name": "YAYLA KÖYÜ",
      "area": "MERKEZKÖYLER",
      "postal_code": "81100"
    },
    {
      "id": 24036,
      "district_id": 315,
      "name": "YAYLAKAPI MAH (AYDINPINAR KÖYÜ)",
      "area": "MERKEZKÖYLER",
      "postal_code": "81100"
    },
    {
      "id": 24037,
      "district_id": 315,
      "name": "YAZLIK MAH (BOĞAZİÇİ BELDESİ)",
      "area": "BOĞAZİÇİ",
      "postal_code": "81610"
    },
    {
      "id": 24038,
      "district_id": 315,
      "name": "YENİ KARAKÖY KÖYÜ",
      "area": "MERKEZKÖYLER",
      "postal_code": "81100"
    },
    {
      "id": 24039,
      "district_id": 315,
      "name": "YENİ MAH",
      "area": "HAMİDİYE",
      "postal_code": "81040"
    },
    {
      "id": 24040,
      "district_id": 315,
      "name": "YENİ MAH (BAHÇE KÖYÜ)",
      "area": "MERKEZKÖYLER",
      "postal_code": "81100"
    },
    {
      "id": 24041,
      "district_id": 315,
      "name": "YENİ MAH (BEYKÖY BELDESİ)",
      "area": "BEYKÖY",
      "postal_code": "81600"
    },
    {
      "id": 24042,
      "district_id": 315,
      "name": "YEŞİL MAH (AYDINPINAR KÖYÜ)",
      "area": "MERKEZKÖYLER",
      "postal_code": "81100"
    },
    {
      "id": 24043,
      "district_id": 315,
      "name": "YEŞİLÇAM KÖYÜ",
      "area": "MERKEZKÖYLER",
      "postal_code": "81100"
    },
    {
      "id": 24044,
      "district_id": 315,
      "name": "YEŞİLÇİMEN KÖYÜ",
      "area": "MERKEZKÖYLER",
      "postal_code": "81100"
    },
    {
      "id": 24045,
      "district_id": 315,
      "name": "YEŞİLKÖY MAH (BOĞAZİÇİ BELDESİ)",
      "area": "BOĞAZİÇİ",
      "postal_code": "81610"
    },
    {
      "id": 24046,
      "district_id": 315,
      "name": "YEŞİLTEPE MAH",
      "area": "BAHÇEŞEHİR",
      "postal_code": "81630"
    },
    {
      "id": 24047,
      "district_id": 315,
      "name": "YILANKAYA MAH (AYDINPINAR KÖYÜ)",
      "area": "MERKEZKÖYLER",
      "postal_code": "81100"
    },
    {
      "id": 24048,
      "district_id": 315,
      "name": "YUKARI MAH (GÜNBAŞI KÖYÜ)",
      "area": "MERKEZKÖYLER",
      "postal_code": "81100"
    },
    {
      "id": 24049,
      "district_id": 315,
      "name": "YUKARI MAH (YÖRÜK KÖYÜ)",
      "area": "MERKEZKÖYLER",
      "postal_code": "81100"
    },
    {
      "id": 24050,
      "district_id": 315,
      "name": "YUKARI YAHYALAR MAH",
      "area": "BAHÇEŞEHİR",
      "postal_code": "81630"
    },
    {
      "id": 24051,
      "district_id": 315,
      "name": "YUNUSLAR MAH (KEMERKASIM KÖYÜ)",
      "area": "MERKEZKÖYLER",
      "postal_code": "81100"
    },
    {
      "id": 24052,
      "district_id": 316,
      "name": "AHMETÇİLER MAH",
      "area": "YIĞILCA",
      "postal_code": "81950"
    },
    {
      "id": 24053,
      "district_id": 316,
      "name": "AKSU MAH (HOŞAFOĞLU KÖYÜ)",
      "area": "MERKEZKÖYLER",
      "postal_code": "81952"
    },
    {
      "id": 24054,
      "district_id": 316,
      "name": "AŞAĞI MAH (HACILAR KÖYÜ)",
      "area": "MERKEZKÖYLER",
      "postal_code": "81952"
    },
    {
      "id": 24055,
      "district_id": 316,
      "name": "AŞAĞI MAH (YILGI KÖYÜ)",
      "area": "MERKEZKÖYLER",
      "postal_code": "81952"
    },
    {
      "id": 24056,
      "district_id": 316,
      "name": "ASAR KÖYÜ",
      "area": "MERKEZKÖYLER",
      "postal_code": "81952"
    },
    {
      "id": 24057,
      "district_id": 316,
      "name": "ATATÜRK MAH",
      "area": "YIĞILCA",
      "postal_code": "81950"
    },
    {
      "id": 24058,
      "district_id": 316,
      "name": "AVUTLUK MAH (DİBEKTAŞ KÖYÜ)",
      "area": "MERKEZKÖYLER",
      "postal_code": "81952"
    },
    {
      "id": 24059,
      "district_id": 316,
      "name": "AYDIN MAH (DUTLAR KÖYÜ)",
      "area": "MERKEZKÖYLER",
      "postal_code": "81952"
    },
    {
      "id": 24060,
      "district_id": 316,
      "name": "AYDINYAYLA KÖYÜ",
      "area": "MERKEZKÖYLER",
      "postal_code": "81952"
    },
    {
      "id": 24061,
      "district_id": 316,
      "name": "BELEN MAH (HOCATMAN KÖYÜ)",
      "area": "MERKEZKÖYLER",
      "postal_code": "81952"
    },
    {
      "id": 24062,
      "district_id": 316,
      "name": "ÇAYIRCIK MAH (KIRIK KÖYÜ)",
      "area": "MERKEZKÖYLER",
      "postal_code": "81952"
    },
    {
      "id": 24063,
      "district_id": 316,
      "name": "ÇİFTLİK KÖYÜ",
      "area": "MERKEZKÖYLER",
      "postal_code": "81952"
    },
    {
      "id": 24064,
      "district_id": 316,
      "name": "ÇIRNIK MAH (AKSAKLAR KÖYÜ)",
      "area": "MERKEZKÖYLER",
      "postal_code": "81952"
    },
    {
      "id": 24065,
      "district_id": 316,
      "name": "ÇORAK MAH (BEKİRLER KÖYÜ)",
      "area": "MERKEZKÖYLER",
      "postal_code": "81952"
    },
    {
      "id": 24066,
      "district_id": 316,
      "name": "DAĞ MAH (TIRAŞLAR KÖYÜ)",
      "area": "MERKEZKÖYLER",
      "postal_code": "81952"
    },
    {
      "id": 24067,
      "district_id": 316,
      "name": "DEREİÇİ MAH (YILGI KÖYÜ)",
      "area": "MERKEZKÖYLER",
      "postal_code": "81952"
    },
    {
      "id": 24068,
      "district_id": 316,
      "name": "DOĞANCILAR MAH (REDİFLER KÖYÜ)",
      "area": "MERKEZKÖYLER",
      "postal_code": "81952"
    },
    {
      "id": 24069,
      "district_id": 316,
      "name": "DOKUZ MAH (HACIYERİ KÖYÜ)",
      "area": "MERKEZKÖYLER",
      "postal_code": "81952"
    },
    {
      "id": 24070,
      "district_id": 316,
      "name": "ELMAS MAH (DİBEKTAŞ KÖYÜ)",
      "area": "MERKEZKÖYLER",
      "postal_code": "81952"
    },
    {
      "id": 24071,
      "district_id": 316,
      "name": "ERENLER MAH (TIRAŞLAR KÖYÜ)",
      "area": "MERKEZKÖYLER",
      "postal_code": "81952"
    },
    {
      "id": 24072,
      "district_id": 316,
      "name": "GAZİLER KÖYÜ",
      "area": "MERKEZKÖYLER",
      "postal_code": "81952"
    },
    {
      "id": 24073,
      "district_id": 316,
      "name": "GELENÖZ KÖYÜ",
      "area": "MERKEZKÖYLER",
      "postal_code": "81952"
    },
    {
      "id": 24074,
      "district_id": 316,
      "name": "GÜNEY KÖYÜ",
      "area": "MERKEZKÖYLER",
      "postal_code": "81952"
    },
    {
      "id": 24075,
      "district_id": 316,
      "name": "GÜNEY MAH (ÇAMLI KÖYÜ)",
      "area": "MERKEZKÖYLER",
      "postal_code": "81952"
    },
    {
      "id": 24076,
      "district_id": 316,
      "name": "GÜNEY MAH (GERİŞ KÖYÜ)",
      "area": "MERKEZKÖYLER",
      "postal_code": "81952"
    },
    {
      "id": 24077,
      "district_id": 316,
      "name": "GÜNEYALTI MAH (GÜNEY KÖYÜ)",
      "area": "MERKEZKÖYLER",
      "postal_code": "81952"
    },
    {
      "id": 24078,
      "district_id": 316,
      "name": "HEBELER KÖYÜ",
      "area": "MERKEZKÖYLER",
      "postal_code": "81952"
    },
    {
      "id": 24079,
      "district_id": 316,
      "name": "İĞNELER KÖYÜ",
      "area": "MERKEZKÖYLER",
      "postal_code": "81952"
    },
    {
      "id": 24080,
      "district_id": 316,
      "name": "İSMAİLÇAYIRI MAH (AKÇAÖREN KÖYÜ)",
      "area": "MERKEZKÖYLER",
      "postal_code": "81952"
    },
    {
      "id": 24081,
      "district_id": 316,
      "name": "KARAKİRAZ MAH (KIRIK KÖYÜ)",
      "area": "MERKEZKÖYLER",
      "postal_code": "81952"
    },
    {
      "id": 24082,
      "district_id": 316,
      "name": "KAZAKLAR MAH (GÖKÇEAĞAÇ KÖYÜ)",
      "area": "MERKEZKÖYLER",
      "postal_code": "81952"
    },
    {
      "id": 24083,
      "district_id": 316,
      "name": "KİRSEYANI MAH (HOCATMAN KÖYÜ)",
      "area": "MERKEZKÖYLER",
      "postal_code": "81952"
    },
    {
      "id": 24084,
      "district_id": 316,
      "name": "KÖSELER KÖYÜ",
      "area": "MERKEZKÖYLER",
      "postal_code": "81952"
    },
    {
      "id": 24085,
      "district_id": 316,
      "name": "KURUCA MAH (YENİYER KÖYÜ)",
      "area": "MERKEZKÖYLER",
      "postal_code": "81952"
    },
    {
      "id": 24086,
      "district_id": 316,
      "name": "KURUHÜSEYİN MAH (DİBEKTAŞ KÖYÜ)",
      "area": "MERKEZKÖYLER",
      "postal_code": "81952"
    },
    {
      "id": 24087,
      "district_id": 316,
      "name": "KUZEY MAH (ÇAMLI KÖYÜ)",
      "area": "MERKEZKÖYLER",
      "postal_code": "81952"
    },
    {
      "id": 24088,
      "district_id": 316,
      "name": "MAREŞAL FEVZİ  ÇAKMAK MAH",
      "area": "YIĞILCA",
      "postal_code": "81950"
    },
    {
      "id": 24089,
      "district_id": 316,
      "name": "MEHMETKÖY MAH (AKSAKLAR KÖYÜ)",
      "area": "MERKEZKÖYLER",
      "postal_code": "81952"
    },
    {
      "id": 24090,
      "district_id": 316,
      "name": "MELEN KIYISI MAH (BEKİRLER KÖYÜ)",
      "area": "MERKEZKÖYLER",
      "postal_code": "81952"
    },
    {
      "id": 24091,
      "district_id": 316,
      "name": "MENGEN KÖYÜ",
      "area": "MERKEZKÖYLER",
      "postal_code": "81952"
    },
    {
      "id": 24092,
      "district_id": 316,
      "name": "MERKEZ MAH (AKÇAÖREN KÖYÜ)",
      "area": "MERKEZKÖYLER",
      "postal_code": "81952"
    },
    {
      "id": 24093,
      "district_id": 316,
      "name": "MERKEZ MAH (BEKİRLER KÖYÜ)",
      "area": "MERKEZKÖYLER",
      "postal_code": "81952"
    },
    {
      "id": 24094,
      "district_id": 316,
      "name": "MERKEZ MAH (ÇUKURÖREN KÖYÜ)",
      "area": "MERKEZKÖYLER",
      "postal_code": "81952"
    },
    {
      "id": 24095,
      "district_id": 316,
      "name": "MERKEZ MAH (DİBEKTAŞ KÖYÜ)",
      "area": "MERKEZKÖYLER",
      "postal_code": "81952"
    },
    {
      "id": 24096,
      "district_id": 316,
      "name": "MERKEZ MAH (DOĞANLAR KÖYÜ)",
      "area": "MERKEZKÖYLER",
      "postal_code": "81952"
    },
    {
      "id": 24097,
      "district_id": 316,
      "name": "MERKEZ MAH (DUTLAR KÖYÜ)",
      "area": "MERKEZKÖYLER",
      "postal_code": "81952"
    },
    {
      "id": 24098,
      "district_id": 316,
      "name": "MERKEZ MAH (GERİŞ KÖYÜ)",
      "area": "MERKEZKÖYLER",
      "postal_code": "81952"
    },
    {
      "id": 24099,
      "district_id": 316,
      "name": "MERKEZ MAH (GÖKÇEAĞAÇ KÖYÜ)",
      "area": "MERKEZKÖYLER",
      "postal_code": "81952"
    },
    {
      "id": 24100,
      "district_id": 316,
      "name": "MERKEZ MAH (HACIYERİ KÖYÜ)",
      "area": "MERKEZKÖYLER",
      "postal_code": "81952"
    },
    {
      "id": 24101,
      "district_id": 316,
      "name": "MERKEZ MAH (HOCATMAN KÖYÜ)",
      "area": "MERKEZKÖYLER",
      "postal_code": "81952"
    },
    {
      "id": 24102,
      "district_id": 316,
      "name": "MERKEZ MAH (HOŞAFOĞLU KÖYÜ)",
      "area": "MERKEZKÖYLER",
      "postal_code": "81952"
    },
    {
      "id": 24103,
      "district_id": 316,
      "name": "MERKEZ MAH (KARAKAŞ KÖYÜ)",
      "area": "MERKEZKÖYLER",
      "postal_code": "81952"
    },
    {
      "id": 24104,
      "district_id": 316,
      "name": "MERKEZ MAH (KIRIK KÖYÜ)",
      "area": "MERKEZKÖYLER",
      "postal_code": "81952"
    },
    {
      "id": 24105,
      "district_id": 316,
      "name": "MERKEZ MAH (KOCAOĞLU KÖYÜ)",
      "area": "MERKEZKÖYLER",
      "postal_code": "81952"
    },
    {
      "id": 24106,
      "district_id": 316,
      "name": "MERKEZ MAH (NAŞLAR KÖYÜ)",
      "area": "MERKEZKÖYLER",
      "postal_code": "81952"
    },
    {
      "id": 24107,
      "district_id": 316,
      "name": "MERKEZ MAH (REDİFLER KÖYÜ)",
      "area": "MERKEZKÖYLER",
      "postal_code": "81952"
    },
    {
      "id": 24108,
      "district_id": 316,
      "name": "MERKEZ MAH (TIRAŞLAR KÖYÜ)",
      "area": "MERKEZKÖYLER",
      "postal_code": "81952"
    },
    {
      "id": 24109,
      "district_id": 316,
      "name": "MERKEZ MAH (YENİYER KÖYÜ)",
      "area": "MERKEZKÖYLER",
      "postal_code": "81952"
    },
    {
      "id": 24110,
      "district_id": 316,
      "name": "ORHANGAZİ KÖYÜ",
      "area": "MERKEZKÖYLER",
      "postal_code": "81952"
    },
    {
      "id": 24111,
      "district_id": 316,
      "name": "ORHANGAZİ MAH",
      "area": "YIĞILCA",
      "postal_code": "81950"
    },
    {
      "id": 24112,
      "district_id": 316,
      "name": "ORTA MAH (AKSAKLAR KÖYÜ)",
      "area": "MERKEZKÖYLER",
      "postal_code": "81952"
    },
    {
      "id": 24113,
      "district_id": 316,
      "name": "ORTA MAH (HOCAKÖY KÖYÜ)",
      "area": "MERKEZKÖYLER",
      "postal_code": "81952"
    },
    {
      "id": 24114,
      "district_id": 316,
      "name": "OSMANCIK MAH (YILGI KÖYÜ)",
      "area": "MERKEZKÖYLER",
      "postal_code": "81952"
    },
    {
      "id": 24115,
      "district_id": 316,
      "name": "PINARCIK MAH (KOCAOĞLU KÖYÜ)",
      "area": "MERKEZKÖYLER",
      "postal_code": "81952"
    },
    {
      "id": 24116,
      "district_id": 316,
      "name": "RESULLER MAH (ÇUKURÖREN KÖYÜ)",
      "area": "MERKEZKÖYLER",
      "postal_code": "81952"
    },
    {
      "id": 24117,
      "district_id": 316,
      "name": "ŞABAN MAH (GÖKÇEAĞAÇ KÖYÜ)",
      "area": "MERKEZKÖYLER",
      "postal_code": "81952"
    },
    {
      "id": 24118,
      "district_id": 316,
      "name": "ŞABANLAR MAH (GÖKÇEAĞAÇ KÖYÜ)",
      "area": "MERKEZKÖYLER",
      "postal_code": "81952"
    },
    {
      "id": 24119,
      "district_id": 316,
      "name": "SALAVAT MAH (KIRIK KÖYÜ)",
      "area": "MERKEZKÖYLER",
      "postal_code": "81952"
    },
    {
      "id": 24120,
      "district_id": 316,
      "name": "SARIKAYA KÖYÜ",
      "area": "MERKEZKÖYLER",
      "postal_code": "81952"
    },
    {
      "id": 24121,
      "district_id": 316,
      "name": "ŞERENALTI MAH (NAŞLAR KÖYÜ)",
      "area": "MERKEZKÖYLER",
      "postal_code": "81952"
    },
    {
      "id": 24122,
      "district_id": 316,
      "name": "SETLİK MAH (GERİŞ KÖYÜ)",
      "area": "MERKEZKÖYLER",
      "postal_code": "81952"
    },
    {
      "id": 24123,
      "district_id": 316,
      "name": "TAVUKPINARI MAH (ÇAMLI KÖYÜ)",
      "area": "MERKEZKÖYLER",
      "postal_code": "81952"
    },
    {
      "id": 24124,
      "district_id": 316,
      "name": "TUĞRUL KÖYÜ",
      "area": "MERKEZKÖYLER",
      "postal_code": "81952"
    },
    {
      "id": 24125,
      "district_id": 316,
      "name": "TURNACILAR MAH (AKÇAÖREN KÖYÜ)",
      "area": "MERKEZKÖYLER",
      "postal_code": "81952"
    },
    {
      "id": 24126,
      "district_id": 316,
      "name": "VAYISLAR MAH (DOĞANLAR KÖYÜ)",
      "area": "MERKEZKÖYLER",
      "postal_code": "81952"
    },
    {
      "id": 24127,
      "district_id": 316,
      "name": "YAĞCILAR KÖYÜ",
      "area": "MERKEZKÖYLER",
      "postal_code": "81952"
    },
    {
      "id": 24128,
      "district_id": 316,
      "name": "YAPLAR MAH (KARAKAŞ KÖYÜ)",
      "area": "MERKEZKÖYLER",
      "postal_code": "81952"
    },
    {
      "id": 24129,
      "district_id": 316,
      "name": "YAYLATEPE KÖYÜ",
      "area": "MERKEZKÖYLER",
      "postal_code": "81952"
    },
    {
      "id": 24130,
      "district_id": 316,
      "name": "YOĞUNPELİT KÖYÜ",
      "area": "MERKEZKÖYLER",
      "postal_code": "81952"
    },
    {
      "id": 24131,
      "district_id": 316,
      "name": "YÖRÜKLER MAH (GÖKÇEAĞAÇ KÖYÜ)",
      "area": "MERKEZKÖYLER",
      "postal_code": "81952"
    },
    {
      "id": 24132,
      "district_id": 316,
      "name": "YUKARI AKÇAÖREN MAH (KOCAOĞLU KÖYÜ)",
      "area": "MERKEZKÖYLER",
      "postal_code": "81952"
    },
    {
      "id": 24133,
      "district_id": 316,
      "name": "YUKARI MAH (ÇAMLI KÖYÜ)",
      "area": "MERKEZKÖYLER",
      "postal_code": "81952"
    },
    {
      "id": 24134,
      "district_id": 316,
      "name": "YUKARI MAH (HACILAR KÖYÜ)",
      "area": "MERKEZKÖYLER",
      "postal_code": "81952"
    },
    {
      "id": 24135,
      "district_id": 316,
      "name": "YUKARI MAH (HOCAKÖY KÖYÜ)",
      "area": "MERKEZKÖYLER",
      "postal_code": "81952"
    },
    {
      "id": 24136,
      "district_id": 316,
      "name": "YUKARI MAH (YILGI KÖYÜ)",
      "area": "MERKEZKÖYLER",
      "postal_code": "81952"
    }
  ]
}