{
  "neighborhoods": [
    {
      "id": 25940,
      "district_id": 337,
      "name": "AHMETAĞA MAH (BÜYÜKYAYLAKÖY KÖYÜ)",
      "area": "MERKEZKÖYLER",
      "postal_code": "24503"
    },
    {
      "id": 25941,
      "district_id": 337,
      "name": "AKDAŞ MAH (GÖLLER KÖYÜ)",
      "area": "MERKEZKÖYLER",
      "postal_code": "24503"
    },
    {
      "id": 25942,
      "district_id": 337,
      "name": "AKDOĞAN MAH (BÜYÜKYAYLAKÖY KÖYÜ)",
      "area": "MERKEZKÖYLER",
      "postal_code": "24503"
    },
    {
      "id": 25943,
      "district_id": 337,
      "name": "ARITAŞ MAH (ÇİLLİGÖL KÖYÜ)",
      "area": "MERKEZKÖYLER",
      "postal_code": "24503"
    },
    {
      "id": 25944,
      "district_id": 337,
      "name": "AŞAĞI KOM MAH (ÇAYÖNÜ KÖYÜ)",
      "area": "MERKEZKÖYLER",
      "postal_code": "24503"
    },
    {
      "id": 25945,
      "district_id": 337,
      "name": "AŞAĞIÇAMURDERE KÖYÜ",
      "area": "MERKEZKÖYLER",
      "postal_code": "24503"
    },
    {
      "id": 25946,
      "district_id": 337,
      "name": "AŞAĞIKARTALLI KÖYÜ",
      "area": "MERKEZKÖYLER",
      "postal_code": "24503"
    },
    {
      "id": 25947,
      "district_id": 337,
      "name": "ATATÜRK MAH",
      "area": "ÇAYIRLI",
      "postal_code": "24500"
    },
    {
      "id": 25948,
      "district_id": 337,
      "name": "BALIKLI KÖYÜ",
      "area": "MERKEZKÖYLER",
      "postal_code": "24503"
    },
    {
      "id": 25949,
      "district_id": 337,
      "name": "BARBAROS MAH",
      "area": "ÇAYIRLI",
      "postal_code": "24500"
    },
    {
      "id": 25950,
      "district_id": 337,
      "name": "BAŞKÖY KÖYÜ",
      "area": "MERKEZKÖYLER",
      "postal_code": "24503"
    },
    {
      "id": 25951,
      "district_id": 337,
      "name": "BEYİN KOMU MAH (ÇAYKENT KÖYÜ)",
      "area": "MERKEZKÖYLER",
      "postal_code": "24503"
    },
    {
      "id": 25952,
      "district_id": 337,
      "name": "BÖLÜKOVA KÖYÜ",
      "area": "MERKEZKÖYLER",
      "postal_code": "24503"
    },
    {
      "id": 25953,
      "district_id": 337,
      "name": "BOTAŞ MAH (BAŞKÖY KÖYÜ)",
      "area": "MERKEZKÖYLER",
      "postal_code": "24503"
    },
    {
      "id": 25954,
      "district_id": 337,
      "name": "BOYBEYİ KÖYÜ",
      "area": "MERKEZKÖYLER",
      "postal_code": "24503"
    },
    {
      "id": 25955,
      "district_id": 337,
      "name": "BOZAĞA KÖYÜ",
      "area": "MERKEZKÖYLER",
      "postal_code": "24503"
    },
    {
      "id": 25956,
      "district_id": 337,
      "name": "BÜYÜKGELENGEÇ KÖYÜ",
      "area": "MERKEZKÖYLER",
      "postal_code": "24503"
    },
    {
      "id": 25957,
      "district_id": 337,
      "name": "BÜYÜKYAYLAKÖY KÖYÜ",
      "area": "MERKEZKÖYLER",
      "postal_code": "24503"
    },
    {
      "id": 25958,
      "district_id": 337,
      "name": "ÇATAKSU KÖYÜ",
      "area": "MERKEZKÖYLER",
      "postal_code": "24503"
    },
    {
      "id": 25959,
      "district_id": 337,
      "name": "ÇAYKENT KÖYÜ",
      "area": "MERKEZKÖYLER",
      "postal_code": "24503"
    },
    {
      "id": 25960,
      "district_id": 337,
      "name": "ÇAYÖNÜ KÖYÜ",
      "area": "MERKEZKÖYLER",
      "postal_code": "24503"
    },
    {
      "id": 25961,
      "district_id": 337,
      "name": "CENNETPINAR KÖYÜ",
      "area": "MERKEZKÖYLER",
      "postal_code": "24503"
    },
    {
      "id": 25962,
      "district_id": 337,
      "name": "ÇİLHOROZ KÖYÜ",
      "area": "MERKEZKÖYLER",
      "postal_code": "24503"
    },
    {
      "id": 25963,
      "district_id": 337,
      "name": "ÇİLLİGÖL KÖYÜ",
      "area": "MERKEZKÖYLER",
      "postal_code": "24503"
    },
    {
      "id": 25964,
      "district_id": 337,
      "name": "DELİKTAŞ MAH (ÇİLHOROZ KÖYÜ)",
      "area": "MERKEZKÖYLER",
      "postal_code": "24503"
    },
    {
      "id": 25965,
      "district_id": 337,
      "name": "DELİKTAŞ MAH (GÖLLER KÖYÜ)",
      "area": "MERKEZKÖYLER",
      "postal_code": "24503"
    },
    {
      "id": 25966,
      "district_id": 337,
      "name": "DİREKLİ MAH (BÜYÜKYAYLAKÖY KÖYÜ)",
      "area": "MERKEZKÖYLER",
      "postal_code": "24503"
    },
    {
      "id": 25967,
      "district_id": 337,
      "name": "DOĞANYUVA KÖYÜ",
      "area": "MERKEZKÖYLER",
      "postal_code": "24503"
    },
    {
      "id": 25968,
      "district_id": 337,
      "name": "DOLUCA KÖYÜ",
      "area": "MERKEZKÖYLER",
      "postal_code": "24503"
    },
    {
      "id": 25969,
      "district_id": 337,
      "name": "ERBAŞ İSTASYONU MAH (ÇATAKSU KÖYÜ)",
      "area": "MERKEZKÖYLER",
      "postal_code": "24503"
    },
    {
      "id": 25970,
      "district_id": 337,
      "name": "ESENDORUK KÖYÜ",
      "area": "MERKEZKÖYLER",
      "postal_code": "24503"
    },
    {
      "id": 25971,
      "district_id": 337,
      "name": "EŞMEPINAR KÖYÜ",
      "area": "MERKEZKÖYLER",
      "postal_code": "24503"
    },
    {
      "id": 25972,
      "district_id": 337,
      "name": "FATİH MAH",
      "area": "ÇAYIRLI",
      "postal_code": "24500"
    },
    {
      "id": 25973,
      "district_id": 337,
      "name": "GELİNPINAR KÖYÜ",
      "area": "MERKEZKÖYLER",
      "postal_code": "24503"
    },
    {
      "id": 25974,
      "district_id": 337,
      "name": "GÖLLER KÖYÜ",
      "area": "MERKEZKÖYLER",
      "postal_code": "24503"
    },
    {
      "id": 25975,
      "district_id": 337,
      "name": "HARMANTEPE KÖYÜ",
      "area": "MERKEZKÖYLER",
      "postal_code": "24503"
    },
    {
      "id": 25976,
      "district_id": 337,
      "name": "HASTARLA KÖYÜ",
      "area": "MERKEZKÖYLER",
      "postal_code": "24503"
    },
    {
      "id": 25977,
      "district_id": 337,
      "name": "HENEGE MAH (YAZIKAYA KÖYÜ)",
      "area": "MERKEZKÖYLER",
      "postal_code": "24503"
    },
    {
      "id": 25978,
      "district_id": 337,
      "name": "KAHNUT MAH (ÇAYÖNÜ KÖYÜ)",
      "area": "MERKEZKÖYLER",
      "postal_code": "24503"
    },
    {
      "id": 25979,
      "district_id": 337,
      "name": "KARAMELİK MAH (ÇAYÖNÜ KÖYÜ)",
      "area": "MERKEZKÖYLER",
      "postal_code": "24503"
    },
    {
      "id": 25980,
      "district_id": 337,
      "name": "KARATAŞ KÖYÜ",
      "area": "MERKEZKÖYLER",
      "postal_code": "24503"
    },
    {
      "id": 25981,
      "district_id": 337,
      "name": "KAVAKLI MAH (HASTARLA KÖYÜ)",
      "area": "MERKEZKÖYLER",
      "postal_code": "24503"
    },
    {
      "id": 25982,
      "district_id": 337,
      "name": "KÜÇÜKGELENGEÇ KÖYÜ",
      "area": "MERKEZKÖYLER",
      "postal_code": "24503"
    },
    {
      "id": 25983,
      "district_id": 337,
      "name": "KÜMBELER MAH (BÜYÜKYAYLAKÖY KÖYÜ)",
      "area": "MERKEZKÖYLER",
      "postal_code": "24503"
    },
    {
      "id": 25984,
      "district_id": 337,
      "name": "MAZLUMAĞA KÖYÜ",
      "area": "MERKEZKÖYLER",
      "postal_code": "24503"
    },
    {
      "id": 25985,
      "district_id": 337,
      "name": "MEZRA MAH (YAYLAKENT KÖYÜ)",
      "area": "MERKEZKÖYLER",
      "postal_code": "24503"
    },
    {
      "id": 25986,
      "district_id": 337,
      "name": "MİRZAOĞLU KÖYÜ",
      "area": "MERKEZKÖYLER",
      "postal_code": "24503"
    },
    {
      "id": 25987,
      "district_id": 337,
      "name": "OĞULTAŞI KÖYÜ",
      "area": "MERKEZKÖYLER",
      "postal_code": "24503"
    },
    {
      "id": 25988,
      "district_id": 337,
      "name": "ORTAÇAT KÖYÜ",
      "area": "MERKEZKÖYLER",
      "postal_code": "24503"
    },
    {
      "id": 25989,
      "district_id": 337,
      "name": "OZANLI KÖYÜ",
      "area": "MERKEZKÖYLER",
      "postal_code": "24503"
    },
    {
      "id": 25990,
      "district_id": 337,
      "name": "PAŞAYURDU KÖYÜ",
      "area": "MERKEZKÖYLER",
      "postal_code": "24503"
    },
    {
      "id": 25991,
      "district_id": 337,
      "name": "PINARLI KÖYÜ",
      "area": "MERKEZKÖYLER",
      "postal_code": "24503"
    },
    {
      "id": 25992,
      "district_id": 337,
      "name": "SARAYCIK KÖYÜ",
      "area": "MERKEZKÖYLER",
      "postal_code": "24503"
    },
    {
      "id": 25993,
      "district_id": 337,
      "name": "SARIGÜNEY KÖYÜ",
      "area": "MERKEZKÖYLER",
      "postal_code": "24503"
    },
    {
      "id": 25994,
      "district_id": 337,
      "name": "SAYGILI KÖYÜ",
      "area": "MERKEZKÖYLER",
      "postal_code": "24503"
    },
    {
      "id": 25995,
      "district_id": 337,
      "name": "ŞENLİK BABA MAH (OZANLI KÖYÜ)",
      "area": "MERKEZKÖYLER",
      "postal_code": "24503"
    },
    {
      "id": 25996,
      "district_id": 337,
      "name": "SIRATAŞ KÖYÜ",
      "area": "MERKEZKÖYLER",
      "postal_code": "24503"
    },
    {
      "id": 25997,
      "district_id": 337,
      "name": "TOPRAKKALE KÖYÜ",
      "area": "MERKEZKÖYLER",
      "postal_code": "24503"
    },
    {
      "id": 25998,
      "district_id": 337,
      "name": "TOSUNLAR KÖYÜ",
      "area": "MERKEZKÖYLER",
      "postal_code": "24503"
    },
    {
      "id": 25999,
      "district_id": 337,
      "name": "TURNAÇAYIRI KÖYÜ",
      "area": "MERKEZKÖYLER",
      "postal_code": "24503"
    },
    {
      "id": 26000,
      "district_id": 337,
      "name": "VERİMLİ KÖYÜ",
      "area": "MERKEZKÖYLER",
      "postal_code": "24503"
    },
    {
      "id": 26001,
      "district_id": 337,
      "name": "YAPRAKLI MAH (ÇATAKSU KÖYÜ)",
      "area": "MERKEZKÖYLER",
      "postal_code": "24503"
    },
    {
      "id": 26002,
      "district_id": 337,
      "name": "YAYLAKENT KÖYÜ",
      "area": "MERKEZKÖYLER",
      "postal_code": "24503"
    },
    {
      "id": 26003,
      "district_id": 337,
      "name": "YAYLALAR KÖYÜ",
      "area": "MERKEZKÖYLER",
      "postal_code": "24503"
    },
    {
      "id": 26004,
      "district_id": 337,
      "name": "YAZIKAYA KÖYÜ",
      "area": "MERKEZKÖYLER",
      "postal_code": "24503"
    },
    {
      "id": 26005,
      "district_id": 337,
      "name": "YEŞİLYAKA KÖYÜ",
      "area": "MERKEZKÖYLER",
      "postal_code": "24503"
    },
    {
      "id": 26006,
      "district_id": 337,
      "name": "YUKARIÇAMURDERE KÖYÜ",
      "area": "MERKEZKÖYLER",
      "postal_code": "24503"
    },
    {
      "id": 26007,
      "district_id": 337,
      "name": "YUKARIKARTALLI KÖYÜ",
      "area": "MERKEZKÖYLER",
      "postal_code": "24503"
    },
    {
      "id": 26008,
      "district_id": 337,
      "name": "YÜREKLİ KÖYÜ",
      "area": "MERKEZKÖYLER",
      "postal_code": "24503"
    },
    {
      "id": 26009,
      "district_id": 338,
      "name": "ABDULLAH PAŞA MAH",
      "area": "İLİÇ",
      "postal_code": "24700"
    },
    {
      "id": 26010,
      "district_id": 338,
      "name": "AKÇAYAZI KÖYÜ",
      "area": "MERKEZKÖYLER",
      "postal_code": "24710"
    },
    {
      "id": 26011,
      "district_id": 338,
      "name": "AKDOĞU KÖYÜ",
      "area": "MERKEZKÖYLER",
      "postal_code": "24710"
    },
    {
      "id": 26012,
      "district_id": 338,
      "name": "ALTINTAŞ KÖYÜ",
      "area": "MERKEZKÖYLER",
      "postal_code": "24710"
    },
    {
      "id": 26013,
      "district_id": 338,
      "name": "APUŞTA MAH (AĞILDERE KÖYÜ)",
      "area": "MERKEZKÖYLER",
      "postal_code": "24710"
    },
    {
      "id": 26014,
      "district_id": 338,
      "name": "ATMA KÖYÜ",
      "area": "MERKEZKÖYLER",
      "postal_code": "24710"
    },
    {
      "id": 26015,
      "district_id": 338,
      "name": "BAĞDERESİ MAH (TURGUTLU KÖYÜ)",
      "area": "MERKEZKÖYLER",
      "postal_code": "24710"
    },
    {
      "id": 26016,
      "district_id": 338,
      "name": "BAĞLICA KÖYÜ",
      "area": "MERKEZKÖYLER",
      "postal_code": "24710"
    },
    {
      "id": 26017,
      "district_id": 338,
      "name": "BAHÇECİK MAH (BAĞIŞTAŞ KÖYÜ)",
      "area": "MERKEZKÖYLER",
      "postal_code": "24710"
    },
    {
      "id": 26018,
      "district_id": 338,
      "name": "BALKAYA KÖYÜ",
      "area": "MERKEZKÖYLER",
      "postal_code": "24710"
    },
    {
      "id": 26019,
      "district_id": 338,
      "name": "BOYALIK KÖYÜ",
      "area": "MERKEZKÖYLER",
      "postal_code": "24710"
    },
    {
      "id": 26020,
      "district_id": 338,
      "name": "BOZÇALI KÖYÜ",
      "area": "MERKEZKÖYLER",
      "postal_code": "24710"
    },
    {
      "id": 26021,
      "district_id": 338,
      "name": "BOZYAYLA KÖYÜ",
      "area": "MERKEZKÖYLER",
      "postal_code": "24710"
    },
    {
      "id": 26022,
      "district_id": 338,
      "name": "BÜRÜNCEK KÖYÜ",
      "area": "MERKEZKÖYLER",
      "postal_code": "24710"
    },
    {
      "id": 26023,
      "district_id": 338,
      "name": "BÜYÜKARMUTLU KÖYÜ",
      "area": "MERKEZKÖYLER",
      "postal_code": "24710"
    },
    {
      "id": 26024,
      "district_id": 338,
      "name": "BÜYÜKGÜMÜŞLÜ KÖYÜ",
      "area": "MERKEZKÖYLER",
      "postal_code": "24710"
    },
    {
      "id": 26025,
      "district_id": 338,
      "name": "ÇALTI KÖYÜ",
      "area": "MERKEZKÖYLER",
      "postal_code": "24710"
    },
    {
      "id": 26026,
      "district_id": 338,
      "name": "ÇAYYAKA KÖYÜ",
      "area": "MERKEZKÖYLER",
      "postal_code": "24710"
    },
    {
      "id": 26027,
      "district_id": 338,
      "name": "ÇİFTLİK KÖYÜ",
      "area": "MERKEZKÖYLER",
      "postal_code": "24710"
    },
    {
      "id": 26028,
      "district_id": 338,
      "name": "ÇİLESİZ KÖYÜ",
      "area": "MERKEZKÖYLER",
      "postal_code": "24710"
    },
    {
      "id": 26029,
      "district_id": 338,
      "name": "ÇOBANLI KÖYÜ",
      "area": "MERKEZKÖYLER",
      "postal_code": "24710"
    },
    {
      "id": 26030,
      "district_id": 338,
      "name": "ÇÖPLER KÖYÜ",
      "area": "MERKEZKÖYLER",
      "postal_code": "24710"
    },
    {
      "id": 26031,
      "district_id": 338,
      "name": "ÇÖREKLİ KÖYÜ",
      "area": "MERKEZKÖYLER",
      "postal_code": "24710"
    },
    {
      "id": 26032,
      "district_id": 338,
      "name": "DİKMEN KÖYÜ",
      "area": "MERKEZKÖYLER",
      "postal_code": "24710"
    },
    {
      "id": 26033,
      "district_id": 338,
      "name": "DOĞAN KÖYÜ",
      "area": "MERKEZKÖYLER",
      "postal_code": "24710"
    },
    {
      "id": 26034,
      "district_id": 338,
      "name": "DOLUGÜN KÖYÜ",
      "area": "MERKEZKÖYLER",
      "postal_code": "24710"
    },
    {
      "id": 26035,
      "district_id": 338,
      "name": "DORUKSARAY KÖYÜ",
      "area": "MERKEZKÖYLER",
      "postal_code": "24710"
    },
    {
      "id": 26036,
      "district_id": 338,
      "name": "DOSTAL KÖYÜ",
      "area": "MERKEZKÖYLER",
      "postal_code": "24710"
    },
    {
      "id": 26037,
      "district_id": 338,
      "name": "FATİH MAH",
      "area": "İLİÇ",
      "postal_code": "24700"
    },
    {
      "id": 26038,
      "district_id": 338,
      "name": "GARİPÇAY MAH (ÇAYYAKA KÖYÜ)",
      "area": "MERKEZKÖYLER",
      "postal_code": "24710"
    },
    {
      "id": 26039,
      "district_id": 338,
      "name": "GÜNGÖREN KÖYÜ",
      "area": "MERKEZKÖYLER",
      "postal_code": "24710"
    },
    {
      "id": 26040,
      "district_id": 338,
      "name": "HASANOVA MAH (BOYALIK KÖYÜ)",
      "area": "MERKEZKÖYLER",
      "postal_code": "24710"
    },
    {
      "id": 26041,
      "district_id": 338,
      "name": "İBRAHİM ÇEÇEN MAH",
      "area": "İLİÇ",
      "postal_code": "24700"
    },
    {
      "id": 26042,
      "district_id": 338,
      "name": "İSLAMKÖY KÖYÜ",
      "area": "MERKEZKÖYLER",
      "postal_code": "24710"
    },
    {
      "id": 26043,
      "district_id": 338,
      "name": "KAPIKAYA KÖYÜ",
      "area": "MERKEZKÖYLER",
      "postal_code": "24710"
    },
    {
      "id": 26044,
      "district_id": 338,
      "name": "KARAKAYA KÖYÜ",
      "area": "MERKEZKÖYLER",
      "postal_code": "24710"
    },
    {
      "id": 26045,
      "district_id": 338,
      "name": "KAYACIK KÖYÜ",
      "area": "MERKEZKÖYLER",
      "postal_code": "24710"
    },
    {
      "id": 26046,
      "district_id": 338,
      "name": "KAYMAKLI KÖYÜ",
      "area": "MERKEZKÖYLER",
      "postal_code": "24710"
    },
    {
      "id": 26047,
      "district_id": 338,
      "name": "KAZIM KARABEKİR MAH",
      "area": "İLİÇ",
      "postal_code": "24700"
    },
    {
      "id": 26048,
      "district_id": 338,
      "name": "KONUKCU KÖYÜ",
      "area": "MERKEZKÖYLER",
      "postal_code": "24710"
    },
    {
      "id": 26049,
      "district_id": 338,
      "name": "KOZLUCA KÖYÜ",
      "area": "MERKEZKÖYLER",
      "postal_code": "24710"
    },
    {
      "id": 26050,
      "district_id": 338,
      "name": "KÜÇÜKARMUTLU KÖYÜ",
      "area": "MERKEZKÖYLER",
      "postal_code": "24710"
    },
    {
      "id": 26051,
      "district_id": 338,
      "name": "KÜÇÜKGÜMÜŞLÜ KÖYÜ",
      "area": "MERKEZKÖYLER",
      "postal_code": "24710"
    },
    {
      "id": 26052,
      "district_id": 338,
      "name": "KÜPLÜCE MAH (SARIKONAK KÖYÜ)",
      "area": "MERKEZKÖYLER",
      "postal_code": "24710"
    },
    {
      "id": 26053,
      "district_id": 338,
      "name": "KURAN KÖYÜ",
      "area": "MERKEZKÖYLER",
      "postal_code": "24710"
    },
    {
      "id": 26054,
      "district_id": 338,
      "name": "KUZKIŞLA KÖYÜ",
      "area": "MERKEZKÖYLER",
      "postal_code": "24710"
    },
    {
      "id": 26055,
      "district_id": 338,
      "name": "LEVENT PINARI KÖYÜ",
      "area": "MERKEZKÖYLER",
      "postal_code": "24710"
    },
    {
      "id": 26056,
      "district_id": 338,
      "name": "MERKEZ MAH (AĞILDERE KÖYÜ)",
      "area": "MERKEZKÖYLER",
      "postal_code": "24710"
    },
    {
      "id": 26057,
      "district_id": 338,
      "name": "MERKEZ MAH (BAĞCAĞIZ KÖYÜ)",
      "area": "MERKEZKÖYLER",
      "postal_code": "24710"
    },
    {
      "id": 26058,
      "district_id": 338,
      "name": "MERKEZ MAH (BAĞIŞTAŞ KÖYÜ)",
      "area": "MERKEZKÖYLER",
      "postal_code": "24710"
    },
    {
      "id": 26059,
      "district_id": 338,
      "name": "MERKEZ MAH (BÜYÜKKÖY KÖYÜ)",
      "area": "MERKEZKÖYLER",
      "postal_code": "24710"
    },
    {
      "id": 26060,
      "district_id": 338,
      "name": "MERKEZ MAH (ÇAYLI KÖYÜ)",
      "area": "MERKEZKÖYLER",
      "postal_code": "24710"
    },
    {
      "id": 26061,
      "district_id": 338,
      "name": "MERKEZ MAH (KURUÇAY KÖYÜ)",
      "area": "MERKEZKÖYLER",
      "postal_code": "24710"
    },
    {
      "id": 26062,
      "district_id": 338,
      "name": "ORTA AĞILDERE MAH (AĞILDERE KÖYÜ)",
      "area": "MERKEZKÖYLER",
      "postal_code": "24710"
    },
    {
      "id": 26063,
      "district_id": 338,
      "name": "ORTATEPE KÖYÜ",
      "area": "MERKEZKÖYLER",
      "postal_code": "24710"
    },
    {
      "id": 26064,
      "district_id": 338,
      "name": "ÖZLÜ KÖYÜ",
      "area": "MERKEZKÖYLER",
      "postal_code": "24710"
    },
    {
      "id": 26065,
      "district_id": 338,
      "name": "SABIRLI KÖYÜ",
      "area": "MERKEZKÖYLER",
      "postal_code": "24710"
    },
    {
      "id": 26066,
      "district_id": 338,
      "name": "SAĞ MAH (BAĞCAĞIZ KÖYÜ)",
      "area": "MERKEZKÖYLER",
      "postal_code": "24710"
    },
    {
      "id": 26067,
      "district_id": 338,
      "name": "SARIKONAK KÖYÜ",
      "area": "MERKEZKÖYLER",
      "postal_code": "24710"
    },
    {
      "id": 26068,
      "district_id": 338,
      "name": "SARIPINAR KÖYÜ",
      "area": "MERKEZKÖYLER",
      "postal_code": "24710"
    },
    {
      "id": 26069,
      "district_id": 338,
      "name": "SULARBAŞI KÖYÜ",
      "area": "MERKEZKÖYLER",
      "postal_code": "24710"
    },
    {
      "id": 26070,
      "district_id": 338,
      "name": "SÜTLÜCE KÖYÜ",
      "area": "MERKEZKÖYLER",
      "postal_code": "24710"
    },
    {
      "id": 26071,
      "district_id": 338,
      "name": "TABANLI KÖYÜ",
      "area": "MERKEZKÖYLER",
      "postal_code": "24710"
    },
    {
      "id": 26072,
      "district_id": 338,
      "name": "TARDERE MAH (KURUÇAY KÖYÜ)",
      "area": "MERKEZKÖYLER",
      "postal_code": "24710"
    },
    {
      "id": 26073,
      "district_id": 338,
      "name": "TAŞKONAK MAH (BÜYÜKKÖY KÖYÜ)",
      "area": "MERKEZKÖYLER",
      "postal_code": "24710"
    },
    {
      "id": 26074,
      "district_id": 338,
      "name": "TURGUTLU KÖYÜ",
      "area": "MERKEZKÖYLER",
      "postal_code": "24710"
    },
    {
      "id": 26075,
      "district_id": 338,
      "name": "UĞUR KÖYÜ",
      "area": "MERKEZKÖYLER",
      "postal_code": "24710"
    },
    {
      "id": 26076,
      "district_id": 338,
      "name": "ULUYAMAÇ KÖYÜ",
      "area": "MERKEZKÖYLER",
      "postal_code": "24710"
    },
    {
      "id": 26077,
      "district_id": 338,
      "name": "YAKUPLU KÖYÜ",
      "area": "MERKEZKÖYLER",
      "postal_code": "24710"
    },
    {
      "id": 26078,
      "district_id": 338,
      "name": "YALINGÖZE KÖYÜ",
      "area": "MERKEZKÖYLER",
      "postal_code": "24710"
    },
    {
      "id": 26079,
      "district_id": 338,
      "name": "YAYLAPINAR KÖYÜ",
      "area": "MERKEZKÖYLER",
      "postal_code": "24710"
    },
    {
      "id": 26080,
      "district_id": 338,
      "name": "YEŞİLYURT MAH (ÇALTI KÖYÜ)",
      "area": "MERKEZKÖYLER",
      "postal_code": "24710"
    },
    {
      "id": 26081,
      "district_id": 338,
      "name": "YILMAZ KÖYÜ",
      "area": "MERKEZKÖYLER",
      "postal_code": "24710"
    },
    {
      "id": 26082,
      "district_id": 338,
      "name": "YUKARI AĞILDERE MAH (AĞILDERE KÖYÜ)",
      "area": "MERKEZKÖYLER",
      "postal_code": "24710"
    },
    {
      "id": 26083,
      "district_id": 339,
      "name": "AĞABA MAH (MURATBOYNU KÖYÜ)",
      "area": "MERKEZKÖYLER",
      "postal_code": "24402"
    },
    {
      "id": 26084,
      "district_id": 339,
      "name": "AĞAÇSARAY KÖYÜ",
      "area": "MERKEZKÖYLER",
      "postal_code": "24402"
    },
    {
      "id": 26085,
      "district_id": 339,
      "name": "AKBUDAK KÖYÜ",
      "area": "MERKEZKÖYLER",
      "postal_code": "24402"
    },
    {
      "id": 26086,
      "district_id": 339,
      "name": "AKÇA KÖYÜ",
      "area": "MERKEZKÖYLER",
      "postal_code": "24402"
    },
    {
      "id": 26087,
      "district_id": 339,
      "name": "AKSAKAL MAH (OLUKPINAR KÖYÜ)",
      "area": "MERKEZKÖYLER",
      "postal_code": "24402"
    },
    {
      "id": 26088,
      "district_id": 339,
      "name": "AKTAŞ KÖYÜ",
      "area": "MERKEZKÖYLER",
      "postal_code": "24402"
    },
    {
      "id": 26089,
      "district_id": 339,
      "name": "AKYÜNLÜ KÖYÜ",
      "area": "MERKEZKÖYLER",
      "postal_code": "24402"
    },
    {
      "id": 26090,
      "district_id": 339,
      "name": "ALİGICİKGİL MAH (KARACA KÖYÜ)",
      "area": "MERKEZKÖYLER",
      "postal_code": "24402"
    },
    {
      "id": 26091,
      "district_id": 339,
      "name": "ALP KÖYÜ",
      "area": "MERKEZKÖYLER",
      "postal_code": "24402"
    },
    {
      "id": 26092,
      "district_id": 339,
      "name": "ANTAK MAH (KERER KÖYÜ)",
      "area": "MERKEZKÖYLER",
      "postal_code": "24402"
    },
    {
      "id": 26093,
      "district_id": 339,
      "name": "AŞAĞI MAH (DİKYAMAÇ KÖYÜ)",
      "area": "MERKEZKÖYLER",
      "postal_code": "24402"
    },
    {
      "id": 26094,
      "district_id": 339,
      "name": "AŞAĞI MAH (ELMALI KÖYÜ)",
      "area": "MERKEZKÖYLER",
      "postal_code": "24402"
    },
    {
      "id": 26095,
      "district_id": 339,
      "name": "AŞAĞI MAH (KÖMÜR KÖYÜ)",
      "area": "MERKEZKÖYLER",
      "postal_code": "24402"
    },
    {
      "id": 26096,
      "district_id": 339,
      "name": "AŞAĞI MAH (YASTIKTEPE KÖYÜ)",
      "area": "MERKEZKÖYLER",
      "postal_code": "24402"
    },
    {
      "id": 26097,
      "district_id": 339,
      "name": "AŞAĞIAVCILAR MAH (BOZOĞLAK KÖYÜ)",
      "area": "MERKEZKÖYLER",
      "postal_code": "24402"
    },
    {
      "id": 26098,
      "district_id": 339,
      "name": "AŞAĞIAVCILAR MAH (KARDERE KÖYÜ)",
      "area": "MERKEZKÖYLER",
      "postal_code": "24402"
    },
    {
      "id": 26099,
      "district_id": 339,
      "name": "AŞAĞIGEDİK MAH",
      "area": "KEMAH",
      "postal_code": "24400"
    },
    {
      "id": 26100,
      "district_id": 339,
      "name": "ATEŞLER MAH (KARACA KÖYÜ)",
      "area": "MERKEZKÖYLER",
      "postal_code": "24402"
    },
    {
      "id": 26101,
      "district_id": 339,
      "name": "AYRANPINAR KÖYÜ",
      "area": "MERKEZKÖYLER",
      "postal_code": "24402"
    },
    {
      "id": 26102,
      "district_id": 339,
      "name": "BAĞLARBAŞI MAH (KOÇKAR KÖYÜ)",
      "area": "MERKEZKÖYLER",
      "postal_code": "24402"
    },
    {
      "id": 26103,
      "district_id": 339,
      "name": "BAHÇE MAH (CEVİZLİK KÖYÜ)",
      "area": "MERKEZKÖYLER",
      "postal_code": "24402"
    },
    {
      "id": 26104,
      "district_id": 339,
      "name": "BALKAYA MAH (YAHŞİLER KÖYÜ)",
      "area": "MERKEZKÖYLER",
      "postal_code": "24402"
    },
    {
      "id": 26105,
      "district_id": 339,
      "name": "BALLI KIŞLA MAH (GEDİKTEPE KÖYÜ)",
      "area": "MERKEZKÖYLER",
      "postal_code": "24402"
    },
    {
      "id": 26106,
      "district_id": 339,
      "name": "BEKLİMÇAY MAH",
      "area": "KEMAH",
      "postal_code": "24400"
    },
    {
      "id": 26107,
      "district_id": 339,
      "name": "BUZLA MAH (GEDİKTEPE KÖYÜ)",
      "area": "MERKEZKÖYLER",
      "postal_code": "24402"
    },
    {
      "id": 26108,
      "district_id": 339,
      "name": "ÇAKŞIR MAH (ATMA KÖYÜ)",
      "area": "MERKEZKÖYLER",
      "postal_code": "24402"
    },
    {
      "id": 26109,
      "district_id": 339,
      "name": "ÇALGI KÖYÜ",
      "area": "MERKEZKÖYLER",
      "postal_code": "24402"
    },
    {
      "id": 26110,
      "district_id": 339,
      "name": "ÇALIKLAR KÖYÜ",
      "area": "MERKEZKÖYLER",
      "postal_code": "24402"
    },
    {
      "id": 26111,
      "district_id": 339,
      "name": "ÇALOLAR MAH (KARACA KÖYÜ)",
      "area": "MERKEZKÖYLER",
      "postal_code": "24402"
    },
    {
      "id": 26112,
      "district_id": 339,
      "name": "ÇAMLIYAYLA KÖYÜ",
      "area": "MERKEZKÖYLER",
      "postal_code": "24402"
    },
    {
      "id": 26113,
      "district_id": 339,
      "name": "ÇARŞI MAH",
      "area": "KEMAH",
      "postal_code": "24400"
    },
    {
      "id": 26114,
      "district_id": 339,
      "name": "ÇAY MAH (BOZOĞLAK KÖYÜ)",
      "area": "MERKEZKÖYLER",
      "postal_code": "24402"
    },
    {
      "id": 26115,
      "district_id": 339,
      "name": "ÇAY MAH (ÇİĞDEMLİ KÖYÜ)",
      "area": "MERKEZKÖYLER",
      "postal_code": "24402"
    },
    {
      "id": 26116,
      "district_id": 339,
      "name": "ÇAY MAH (DİKYAMAÇ KÖYÜ)",
      "area": "MERKEZKÖYLER",
      "postal_code": "24402"
    },
    {
      "id": 26117,
      "district_id": 339,
      "name": "ÇAY MAH (KOÇKAR KÖYÜ)",
      "area": "MERKEZKÖYLER",
      "postal_code": "24402"
    },
    {
      "id": 26118,
      "district_id": 339,
      "name": "ÇAY MAH (MURATBOYNU KÖYÜ)",
      "area": "MERKEZKÖYLER",
      "postal_code": "24402"
    },
    {
      "id": 26119,
      "district_id": 339,
      "name": "CEBESOY İSTASYONU MAH (KÜPLÜ KÖYÜ)",
      "area": "MERKEZKÖYLER",
      "postal_code": "24402"
    },
    {
      "id": 26120,
      "district_id": 339,
      "name": "CEMOLAR MAH (KARACA KÖYÜ)",
      "area": "MERKEZKÖYLER",
      "postal_code": "24402"
    },
    {
      "id": 26121,
      "district_id": 339,
      "name": "CEVİZLİ MAH (CEVİZLİK KÖYÜ)",
      "area": "MERKEZKÖYLER",
      "postal_code": "24402"
    },
    {
      "id": 26122,
      "district_id": 339,
      "name": "CİRGİŞİN MAH",
      "area": "KEMAH",
      "postal_code": "24400"
    },
    {
      "id": 26123,
      "district_id": 339,
      "name": "DEDEK KÖYÜ",
      "area": "MERKEZKÖYLER",
      "postal_code": "24402"
    },
    {
      "id": 26124,
      "district_id": 339,
      "name": "DEDEOĞLU KÖYÜ",
      "area": "MERKEZKÖYLER",
      "postal_code": "24402"
    },
    {
      "id": 26125,
      "district_id": 339,
      "name": "DERE KÖYÜ",
      "area": "MERKEZKÖYLER",
      "postal_code": "24402"
    },
    {
      "id": 26126,
      "district_id": 339,
      "name": "DOĞAN KÖYÜ",
      "area": "MERKEZKÖYLER",
      "postal_code": "24402"
    },
    {
      "id": 26127,
      "district_id": 339,
      "name": "DOĞANBEYLİ KÖYÜ",
      "area": "MERKEZKÖYLER",
      "postal_code": "24402"
    },
    {
      "id": 26128,
      "district_id": 339,
      "name": "DOLMABAHÇE MAH (HAKBİLİR KÖYÜ)",
      "area": "MERKEZKÖYLER",
      "postal_code": "24402"
    },
    {
      "id": 26129,
      "district_id": 339,
      "name": "DORUCA KÖYÜ",
      "area": "MERKEZKÖYLER",
      "postal_code": "24402"
    },
    {
      "id": 26130,
      "district_id": 339,
      "name": "DUTLU KÖYÜ",
      "area": "MERKEZKÖYLER",
      "postal_code": "24402"
    },
    {
      "id": 26131,
      "district_id": 339,
      "name": "ELMALI MAH (SERİNGÖZE KÖYÜ)",
      "area": "MERKEZKÖYLER",
      "postal_code": "24402"
    },
    {
      "id": 26132,
      "district_id": 339,
      "name": "ESENTEPE MAH (YAHŞİLER KÖYÜ)",
      "area": "MERKEZKÖYLER",
      "postal_code": "24402"
    },
    {
      "id": 26133,
      "district_id": 339,
      "name": "ESİMLİ KÖYÜ",
      "area": "MERKEZKÖYLER",
      "postal_code": "24402"
    },
    {
      "id": 26134,
      "district_id": 339,
      "name": "ESKİ KÖY MAH (BEŞİKLİ KÖYÜ)",
      "area": "MERKEZKÖYLER",
      "postal_code": "24402"
    },
    {
      "id": 26135,
      "district_id": 339,
      "name": "ESKİBAĞLAR KÖYÜ",
      "area": "MERKEZKÖYLER",
      "postal_code": "24402"
    },
    {
      "id": 26136,
      "district_id": 339,
      "name": "GAVURYURDU MAH (KEDEK KÖYÜ)",
      "area": "MERKEZKÖYLER",
      "postal_code": "24402"
    },
    {
      "id": 26137,
      "district_id": 339,
      "name": "GİNDİRA MAH (GÖLKAYNAK KÖYÜ)",
      "area": "MERKEZKÖYLER",
      "postal_code": "24402"
    },
    {
      "id": 26138,
      "district_id": 339,
      "name": "GÖĞÜSBAĞI MAH",
      "area": "KEMAH",
      "postal_code": "24400"
    },
    {
      "id": 26139,
      "district_id": 339,
      "name": "GÖKDERE MAH (GÖKKAYA KÖYÜ)",
      "area": "MERKEZKÖYLER",
      "postal_code": "24402"
    },
    {
      "id": 26140,
      "district_id": 339,
      "name": "GÖLBAŞI MAH (KÜPLÜ KÖYÜ)",
      "area": "MERKEZKÖYLER",
      "postal_code": "24402"
    },
    {
      "id": 26141,
      "district_id": 339,
      "name": "GÖLKAYNAK KÖYÜ",
      "area": "MERKEZKÖYLER",
      "postal_code": "24402"
    },
    {
      "id": 26142,
      "district_id": 339,
      "name": "GÜLBAHÇE KÖYÜ",
      "area": "MERKEZKÖYLER",
      "postal_code": "24402"
    },
    {
      "id": 26143,
      "district_id": 339,
      "name": "GÜLLÜBAĞ MAH (KAYABAŞI KÖYÜ)",
      "area": "MERKEZKÖYLER",
      "postal_code": "24402"
    },
    {
      "id": 26144,
      "district_id": 339,
      "name": "HACIKOMU MAH (KARACA KÖYÜ)",
      "area": "MERKEZKÖYLER",
      "postal_code": "24402"
    },
    {
      "id": 26145,
      "district_id": 339,
      "name": "HAKBİLİR KÖYÜ",
      "area": "MERKEZKÖYLER",
      "postal_code": "24402"
    },
    {
      "id": 26146,
      "district_id": 339,
      "name": "ILGARLI KÖYÜ",
      "area": "MERKEZKÖYLER",
      "postal_code": "24402"
    },
    {
      "id": 26147,
      "district_id": 339,
      "name": "İNCEDERE KÖYÜ",
      "area": "MERKEZKÖYLER",
      "postal_code": "24402"
    },
    {
      "id": 26148,
      "district_id": 339,
      "name": "İNCESU MAH (HAKBİLİR KÖYÜ)",
      "area": "MERKEZKÖYLER",
      "postal_code": "24402"
    },
    {
      "id": 26149,
      "district_id": 339,
      "name": "KALEMİS MAH (MURATBOYNU KÖYÜ)",
      "area": "MERKEZKÖYLER",
      "postal_code": "24402"
    },
    {
      "id": 26150,
      "district_id": 339,
      "name": "KARADAĞ KÖYÜ",
      "area": "MERKEZKÖYLER",
      "postal_code": "24402"
    },
    {
      "id": 26151,
      "district_id": 339,
      "name": "KARAMUSTAFALAR MAH (KARACA KÖYÜ)",
      "area": "MERKEZKÖYLER",
      "postal_code": "24402"
    },
    {
      "id": 26152,
      "district_id": 339,
      "name": "KARDERE KÖYÜ",
      "area": "MERKEZKÖYLER",
      "postal_code": "24402"
    },
    {
      "id": 26153,
      "district_id": 339,
      "name": "KARDEŞLER MAH (ŞAHİNTEPE KÖYÜ)",
      "area": "MERKEZKÖYLER",
      "postal_code": "24402"
    },
    {
      "id": 26154,
      "district_id": 339,
      "name": "KARŞIBAĞ MAH",
      "area": "KEMAH",
      "postal_code": "24400"
    },
    {
      "id": 26155,
      "district_id": 339,
      "name": "KARŞIYAKA MAH (KOÇKAR KÖYÜ)",
      "area": "MERKEZKÖYLER",
      "postal_code": "24402"
    },
    {
      "id": 26156,
      "district_id": 339,
      "name": "KAYABAŞI KÖYÜ",
      "area": "MERKEZKÖYLER",
      "postal_code": "24402"
    },
    {
      "id": 26157,
      "district_id": 339,
      "name": "KAZANKAYA KÖYÜ",
      "area": "MERKEZKÖYLER",
      "postal_code": "24402"
    },
    {
      "id": 26158,
      "district_id": 339,
      "name": "KEDEK KÖYÜ",
      "area": "MERKEZKÖYLER",
      "postal_code": "24402"
    },
    {
      "id": 26159,
      "district_id": 339,
      "name": "KEMERYAKA KÖYÜ",
      "area": "MERKEZKÖYLER",
      "postal_code": "24402"
    },
    {
      "id": 26160,
      "district_id": 339,
      "name": "KIRIKDERE KÖYÜ",
      "area": "MERKEZKÖYLER",
      "postal_code": "24402"
    },
    {
      "id": 26161,
      "district_id": 339,
      "name": "KIZILMAĞARA MAH (ATMA KÖYÜ)",
      "area": "MERKEZKÖYLER",
      "postal_code": "24402"
    },
    {
      "id": 26162,
      "district_id": 339,
      "name": "KIZILPINAR MAH (KOÇKAR KÖYÜ)",
      "area": "MERKEZKÖYLER",
      "postal_code": "24402"
    },
    {
      "id": 26163,
      "district_id": 339,
      "name": "KIZILYAZI MAH (YASTIKTEPE KÖYÜ)",
      "area": "MERKEZKÖYLER",
      "postal_code": "24402"
    },
    {
      "id": 26164,
      "district_id": 339,
      "name": "KONUKSEVER KÖYÜ",
      "area": "MERKEZKÖYLER",
      "postal_code": "24402"
    },
    {
      "id": 26165,
      "district_id": 339,
      "name": "KORUYOLU KÖYÜ",
      "area": "MERKEZKÖYLER",
      "postal_code": "24402"
    },
    {
      "id": 26166,
      "district_id": 339,
      "name": "KÖSELER MAH (MAKSUTUŞAĞI KÖYÜ)",
      "area": "MERKEZKÖYLER",
      "postal_code": "24402"
    },
    {
      "id": 26167,
      "district_id": 339,
      "name": "KURT BAHÇESİ MAH (ELMALI KÖYÜ)",
      "area": "MERKEZKÖYLER",
      "postal_code": "24402"
    },
    {
      "id": 26168,
      "district_id": 339,
      "name": "KUŞLU MAH (TAŞBULAK KÖYÜ)",
      "area": "MERKEZKÖYLER",
      "postal_code": "24402"
    },
    {
      "id": 26169,
      "district_id": 339,
      "name": "KUTLUOVA KÖYÜ",
      "area": "MERKEZKÖYLER",
      "postal_code": "24402"
    },
    {
      "id": 26170,
      "district_id": 339,
      "name": "MEKTEPÖNÜ MAH",
      "area": "KEMAH",
      "postal_code": "24400"
    },
    {
      "id": 26171,
      "district_id": 339,
      "name": "MERKEZ MAH (ATMA KÖYÜ)",
      "area": "MERKEZKÖYLER",
      "postal_code": "24402"
    },
    {
      "id": 26172,
      "district_id": 339,
      "name": "MERKEZ MAH (BEŞİKLİ KÖYÜ)",
      "area": "MERKEZKÖYLER",
      "postal_code": "24402"
    },
    {
      "id": 26173,
      "district_id": 339,
      "name": "MERKEZ MAH (BOĞAZİÇİ KÖYÜ)",
      "area": "MERKEZKÖYLER",
      "postal_code": "24402"
    },
    {
      "id": 26174,
      "district_id": 339,
      "name": "MERKEZ MAH (BOZOĞLAK KÖYÜ)",
      "area": "MERKEZKÖYLER",
      "postal_code": "24402"
    },
    {
      "id": 26175,
      "district_id": 339,
      "name": "MERKEZ MAH (ÇAKIRLAR KÖYÜ)",
      "area": "MERKEZKÖYLER",
      "postal_code": "24402"
    },
    {
      "id": 26176,
      "district_id": 339,
      "name": "MERKEZ MAH (CEVİZLİK KÖYÜ)",
      "area": "MERKEZKÖYLER",
      "postal_code": "24402"
    },
    {
      "id": 26177,
      "district_id": 339,
      "name": "MERKEZ MAH (ÇİĞDEMLİ KÖYÜ)",
      "area": "MERKEZKÖYLER",
      "postal_code": "24402"
    },
    {
      "id": 26178,
      "district_id": 339,
      "name": "MERKEZ MAH (DERE KÖYÜ)",
      "area": "MERKEZKÖYLER",
      "postal_code": "24402"
    },
    {
      "id": 26179,
      "district_id": 339,
      "name": "MERKEZ MAH (DİKYAMAÇ KÖYÜ)",
      "area": "MERKEZKÖYLER",
      "postal_code": "24402"
    },
    {
      "id": 26180,
      "district_id": 339,
      "name": "MERKEZ MAH (ERİÇ KÖYÜ)",
      "area": "MERKEZKÖYLER",
      "postal_code": "24402"
    },
    {
      "id": 26181,
      "district_id": 339,
      "name": "MERKEZ MAH (GEDİKTEPE KÖYÜ)",
      "area": "MERKEZKÖYLER",
      "postal_code": "24402"
    },
    {
      "id": 26182,
      "district_id": 339,
      "name": "MERKEZ MAH (GÖKKAYA KÖYÜ)",
      "area": "MERKEZKÖYLER",
      "postal_code": "24402"
    },
    {
      "id": 26183,
      "district_id": 339,
      "name": "MERKEZ MAH (KARDERE KÖYÜ)",
      "area": "MERKEZKÖYLER",
      "postal_code": "24402"
    },
    {
      "id": 26184,
      "district_id": 339,
      "name": "MERKEZ MAH (KERER KÖYÜ)",
      "area": "MERKEZKÖYLER",
      "postal_code": "24402"
    },
    {
      "id": 26185,
      "district_id": 339,
      "name": "MERKEZ MAH (KÜPLÜ KÖYÜ)",
      "area": "MERKEZKÖYLER",
      "postal_code": "24402"
    },
    {
      "id": 26186,
      "district_id": 339,
      "name": "MERKEZ MAH (MAKSUTUŞAĞI KÖYÜ)",
      "area": "MERKEZKÖYLER",
      "postal_code": "24402"
    },
    {
      "id": 26187,
      "district_id": 339,
      "name": "MERKEZ MAH (MURATBOYNU KÖYÜ)",
      "area": "MERKEZKÖYLER",
      "postal_code": "24402"
    },
    {
      "id": 26188,
      "district_id": 339,
      "name": "MERKEZ MAH (OLUKPINAR KÖYÜ)",
      "area": "MERKEZKÖYLER",
      "postal_code": "24402"
    },
    {
      "id": 26189,
      "district_id": 339,
      "name": "MERKEZ MAH (ŞAHİNTEPE KÖYÜ)",
      "area": "MERKEZKÖYLER",
      "postal_code": "24402"
    },
    {
      "id": 26190,
      "district_id": 339,
      "name": "MERKEZ MAH (SERİNGÖZE KÖYÜ)",
      "area": "MERKEZKÖYLER",
      "postal_code": "24402"
    },
    {
      "id": 26191,
      "district_id": 339,
      "name": "MERKEZ MAH (TAŞBULAK KÖYÜ)",
      "area": "MERKEZKÖYLER",
      "postal_code": "24402"
    },
    {
      "id": 26192,
      "district_id": 339,
      "name": "MERKEZ MAH (YAHŞİLER KÖYÜ)",
      "area": "MERKEZKÖYLER",
      "postal_code": "24402"
    },
    {
      "id": 26193,
      "district_id": 339,
      "name": "MERMERLİ KÖYÜ",
      "area": "MERKEZKÖYLER",
      "postal_code": "24402"
    },
    {
      "id": 26194,
      "district_id": 339,
      "name": "MEZRA KÖYÜ",
      "area": "MERKEZKÖYLER",
      "postal_code": "24402"
    },
    {
      "id": 26195,
      "district_id": 339,
      "name": "OĞUZ KÖYÜ",
      "area": "MERKEZKÖYLER",
      "postal_code": "24402"
    },
    {
      "id": 26196,
      "district_id": 339,
      "name": "ORTA MAH (KÖMÜR KÖYÜ)",
      "area": "MERKEZKÖYLER",
      "postal_code": "24402"
    },
    {
      "id": 26197,
      "district_id": 339,
      "name": "ORTAGEDİK MAH",
      "area": "KEMAH",
      "postal_code": "24400"
    },
    {
      "id": 26198,
      "district_id": 339,
      "name": "ÖTEGEÇE MAH (KERER KÖYÜ)",
      "area": "MERKEZKÖYLER",
      "postal_code": "24402"
    },
    {
      "id": 26199,
      "district_id": 339,
      "name": "ÖZDAMAR KÖYÜ",
      "area": "MERKEZKÖYLER",
      "postal_code": "24402"
    },
    {
      "id": 26200,
      "district_id": 339,
      "name": "PARMAKKAYA KÖYÜ",
      "area": "MERKEZKÖYLER",
      "postal_code": "24402"
    },
    {
      "id": 26201,
      "district_id": 339,
      "name": "PINARBAŞI MAH (KOÇKAR KÖYÜ)",
      "area": "MERKEZKÖYLER",
      "postal_code": "24402"
    },
    {
      "id": 26202,
      "district_id": 339,
      "name": "PÖRHENKBAŞI MAH",
      "area": "KEMAH",
      "postal_code": "24400"
    },
    {
      "id": 26203,
      "district_id": 339,
      "name": "SAMANLI MAH (AKTAŞ KÖYÜ)",
      "area": "MERKEZKÖYLER",
      "postal_code": "24402"
    },
    {
      "id": 26204,
      "district_id": 339,
      "name": "SARIYAZI KÖYÜ",
      "area": "MERKEZKÖYLER",
      "postal_code": "24402"
    },
    {
      "id": 26205,
      "district_id": 339,
      "name": "SÜREK KÖYÜ",
      "area": "MERKEZKÖYLER",
      "postal_code": "24402"
    },
    {
      "id": 26206,
      "district_id": 339,
      "name": "TAN KÖYÜ",
      "area": "MERKEZKÖYLER",
      "postal_code": "24402"
    },
    {
      "id": 26207,
      "district_id": 339,
      "name": "TANDIRBAŞI KÖYÜ",
      "area": "MERKEZKÖYLER",
      "postal_code": "24402"
    },
    {
      "id": 26208,
      "district_id": 339,
      "name": "TAN'IN KOMLARI MAH (BOĞAZİÇİ KÖYÜ)",
      "area": "MERKEZKÖYLER",
      "postal_code": "24402"
    },
    {
      "id": 26209,
      "district_id": 339,
      "name": "TUZLA KÖYÜ",
      "area": "MERKEZKÖYLER",
      "postal_code": "24402"
    },
    {
      "id": 26210,
      "district_id": 339,
      "name": "ULUÇINAR KÖYÜ",
      "area": "MERKEZKÖYLER",
      "postal_code": "24402"
    },
    {
      "id": 26211,
      "district_id": 339,
      "name": "YAĞCA KÖYÜ",
      "area": "MERKEZKÖYLER",
      "postal_code": "24402"
    },
    {
      "id": 26212,
      "district_id": 339,
      "name": "YARDERE KÖYÜ",
      "area": "MERKEZKÖYLER",
      "postal_code": "24402"
    },
    {
      "id": 26213,
      "district_id": 339,
      "name": "YAZMALI MAH (DİKYAMAÇ KÖYÜ)",
      "area": "MERKEZKÖYLER",
      "postal_code": "24402"
    },
    {
      "id": 26214,
      "district_id": 339,
      "name": "YENİYERLEŞİM MAH (YASTIKTEPE KÖYÜ)",
      "area": "MERKEZKÖYLER",
      "postal_code": "24402"
    },
    {
      "id": 26215,
      "district_id": 339,
      "name": "YÜCEBELEN KÖYÜ",
      "area": "MERKEZKÖYLER",
      "postal_code": "24402"
    },
    {
      "id": 26216,
      "district_id": 339,
      "name": "YUKARI ÇAKIRLAR MAH (ÇAKIRLAR KÖYÜ)",
      "area": "MERKEZKÖYLER",
      "postal_code": "24402"
    },
    {
      "id": 26217,
      "district_id": 339,
      "name": "YUKARI MAH",
      "area": "KEMAH",
      "postal_code": "24400"
    },
    {
      "id": 26218,
      "district_id": 339,
      "name": "YUKARI MAH (ELMALI KÖYÜ)",
      "area": "MERKEZKÖYLER",
      "postal_code": "24402"
    },
    {
      "id": 26219,
      "district_id": 339,
      "name": "YUKARI MAH (KÖMÜR KÖYÜ)",
      "area": "MERKEZKÖYLER",
      "postal_code": "24402"
    },
    {
      "id": 26220,
      "district_id": 339,
      "name": "YUKARI MAH (YASTIKTEPE KÖYÜ)",
      "area": "MERKEZKÖYLER",
      "postal_code": "24402"
    },
    {
      "id": 26221,
      "district_id": 339,
      "name": "YUSUFLAR MAH (ELMALI KÖYÜ)",
      "area": "MERKEZKÖYLER",
      "postal_code": "24402"
    },
    {
      "id": 26222,
      "district_id": 339,
      "name": "YUVACIK MAH (DERE KÖYÜ)",
      "area": "MERKEZKÖYLER",
      "postal_code": "24402"
    },
    {
      "id": 26223,
      "district_id": 340,
      "name": "ADAK KÖYÜ",
      "area": "DUTLUCA",
      "postal_code": "24620"
    },
    {
      "id": 26224,
      "district_id": 340,
      "name": "AĞIL KÖYÜ",
      "area": "MERKEZKÖYLER",
      "postal_code": "24602"
    },
    {
      "id": 26225,
      "district_id": 340,
      "name": "AĞILLAR MAH (GÜMÜŞÇEŞME KÖYÜ)",
      "area": "MERKEZKÖYLER",
      "postal_code": "24602"
    },
    {
      "id": 26226,
      "district_id": 340,
      "name": "AKÇALI KÖYÜ",
      "area": "DUTLUCA",
      "postal_code": "24620"
    },
    {
      "id": 26227,
      "district_id": 340,
      "name": "AKÇİÇEK MAH (DUTLUCA KÖYÜ)",
      "area": "DUTLUCA",
      "postal_code": "24620"
    },
    {
      "id": 26228,
      "district_id": 340,
      "name": "AKSÖĞÜT KÖYÜ",
      "area": "MERKEZKÖYLER",
      "postal_code": "24602"
    },
    {
      "id": 26229,
      "district_id": 340,
      "name": "ARİKİ MAH",
      "area": "KEMALİYE",
      "postal_code": "24600"
    },
    {
      "id": 26230,
      "district_id": 340,
      "name": "ARMAĞAN KÖYÜ",
      "area": "BAŞPINAR",
      "postal_code": "24610"
    },
    {
      "id": 26231,
      "district_id": 340,
      "name": "ARSLANOBA KÖYÜ",
      "area": "MERKEZKÖYLER",
      "postal_code": "24602"
    },
    {
      "id": 26232,
      "district_id": 340,
      "name": "AŞAĞI MAH (DUTLUCA KÖYÜ)",
      "area": "DUTLUCA",
      "postal_code": "24620"
    },
    {
      "id": 26233,
      "district_id": 340,
      "name": "AŞAĞI YUVACIK MAH (OCAK KÖYÜ)",
      "area": "DUTLUCA",
      "postal_code": "24620"
    },
    {
      "id": 26234,
      "district_id": 340,
      "name": "AŞAĞIUMUTLU KÖYÜ",
      "area": "BAŞPINAR",
      "postal_code": "24610"
    },
    {
      "id": 26235,
      "district_id": 340,
      "name": "AVCI KÖYÜ",
      "area": "BAŞPINAR",
      "postal_code": "24610"
    },
    {
      "id": 26236,
      "district_id": 340,
      "name": "BAHÇE MAH",
      "area": "KEMALİYE",
      "postal_code": "24600"
    },
    {
      "id": 26237,
      "district_id": 340,
      "name": "BAHÇECİK MAH (BAŞPINAR KÖYÜ)",
      "area": "BAŞPINAR",
      "postal_code": "24610"
    },
    {
      "id": 26238,
      "district_id": 340,
      "name": "BALKIRI KÖYÜ",
      "area": "BAŞPINAR",
      "postal_code": "24610"
    },
    {
      "id": 26239,
      "district_id": 340,
      "name": "BAŞARI KÖYÜ",
      "area": "MERKEZKÖYLER",
      "postal_code": "24602"
    },
    {
      "id": 26240,
      "district_id": 340,
      "name": "BAŞBAĞLAR KÖYÜ",
      "area": "BAŞPINAR",
      "postal_code": "24610"
    },
    {
      "id": 26241,
      "district_id": 340,
      "name": "BEY MAH (APÇAĞA KÖYÜ)",
      "area": "MERKEZKÖYLER",
      "postal_code": "24602"
    },
    {
      "id": 26242,
      "district_id": 340,
      "name": "BOYLU KÖYÜ",
      "area": "DUTLUCA",
      "postal_code": "24620"
    },
    {
      "id": 26243,
      "district_id": 340,
      "name": "BUĞDAYPINAR KÖYÜ",
      "area": "BAŞPINAR",
      "postal_code": "24610"
    },
    {
      "id": 26244,
      "district_id": 340,
      "name": "ÇAKIRTAŞ KÖYÜ",
      "area": "DUTLUCA",
      "postal_code": "24620"
    },
    {
      "id": 26245,
      "district_id": 340,
      "name": "ÇALDERE KÖYÜ",
      "area": "MERKEZKÖYLER",
      "postal_code": "24602"
    },
    {
      "id": 26246,
      "district_id": 340,
      "name": "ÇALTI MAH (GÜMÜŞÇEŞME KÖYÜ)",
      "area": "MERKEZKÖYLER",
      "postal_code": "24602"
    },
    {
      "id": 26247,
      "district_id": 340,
      "name": "CAMİ MAH (TUĞLU KÖYÜ)",
      "area": "MERKEZKÖYLER",
      "postal_code": "24602"
    },
    {
      "id": 26248,
      "district_id": 340,
      "name": "ÇANAKÇI KÖYÜ",
      "area": "MERKEZKÖYLER",
      "postal_code": "24602"
    },
    {
      "id": 26249,
      "district_id": 340,
      "name": "ÇAT KÖYÜ",
      "area": "DUTLUCA",
      "postal_code": "24620"
    },
    {
      "id": 26250,
      "district_id": 340,
      "name": "ÇEREZ MAH (APÇAĞA KÖYÜ)",
      "area": "MERKEZKÖYLER",
      "postal_code": "24602"
    },
    {
      "id": 26251,
      "district_id": 340,
      "name": "ÇİT KÖYÜ",
      "area": "DUTLUCA",
      "postal_code": "24620"
    },
    {
      "id": 26252,
      "district_id": 340,
      "name": "DALLICA KÖYÜ",
      "area": "MERKEZKÖYLER",
      "postal_code": "24602"
    },
    {
      "id": 26253,
      "district_id": 340,
      "name": "DEĞİRMENDERE MAH (AŞAĞIUMUTLU KÖYÜ)",
      "area": "BAŞPINAR",
      "postal_code": "24610"
    },
    {
      "id": 26254,
      "district_id": 340,
      "name": "DEMİR KÖYÜ",
      "area": "DUTLUCA",
      "postal_code": "24620"
    },
    {
      "id": 26255,
      "district_id": 340,
      "name": "DİLLİ KÖYÜ",
      "area": "MERKEZKÖYLER",
      "postal_code": "24602"
    },
    {
      "id": 26256,
      "district_id": 340,
      "name": "DOLUNAY KÖYÜ",
      "area": "MERKEZKÖYLER",
      "postal_code": "24602"
    },
    {
      "id": 26257,
      "district_id": 340,
      "name": "DÖRTYOLAĞZI MAH",
      "area": "KEMALİYE",
      "postal_code": "24600"
    },
    {
      "id": 26258,
      "district_id": 340,
      "name": "EFELER KÖYÜ",
      "area": "DUTLUCA",
      "postal_code": "24620"
    },
    {
      "id": 26259,
      "district_id": 340,
      "name": "EKİNDERE MAH (ŞAHİNLER KÖYÜ)",
      "area": "BAŞPINAR",
      "postal_code": "24610"
    },
    {
      "id": 26260,
      "district_id": 340,
      "name": "EMİRLİ MAH (APÇAĞA KÖYÜ)",
      "area": "MERKEZKÖYLER",
      "postal_code": "24602"
    },
    {
      "id": 26261,
      "district_id": 340,
      "name": "ERGÜ KÖYÜ",
      "area": "MERKEZKÖYLER",
      "postal_code": "24602"
    },
    {
      "id": 26262,
      "district_id": 340,
      "name": "ESENCE KÖYÜ",
      "area": "BAŞPINAR",
      "postal_code": "24610"
    },
    {
      "id": 26263,
      "district_id": 340,
      "name": "ESERTEPE MAH",
      "area": "MERKEZKÖYLER",
      "postal_code": "24602"
    },
    {
      "id": 26264,
      "district_id": 340,
      "name": "GENÇAĞA MAH",
      "area": "KEMALİYE",
      "postal_code": "24600"
    },
    {
      "id": 26265,
      "district_id": 340,
      "name": "GÖZAYDIN KÖYÜ",
      "area": "MERKEZKÖYLER",
      "postal_code": "24602"
    },
    {
      "id": 26266,
      "district_id": 340,
      "name": "GÜLDİBİ KÖYÜ",
      "area": "MERKEZKÖYLER",
      "postal_code": "24602"
    },
    {
      "id": 26267,
      "district_id": 340,
      "name": "GÜMÜŞÇEŞME KÖYÜ",
      "area": "MERKEZKÖYLER",
      "postal_code": "24602"
    },
    {
      "id": 26268,
      "district_id": 340,
      "name": "GÜNYOLU KÖYÜ",
      "area": "BAŞPINAR",
      "postal_code": "24610"
    },
    {
      "id": 26269,
      "district_id": 340,
      "name": "HACCA MAH (APÇAĞA KÖYÜ)",
      "area": "MERKEZKÖYLER",
      "postal_code": "24602"
    },
    {
      "id": 26270,
      "district_id": 340,
      "name": "HACI YUSUF MAH",
      "area": "KEMALİYE",
      "postal_code": "24600"
    },
    {
      "id": 26271,
      "district_id": 340,
      "name": "HALİLAĞA MAH",
      "area": "KEMALİYE",
      "postal_code": "24600"
    },
    {
      "id": 26272,
      "district_id": 340,
      "name": "HARMANKAYA KÖYÜ",
      "area": "MERKEZKÖYLER",
      "postal_code": "24602"
    },
    {
      "id": 26273,
      "district_id": 340,
      "name": "İSHAKPAŞA MAH",
      "area": "KEMALİYE",
      "postal_code": "24600"
    },
    {
      "id": 26274,
      "district_id": 340,
      "name": "KABATAŞ KÖYÜ",
      "area": "MERKEZKÖYLER",
      "postal_code": "24602"
    },
    {
      "id": 26275,
      "district_id": 340,
      "name": "KARAPINAR KÖYÜ",
      "area": "DUTLUCA",
      "postal_code": "24620"
    },
    {
      "id": 26276,
      "district_id": 340,
      "name": "KARŞI MAH (KARAKOÇLU KÖYÜ)",
      "area": "MERKEZKÖYLER",
      "postal_code": "24602"
    },
    {
      "id": 26277,
      "district_id": 340,
      "name": "KARŞI MAH (OCAK KÖYÜ)",
      "area": "DUTLUCA",
      "postal_code": "24620"
    },
    {
      "id": 26278,
      "district_id": 340,
      "name": "KAVACIK KÖYÜ",
      "area": "BAŞPINAR",
      "postal_code": "24610"
    },
    {
      "id": 26279,
      "district_id": 340,
      "name": "KAYABAŞI MAH (APÇAĞA KÖYÜ)",
      "area": "MERKEZKÖYLER",
      "postal_code": "24602"
    },
    {
      "id": 26280,
      "district_id": 340,
      "name": "KEKİKPINARI KÖYÜ",
      "area": "DUTLUCA",
      "postal_code": "24620"
    },
    {
      "id": 26281,
      "district_id": 340,
      "name": "KEMERALTI MAH (APÇAĞA KÖYÜ)",
      "area": "MERKEZKÖYLER",
      "postal_code": "24602"
    },
    {
      "id": 26282,
      "district_id": 340,
      "name": "KIŞLACIK KÖYÜ",
      "area": "DUTLUCA",
      "postal_code": "24620"
    },
    {
      "id": 26283,
      "district_id": 340,
      "name": "KIYI MEZRA MAH (KARAPINAR KÖYÜ)",
      "area": "DUTLUCA",
      "postal_code": "24620"
    },
    {
      "id": 26284,
      "district_id": 340,
      "name": "KIZILÇUKUR MAH (EFELER KÖYÜ)",
      "area": "DUTLUCA",
      "postal_code": "24620"
    },
    {
      "id": 26285,
      "district_id": 340,
      "name": "KOCAÇİMEN KÖYÜ",
      "area": "MERKEZKÖYLER",
      "postal_code": "24602"
    },
    {
      "id": 26286,
      "district_id": 340,
      "name": "KOMLAR MAH (BAŞPINAR KÖYÜ)",
      "area": "BAŞPINAR",
      "postal_code": "24610"
    },
    {
      "id": 26287,
      "district_id": 340,
      "name": "KONACIK MAH (KARAPINAR KÖYÜ)",
      "area": "DUTLUCA",
      "postal_code": "24620"
    },
    {
      "id": 26288,
      "district_id": 340,
      "name": "KOZLUPINAR KÖYÜ",
      "area": "MERKEZKÖYLER",
      "postal_code": "24602"
    },
    {
      "id": 26289,
      "district_id": 340,
      "name": "KUŞAK KÖYÜ",
      "area": "DUTLUCA",
      "postal_code": "24620"
    },
    {
      "id": 26290,
      "district_id": 340,
      "name": "KUTLUCA KÖYÜ",
      "area": "BAŞPINAR",
      "postal_code": "24610"
    },
    {
      "id": 26291,
      "district_id": 340,
      "name": "MEREKLER MAH (TUĞLU KÖYÜ)",
      "area": "MERKEZKÖYLER",
      "postal_code": "24602"
    },
    {
      "id": 26292,
      "district_id": 340,
      "name": "MERKEZ MAH (BAŞPINAR KÖYÜ)",
      "area": "BAŞPINAR",
      "postal_code": "24610"
    },
    {
      "id": 26293,
      "district_id": 340,
      "name": "MERKEZ MAH (KARAKOÇLU KÖYÜ)",
      "area": "MERKEZKÖYLER",
      "postal_code": "24602"
    },
    {
      "id": 26294,
      "district_id": 340,
      "name": "MESCİT MAH (TUĞLU KÖYÜ)",
      "area": "MERKEZKÖYLER",
      "postal_code": "24602"
    },
    {
      "id": 26295,
      "district_id": 340,
      "name": "NAİP MAH",
      "area": "KEMALİYE",
      "postal_code": "24600"
    },
    {
      "id": 26296,
      "district_id": 340,
      "name": "NERKAT MAH (APÇAĞA KÖYÜ)",
      "area": "MERKEZKÖYLER",
      "postal_code": "24602"
    },
    {
      "id": 26297,
      "district_id": 340,
      "name": "ORTA MAH (APÇAĞA KÖYÜ)",
      "area": "MERKEZKÖYLER",
      "postal_code": "24602"
    },
    {
      "id": 26298,
      "district_id": 340,
      "name": "ORTA MAH (DUTLUCA KÖYÜ)",
      "area": "DUTLUCA",
      "postal_code": "24620"
    },
    {
      "id": 26299,
      "district_id": 340,
      "name": "OTTAŞ MAH (APÇAĞA KÖYÜ)",
      "area": "MERKEZKÖYLER",
      "postal_code": "24602"
    },
    {
      "id": 26300,
      "district_id": 340,
      "name": "POSER MAH (APÇAĞA KÖYÜ)",
      "area": "MERKEZKÖYLER",
      "postal_code": "24602"
    },
    {
      "id": 26301,
      "district_id": 340,
      "name": "ŞAHİNLER KÖYÜ",
      "area": "BAŞPINAR",
      "postal_code": "24610"
    },
    {
      "id": 26302,
      "district_id": 340,
      "name": "SALİHLİ KÖYÜ",
      "area": "MERKEZKÖYLER",
      "postal_code": "24602"
    },
    {
      "id": 26303,
      "district_id": 340,
      "name": "SALKIMLI MAH (KARAPINAR KÖYÜ)",
      "area": "DUTLUCA",
      "postal_code": "24620"
    },
    {
      "id": 26304,
      "district_id": 340,
      "name": "SANDIK KÖYÜ",
      "area": "MERKEZKÖYLER",
      "postal_code": "24602"
    },
    {
      "id": 26305,
      "district_id": 340,
      "name": "SANDIKBAĞI MAH",
      "area": "KEMALİYE",
      "postal_code": "24600"
    },
    {
      "id": 26306,
      "district_id": 340,
      "name": "SIRAKONAK KÖYÜ",
      "area": "MERKEZKÖYLER",
      "postal_code": "24602"
    },
    {
      "id": 26307,
      "district_id": 340,
      "name": "SUBAŞI KÖYÜ",
      "area": "BAŞPINAR",
      "postal_code": "24610"
    },
    {
      "id": 26308,
      "district_id": 340,
      "name": "TAŞDİBİ MAH",
      "area": "KEMALİYE",
      "postal_code": "24600"
    },
    {
      "id": 26309,
      "district_id": 340,
      "name": "TOPKAPI KÖYÜ",
      "area": "DUTLUCA",
      "postal_code": "24620"
    },
    {
      "id": 26310,
      "district_id": 340,
      "name": "TOYBELEN KÖYÜ",
      "area": "MERKEZKÖYLER",
      "postal_code": "24602"
    },
    {
      "id": 26311,
      "district_id": 340,
      "name": "ULAŞ MAH (KARAKOÇLU KÖYÜ)",
      "area": "MERKEZKÖYLER",
      "postal_code": "24602"
    },
    {
      "id": 26312,
      "district_id": 340,
      "name": "YAKA KÖYÜ",
      "area": "MERKEZKÖYLER",
      "postal_code": "24602"
    },
    {
      "id": 26313,
      "district_id": 340,
      "name": "YAYLA MAH (APÇAĞA KÖYÜ)",
      "area": "MERKEZKÖYLER",
      "postal_code": "24602"
    },
    {
      "id": 26314,
      "district_id": 340,
      "name": "YAYLADAMI KÖYÜ",
      "area": "MERKEZKÖYLER",
      "postal_code": "24602"
    },
    {
      "id": 26315,
      "district_id": 340,
      "name": "YAZMAKAYA KÖYÜ",
      "area": "DUTLUCA",
      "postal_code": "24620"
    },
    {
      "id": 26316,
      "district_id": 340,
      "name": "YENİ MAH (DUTLUCA KÖYÜ)",
      "area": "DUTLUCA",
      "postal_code": "24620"
    },
    {
      "id": 26317,
      "district_id": 340,
      "name": "YENİKÖY MAH (DİLLİ KÖYÜ)",
      "area": "MERKEZKÖYLER",
      "postal_code": "24602"
    },
    {
      "id": 26318,
      "district_id": 340,
      "name": "YEŞİLYAMAÇ KÖYÜ",
      "area": "MERKEZKÖYLER",
      "postal_code": "24602"
    },
    {
      "id": 26319,
      "district_id": 340,
      "name": "YEŞİLYAYLA KÖYÜ",
      "area": "BAŞPINAR",
      "postal_code": "24610"
    },
    {
      "id": 26320,
      "district_id": 340,
      "name": "YEŞİLYURT KÖYÜ",
      "area": "MERKEZKÖYLER",
      "postal_code": "24602"
    },
    {
      "id": 26321,
      "district_id": 340,
      "name": "YILDIZLI KÖYÜ",
      "area": "BAŞPINAR",
      "postal_code": "24610"
    },
    {
      "id": 26322,
      "district_id": 340,
      "name": "YUKARI MAH (DUTLUCA KÖYÜ)",
      "area": "DUTLUCA",
      "postal_code": "24620"
    },
    {
      "id": 26323,
      "district_id": 340,
      "name": "YUKARI MAH (OCAK KÖYÜ)",
      "area": "DUTLUCA",
      "postal_code": "24620"
    },
    {
      "id": 26324,
      "district_id": 340,
      "name": "YUKARI YUVACIK MAH (OCAK KÖYÜ)",
      "area": "DUTLUCA",
      "postal_code": "24620"
    },
    {
      "id": 26325,
      "district_id": 340,
      "name": "YUKARIUMUTLU KÖYÜ",
      "area": "BAŞPINAR",
      "postal_code": "24610"
    },
    {
      "id": 26326,
      "district_id": 340,
      "name": "YUVA KÖYÜ",
      "area": "MERKEZKÖYLER",
      "postal_code": "24602"
    },
    {
      "id": 26327,
      "district_id": 341,
      "name": "ADALAR MAH (BİNKOÇ KÖYÜ)",
      "area": "MERKEZKÖYLER",
      "postal_code": "24002"
    },
    {
      "id": 26328,
      "district_id": 341,
      "name": "AHMETLİ KÖYÜ",
      "area": "MERKEZKÖYLER",
      "postal_code": "24002"
    },
    {
      "id": 26329,
      "district_id": 341,
      "name": "AKŞEMSETTİN MAH",
      "area": "AKŞEMSETTİN",
      "postal_code": "24100"
    },
    {
      "id": 26330,
      "district_id": 341,
      "name": "AKTEPE MAH (SOĞUKOLUK KÖYÜ)",
      "area": "MERKEZKÖYLER",
      "postal_code": "24002"
    },
    {
      "id": 26331,
      "district_id": 341,
      "name": "AKTOPRAK MAH",
      "area": "MERKEZKÖYLER",
      "postal_code": "24002"
    },
    {
      "id": 26332,
      "district_id": 341,
      "name": "AKYAZI MAH",
      "area": "MERKEZKÖYLER",
      "postal_code": "24002"
    },
    {
      "id": 26333,
      "district_id": 341,
      "name": "ALSANCAK MAH (YAYLABAŞI BELDESİ)",
      "area": "MERKEZKÖYLER",
      "postal_code": "24002"
    },
    {
      "id": 26334,
      "district_id": 341,
      "name": "ARSLANLI MAH",
      "area": "BAHÇELİEVLER",
      "postal_code": "24050"
    },
    {
      "id": 26335,
      "district_id": 341,
      "name": "ATATÜRK MAH",
      "area": "AKŞEMSETTİN",
      "postal_code": "24100"
    },
    {
      "id": 26336,
      "district_id": 341,
      "name": "ATATÜRK MAH (ÇAĞLAYAN BELDESİ)",
      "area": "ÇAĞLAYAN",
      "postal_code": "24130"
    },
    {
      "id": 26337,
      "district_id": 341,
      "name": "ATATÜRK MAH (MOLLAKÖY BELDESİ)",
      "area": "MOLLAKÖY",
      "postal_code": "24055"
    },
    {
      "id": 26338,
      "district_id": 341,
      "name": "ATATÜRK MAH (TATLISU KÖYÜ)",
      "area": "MERKEZKÖYLER",
      "postal_code": "24002"
    },
    {
      "id": 26339,
      "district_id": 341,
      "name": "AYDOĞDU KÖYÜ",
      "area": "MERKEZKÖYLER",
      "postal_code": "24002"
    },
    {
      "id": 26340,
      "district_id": 341,
      "name": "AZİZ BABA MAH",
      "area": "MERKEZKÖYLER",
      "postal_code": "24002"
    },
    {
      "id": 26341,
      "district_id": 341,
      "name": "BAHÇELİEVLER MAH",
      "area": "BAHÇELİEVLER",
      "postal_code": "24050"
    },
    {
      "id": 26342,
      "district_id": 341,
      "name": "BAHÇEYAZI KÖYÜ",
      "area": "MERKEZKÖYLER",
      "postal_code": "24002"
    },
    {
      "id": 26343,
      "district_id": 341,
      "name": "BALIBEYİ KÖYÜ",
      "area": "MERKEZKÖYLER",
      "postal_code": "24002"
    },
    {
      "id": 26344,
      "district_id": 341,
      "name": "BALLI KÖYÜ",
      "area": "MERKEZKÖYLER",
      "postal_code": "24002"
    },
    {
      "id": 26345,
      "district_id": 341,
      "name": "BALTAŞI KÖYÜ",
      "area": "MERKEZKÖYLER",
      "postal_code": "24002"
    },
    {
      "id": 26346,
      "district_id": 341,
      "name": "BARBAROS MAH",
      "area": "AKŞEMSETTİN",
      "postal_code": "24100"
    },
    {
      "id": 26347,
      "district_id": 341,
      "name": "BARIŞ MAH",
      "area": "MERKEZKÖYLER",
      "postal_code": "24002"
    },
    {
      "id": 26348,
      "district_id": 341,
      "name": "BARIŞ MAH (TATLISU KÖYÜ)",
      "area": "MERKEZKÖYLER",
      "postal_code": "24002"
    },
    {
      "id": 26349,
      "district_id": 341,
      "name": "BAŞBAĞLAR MAH",
      "area": "AKŞEMSETTİN",
      "postal_code": "24100"
    },
    {
      "id": 26350,
      "district_id": 341,
      "name": "BAŞPINAR MAH",
      "area": "MERKEZKÖYLER",
      "postal_code": "24002"
    },
    {
      "id": 26351,
      "district_id": 341,
      "name": "BAYRAK MAH",
      "area": "MERKEZKÖYLER",
      "postal_code": "24002"
    },
    {
      "id": 26352,
      "district_id": 341,
      "name": "BEŞİKTAŞ MAH (ÇATALÖREN KÖYÜ)",
      "area": "MERKEZKÖYLER",
      "postal_code": "24002"
    },
    {
      "id": 26353,
      "district_id": 341,
      "name": "BEŞSARAY KÖYÜ",
      "area": "MERKEZKÖYLER",
      "postal_code": "24002"
    },
    {
      "id": 26354,
      "district_id": 341,
      "name": "BİNKOÇ KÖYÜ",
      "area": "MERKEZKÖYLER",
      "postal_code": "24002"
    },
    {
      "id": 26355,
      "district_id": 341,
      "name": "BOZYAZI MAH",
      "area": "MERKEZKÖYLER",
      "postal_code": "24002"
    },
    {
      "id": 26356,
      "district_id": 341,
      "name": "BUĞDAYLI MAH",
      "area": "MERKEZKÖYLER",
      "postal_code": "24002"
    },
    {
      "id": 26357,
      "district_id": 341,
      "name": "BULUTLU MAH",
      "area": "MERKEZKÖYLER",
      "postal_code": "24002"
    },
    {
      "id": 26358,
      "district_id": 341,
      "name": "BÜYÜKÇAKIRMAN MAH",
      "area": "MERKEZKÖYLER",
      "postal_code": "24002"
    },
    {
      "id": 26359,
      "district_id": 341,
      "name": "ÇADIRKAYA MAH (AĞILÖZÜ KÖYÜ)",
      "area": "MERKEZKÖYLER",
      "postal_code": "24002"
    },
    {
      "id": 26360,
      "district_id": 341,
      "name": "CAFERLİ KÖYÜ",
      "area": "MERKEZKÖYLER",
      "postal_code": "24002"
    },
    {
      "id": 26361,
      "district_id": 341,
      "name": "CAFOLAR MAH (CAFERLİ KÖYÜ)",
      "area": "MERKEZKÖYLER",
      "postal_code": "24002"
    },
    {
      "id": 26362,
      "district_id": 341,
      "name": "ÇARŞI MAH",
      "area": "AKŞEMSETTİN",
      "postal_code": "24100"
    },
    {
      "id": 26363,
      "district_id": 341,
      "name": "ÇATALARMUT KÖYÜ",
      "area": "MERKEZKÖYLER",
      "postal_code": "24002"
    },
    {
      "id": 26364,
      "district_id": 341,
      "name": "ÇATALÖREN KÖYÜ",
      "area": "MERKEZKÖYLER",
      "postal_code": "24002"
    },
    {
      "id": 26365,
      "district_id": 341,
      "name": "ÇAY MAH (BAHÇELİKÖY KÖYÜ)",
      "area": "MERKEZKÖYLER",
      "postal_code": "24002"
    },
    {
      "id": 26366,
      "district_id": 341,
      "name": "CEMAL GÜRSEL MAH",
      "area": "MERKEZKÖYLER",
      "postal_code": "24002"
    },
    {
      "id": 26367,
      "district_id": 341,
      "name": "CEVİZLİ KÖYÜ",
      "area": "MERKEZKÖYLER",
      "postal_code": "24002"
    },
    {
      "id": 26368,
      "district_id": 341,
      "name": "CEVİZLİ MAH (ÇUBUKLU KÖYÜ)",
      "area": "MERKEZKÖYLER",
      "postal_code": "24002"
    },
    {
      "id": 26369,
      "district_id": 341,
      "name": "ÇUBUKLU KÖYÜ",
      "area": "MERKEZKÖYLER",
      "postal_code": "24002"
    },
    {
      "id": 26370,
      "district_id": 341,
      "name": "ÇUKURKUYU MAH",
      "area": "MERKEZKÖYLER",
      "postal_code": "24002"
    },
    {
      "id": 26371,
      "district_id": 341,
      "name": "CUMHURİYET MAH",
      "area": "AKŞEMSETTİN",
      "postal_code": "24100"
    },
    {
      "id": 26372,
      "district_id": 341,
      "name": "CUMHURİYET MAH (ÇAĞLAYAN BELDESİ)",
      "area": "ÇAĞLAYAN",
      "postal_code": "24130"
    },
    {
      "id": 26373,
      "district_id": 341,
      "name": "CUMHURİYET MAH (MOLLAKÖY BELDESİ)",
      "area": "MOLLAKÖY",
      "postal_code": "24055"
    },
    {
      "id": 26374,
      "district_id": 341,
      "name": "CUMHURİYET MAH (TATLISU KÖYÜ)",
      "area": "MERKEZKÖYLER",
      "postal_code": "24002"
    },
    {
      "id": 26375,
      "district_id": 341,
      "name": "DAVARLI MAH",
      "area": "MERKEZKÖYLER",
      "postal_code": "24002"
    },
    {
      "id": 26376,
      "district_id": 341,
      "name": "DEĞİRMENKÖY MAH (DEĞİRMENKÖY KÖYÜ)",
      "area": "MERKEZKÖYLER",
      "postal_code": "24002"
    },
    {
      "id": 26377,
      "district_id": 341,
      "name": "DEMETEVLER MAH",
      "area": "MERKEZKÖYLER",
      "postal_code": "24002"
    },
    {
      "id": 26378,
      "district_id": 341,
      "name": "DEMİRKENT MAH",
      "area": "BAHÇELİEVLER",
      "postal_code": "24050"
    },
    {
      "id": 26379,
      "district_id": 341,
      "name": "DEREBAĞ MAH (ÇAĞLAYAN BELDESİ)",
      "area": "ÇAĞLAYAN",
      "postal_code": "24130"
    },
    {
      "id": 26380,
      "district_id": 341,
      "name": "DEREYURT MAH",
      "area": "MERKEZKÖYLER",
      "postal_code": "24002"
    },
    {
      "id": 26381,
      "district_id": 341,
      "name": "EKİNCİ KÖYÜ",
      "area": "MERKEZKÖYLER",
      "postal_code": "24002"
    },
    {
      "id": 26382,
      "district_id": 341,
      "name": "EKİNLİ MAH (ÇUBUKLU KÖYÜ)",
      "area": "MERKEZKÖYLER",
      "postal_code": "24002"
    },
    {
      "id": 26383,
      "district_id": 341,
      "name": "EKMEKLİ KÖYÜ",
      "area": "MERKEZKÖYLER",
      "postal_code": "24002"
    },
    {
      "id": 26384,
      "district_id": 341,
      "name": "ELMAKÖY KÖYÜ",
      "area": "MERKEZKÖYLER",
      "postal_code": "24002"
    },
    {
      "id": 26385,
      "district_id": 341,
      "name": "ERDENE MAH (ÇAĞLAYAN BELDESİ)",
      "area": "ÇAĞLAYAN",
      "postal_code": "24130"
    },
    {
      "id": 26386,
      "district_id": 341,
      "name": "ERGAN KÖYÜ",
      "area": "MERKEZKÖYLER",
      "postal_code": "24002"
    },
    {
      "id": 26387,
      "district_id": 341,
      "name": "ERGENEKON MAH",
      "area": "BAHÇELİEVLER",
      "postal_code": "24050"
    },
    {
      "id": 26388,
      "district_id": 341,
      "name": "ERSEVENLER MAH",
      "area": "AKŞEMSETTİN",
      "postal_code": "24100"
    },
    {
      "id": 26389,
      "district_id": 341,
      "name": "ERTUĞRUL GAZİ MAH",
      "area": "MERKEZKÖYLER",
      "postal_code": "24002"
    },
    {
      "id": 26390,
      "district_id": 341,
      "name": "ESENTEPE MAH",
      "area": "MERKEZKÖYLER",
      "postal_code": "24002"
    },
    {
      "id": 26391,
      "district_id": 341,
      "name": "EYÜP SULTAN MAH (ULUKÖY KÖYÜ)",
      "area": "MERKEZKÖYLER",
      "postal_code": "24002"
    },
    {
      "id": 26392,
      "district_id": 341,
      "name": "FAİKOSMAN MAH (ULUKÖY KÖYÜ)",
      "area": "MERKEZKÖYLER",
      "postal_code": "24002"
    },
    {
      "id": 26393,
      "district_id": 341,
      "name": "FATİH MAH",
      "area": "AKŞEMSETTİN",
      "postal_code": "24100"
    },
    {
      "id": 26394,
      "district_id": 341,
      "name": "FATİH MAH (ULUKÖY KÖYÜ)",
      "area": "MERKEZKÖYLER",
      "postal_code": "24002"
    },
    {
      "id": 26395,
      "district_id": 341,
      "name": "GANİEFENDİÇİFTLİĞİ KÖYÜ",
      "area": "MERKEZKÖYLER",
      "postal_code": "24002"
    },
    {
      "id": 26396,
      "district_id": 341,
      "name": "GAZİ MAH",
      "area": "MERKEZKÖYLER",
      "postal_code": "24002"
    },
    {
      "id": 26397,
      "district_id": 341,
      "name": "GÖLCÜK MAH",
      "area": "MERKEZKÖYLER",
      "postal_code": "24002"
    },
    {
      "id": 26398,
      "district_id": 341,
      "name": "GÖLPINAR KÖYÜ",
      "area": "MERKEZKÖYLER",
      "postal_code": "24002"
    },
    {
      "id": 26399,
      "district_id": 341,
      "name": "GÖYNE KÖYÜ",
      "area": "MERKEZKÖYLER",
      "postal_code": "24002"
    },
    {
      "id": 26400,
      "district_id": 341,
      "name": "GÜLABİBEY MAH",
      "area": "AKŞEMSETTİN",
      "postal_code": "24100"
    },
    {
      "id": 26401,
      "district_id": 341,
      "name": "GÜLLÜCE MAH (YAYLABAŞI BELDESİ)",
      "area": "MERKEZKÖYLER",
      "postal_code": "24002"
    },
    {
      "id": 26402,
      "district_id": 341,
      "name": "GÜMÜŞTARLA KÖYÜ",
      "area": "MERKEZKÖYLER",
      "postal_code": "24002"
    },
    {
      "id": 26403,
      "district_id": 341,
      "name": "GÜNBAĞI KÖYÜ",
      "area": "MERKEZKÖYLER",
      "postal_code": "24002"
    },
    {
      "id": 26404,
      "district_id": 341,
      "name": "GÜNEBAKAN KÖYÜ",
      "area": "MERKEZKÖYLER",
      "postal_code": "24002"
    },
    {
      "id": 26405,
      "district_id": 341,
      "name": "GÜNEBAKAN MAH (GÜNEBAKAN KÖYÜ)",
      "area": "MERKEZKÖYLER",
      "postal_code": "24002"
    },
    {
      "id": 26406,
      "district_id": 341,
      "name": "GÜRLEVİK KÖYÜ",
      "area": "MERKEZKÖYLER",
      "postal_code": "24002"
    },
    {
      "id": 26407,
      "district_id": 341,
      "name": "HACIALİPALANGASI KÖYÜ",
      "area": "MERKEZKÖYLER",
      "postal_code": "24002"
    },
    {
      "id": 26408,
      "district_id": 341,
      "name": "HALİTPAŞA MAH",
      "area": "BAHÇELİEVLER",
      "postal_code": "24050"
    },
    {
      "id": 26409,
      "district_id": 341,
      "name": "HAMİDİYE MAH",
      "area": "MERKEZKÖYLER",
      "postal_code": "24002"
    },
    {
      "id": 26410,
      "district_id": 341,
      "name": "HANCI MAH",
      "area": "MERKEZKÖYLER",
      "postal_code": "24002"
    },
    {
      "id": 26411,
      "district_id": 341,
      "name": "HANCIÇİFTLİĞİ KÖYÜ",
      "area": "MERKEZKÖYLER",
      "postal_code": "24002"
    },
    {
      "id": 26412,
      "district_id": 341,
      "name": "HANDERE KÖYÜ",
      "area": "MERKEZKÖYLER",
      "postal_code": "24002"
    },
    {
      "id": 26413,
      "district_id": 341,
      "name": "HEYBELİ KÖYÜ",
      "area": "MERKEZKÖYLER",
      "postal_code": "24002"
    },
    {
      "id": 26414,
      "district_id": 341,
      "name": "HOCA AHMET YESEVİ MAH",
      "area": "MERKEZKÖYLER",
      "postal_code": "24002"
    },
    {
      "id": 26415,
      "district_id": 341,
      "name": "HOCABEY MAH",
      "area": "BAHÇELİEVLER",
      "postal_code": "24050"
    },
    {
      "id": 26416,
      "district_id": 341,
      "name": "HÜRREMPALANGASI MAH",
      "area": "MERKEZKÖYLER",
      "postal_code": "24002"
    },
    {
      "id": 26417,
      "district_id": 341,
      "name": "ILIDERE KÖYÜ",
      "area": "MERKEZKÖYLER",
      "postal_code": "24002"
    },
    {
      "id": 26418,
      "district_id": 341,
      "name": "İNÖNÜ MAH",
      "area": "BAHÇELİEVLER",
      "postal_code": "24050"
    },
    {
      "id": 26419,
      "district_id": 341,
      "name": "IŞIKPINAR MAH",
      "area": "MERKEZKÖYLER",
      "postal_code": "24002"
    },
    {
      "id": 26420,
      "district_id": 341,
      "name": "İZZETPAŞA MAH",
      "area": "AKŞEMSETTİN",
      "postal_code": "24100"
    },
    {
      "id": 26421,
      "district_id": 341,
      "name": "KALECİK KÖYÜ",
      "area": "MERKEZKÖYLER",
      "postal_code": "24002"
    },
    {
      "id": 26422,
      "district_id": 341,
      "name": "KARAAĞAÇ MAH",
      "area": "AKŞEMSETTİN",
      "postal_code": "24100"
    },
    {
      "id": 26423,
      "district_id": 341,
      "name": "KARADİĞİN KÖYÜ",
      "area": "MERKEZKÖYLER",
      "postal_code": "24002"
    },
    {
      "id": 26424,
      "district_id": 341,
      "name": "KARATUŞ KÖYÜ",
      "area": "MERKEZKÖYLER",
      "postal_code": "24002"
    },
    {
      "id": 26425,
      "district_id": 341,
      "name": "KAVAKYOLU MAH",
      "area": "MERKEZKÖYLER",
      "postal_code": "24002"
    },
    {
      "id": 26426,
      "district_id": 341,
      "name": "KAZIM KARABEKİR MAH",
      "area": "BAHÇELİEVLER",
      "postal_code": "24050"
    },
    {
      "id": 26427,
      "district_id": 341,
      "name": "KEKLİKKAYASI MAH",
      "area": "MERKEZKÖYLER",
      "postal_code": "24002"
    },
    {
      "id": 26428,
      "district_id": 341,
      "name": "KILIÇKAYA KÖYÜ",
      "area": "MERKEZKÖYLER",
      "postal_code": "24002"
    },
    {
      "id": 26429,
      "district_id": 341,
      "name": "KİLİMLİ KÖYÜ",
      "area": "MERKEZKÖYLER",
      "postal_code": "24002"
    },
    {
      "id": 26430,
      "district_id": 341,
      "name": "KIR MAH (GÜNBAĞI KÖYÜ)",
      "area": "MERKEZKÖYLER",
      "postal_code": "24002"
    },
    {
      "id": 26431,
      "district_id": 341,
      "name": "KIZILAY MAH",
      "area": "BAHÇELİEVLER",
      "postal_code": "24050"
    },
    {
      "id": 26432,
      "district_id": 341,
      "name": "KOÇYATAĞI KÖYÜ",
      "area": "MERKEZKÖYLER",
      "postal_code": "24002"
    },
    {
      "id": 26433,
      "district_id": 341,
      "name": "KÖKLÜ MAH (ÇUBUKLU KÖYÜ)",
      "area": "MERKEZKÖYLER",
      "postal_code": "24002"
    },
    {
      "id": 26434,
      "district_id": 341,
      "name": "KONAKBAŞI MAH (KONAKBAŞI KÖYÜ)",
      "area": "MERKEZKÖYLER",
      "postal_code": "24002"
    },
    {
      "id": 26435,
      "district_id": 341,
      "name": "KÖPRÜBAŞI MAH (TÜRKMENOĞLU KÖYÜ)",
      "area": "MERKEZKÖYLER",
      "postal_code": "24002"
    },
    {
      "id": 26436,
      "district_id": 341,
      "name": "KÜÇÜKÇAKIRMAN KÖYÜ",
      "area": "MERKEZKÖYLER",
      "postal_code": "24002"
    },
    {
      "id": 26437,
      "district_id": 341,
      "name": "KURTULUŞ MAH (TATLISU KÖYÜ)",
      "area": "MERKEZKÖYLER",
      "postal_code": "24002"
    },
    {
      "id": 26438,
      "district_id": 341,
      "name": "KURUTİLEK MAH",
      "area": "MERKEZKÖYLER",
      "postal_code": "24002"
    },
    {
      "id": 26439,
      "district_id": 341,
      "name": "MAHMUTLU MAH (MOLLAKÖY BELDESİ)",
      "area": "MOLLAKÖY",
      "postal_code": "24055"
    },
    {
      "id": 26440,
      "district_id": 341,
      "name": "MECİDİYE KÖYÜ",
      "area": "MERKEZKÖYLER",
      "postal_code": "24002"
    },
    {
      "id": 26441,
      "district_id": 341,
      "name": "MEMETALİBEY MAH (BİNKOÇ KÖYÜ)",
      "area": "MERKEZKÖYLER",
      "postal_code": "24002"
    },
    {
      "id": 26442,
      "district_id": 341,
      "name": "MENDERES MAH",
      "area": "BAHÇELİEVLER",
      "postal_code": "24050"
    },
    {
      "id": 26443,
      "district_id": 341,
      "name": "MENGÜCELİ MAH",
      "area": "AKŞEMSETTİN",
      "postal_code": "24100"
    },
    {
      "id": 26444,
      "district_id": 341,
      "name": "MERTEKLİ MAH (ÇAĞLAYAN BELDESİ)",
      "area": "ÇAĞLAYAN",
      "postal_code": "24130"
    },
    {
      "id": 26445,
      "district_id": 341,
      "name": "MİMAR SİNAN MAH",
      "area": "BAHÇELİEVLER",
      "postal_code": "24050"
    },
    {
      "id": 26446,
      "district_id": 341,
      "name": "MÜFTÜOĞLU MAH (KİLİMLİ KÖYÜ)",
      "area": "MERKEZKÖYLER",
      "postal_code": "24002"
    },
    {
      "id": 26447,
      "district_id": 341,
      "name": "MUNZUR MAH",
      "area": "MERKEZKÖYLER",
      "postal_code": "24002"
    },
    {
      "id": 26448,
      "district_id": 341,
      "name": "MUSTAFA KEMAL PAŞA MAH",
      "area": "MERKEZKÖYLER",
      "postal_code": "24002"
    },
    {
      "id": 26449,
      "district_id": 341,
      "name": "OĞLAKTEPE KÖYÜ",
      "area": "MERKEZKÖYLER",
      "postal_code": "24002"
    },
    {
      "id": 26450,
      "district_id": 341,
      "name": "OLUKLU MAH (ÇUBUKLU KÖYÜ)",
      "area": "MERKEZKÖYLER",
      "postal_code": "24002"
    },
    {
      "id": 26451,
      "district_id": 341,
      "name": "ORTA MAH (BAHÇELİKÖY KÖYÜ)",
      "area": "MERKEZKÖYLER",
      "postal_code": "24002"
    },
    {
      "id": 26452,
      "district_id": 341,
      "name": "ORTAYURT MAH (ORTAYURT KÖYÜ)",
      "area": "MERKEZKÖYLER",
      "postal_code": "24002"
    },
    {
      "id": 26453,
      "district_id": 341,
      "name": "OSB MAH (AYDOĞDU KÖYÜ)",
      "area": "MERKEZKÖYLER",
      "postal_code": "24002"
    },
    {
      "id": 26454,
      "district_id": 341,
      "name": "OSMAN GAZİ MAH",
      "area": "MERKEZKÖYLER",
      "postal_code": "24002"
    },
    {
      "id": 26455,
      "district_id": 341,
      "name": "OSMANLI MAH",
      "area": "BAHÇELİEVLER",
      "postal_code": "24050"
    },
    {
      "id": 26456,
      "district_id": 341,
      "name": "ÖZGÜRLÜK MAH",
      "area": "MERKEZKÖYLER",
      "postal_code": "24002"
    },
    {
      "id": 26457,
      "district_id": 341,
      "name": "PAŞA MAH",
      "area": "MERKEZKÖYLER",
      "postal_code": "24002"
    },
    {
      "id": 26458,
      "district_id": 341,
      "name": "PEKMEZLİ KÖYÜ",
      "area": "MERKEZKÖYLER",
      "postal_code": "24002"
    },
    {
      "id": 26459,
      "district_id": 341,
      "name": "PINARÖNÜ KÖYÜ",
      "area": "MERKEZKÖYLER",
      "postal_code": "24002"
    },
    {
      "id": 26460,
      "district_id": 341,
      "name": "SANCAK MAH",
      "area": "MERKEZKÖYLER",
      "postal_code": "24002"
    },
    {
      "id": 26461,
      "district_id": 341,
      "name": "SARIGÖL MAH",
      "area": "MERKEZKÖYLER",
      "postal_code": "24002"
    },
    {
      "id": 26462,
      "district_id": 341,
      "name": "SAZLIPINAR KÖYÜ",
      "area": "MERKEZKÖYLER",
      "postal_code": "24002"
    },
    {
      "id": 26463,
      "district_id": 341,
      "name": "SAZTEPE KÖYÜ",
      "area": "MERKEZKÖYLER",
      "postal_code": "24002"
    },
    {
      "id": 26464,
      "district_id": 341,
      "name": "ŞEHİT CENGİZ TOPEL MAH",
      "area": "MERKEZKÖYLER",
      "postal_code": "24002"
    },
    {
      "id": 26465,
      "district_id": 341,
      "name": "ŞEHİT SERHAT YURTBAŞI MAH",
      "area": "MERKEZKÖYLER",
      "postal_code": "24002"
    },
    {
      "id": 26466,
      "district_id": 341,
      "name": "ŞEHİTSERHAT MAH (YAYLABAŞI BELDESİ)",
      "area": "MERKEZKÖYLER",
      "postal_code": "24002"
    },
    {
      "id": 26467,
      "district_id": 341,
      "name": "ŞELALE MAH (ÇAĞLAYAN BELDESİ)",
      "area": "ÇAĞLAYAN",
      "postal_code": "24130"
    },
    {
      "id": 26468,
      "district_id": 341,
      "name": "SELÇUKLU MAH (YAYLABAŞI BELDESİ)",
      "area": "MERKEZKÖYLER",
      "postal_code": "24002"
    },
    {
      "id": 26469,
      "district_id": 341,
      "name": "SEYİTLER MAH (MECİDİYE KÖYÜ)",
      "area": "MERKEZKÖYLER",
      "postal_code": "24002"
    },
    {
      "id": 26470,
      "district_id": 341,
      "name": "SOĞUKOLUK KÖYÜ",
      "area": "MERKEZKÖYLER",
      "postal_code": "24002"
    },
    {
      "id": 26471,
      "district_id": 341,
      "name": "SÖĞÜTÖZÜ KÖYÜ",
      "area": "MERKEZKÖYLER",
      "postal_code": "24002"
    },
    {
      "id": 26472,
      "district_id": 341,
      "name": "ŞORAK MAH (AĞILÖZÜ KÖYÜ)",
      "area": "MERKEZKÖYLER",
      "postal_code": "24002"
    },
    {
      "id": 26473,
      "district_id": 341,
      "name": "SÜTPINAR KÖYÜ",
      "area": "MERKEZKÖYLER",
      "postal_code": "24002"
    },
    {
      "id": 26474,
      "district_id": 341,
      "name": "TAKSİM MAH",
      "area": "BAHÇELİEVLER",
      "postal_code": "24050"
    },
    {
      "id": 26475,
      "district_id": 341,
      "name": "TANDIRLI KÖYÜ",
      "area": "MERKEZKÖYLER",
      "postal_code": "24002"
    },
    {
      "id": 26476,
      "district_id": 341,
      "name": "TEPECİK MAH (MOLLAKÖY BELDESİ)",
      "area": "MOLLAKÖY",
      "postal_code": "24055"
    },
    {
      "id": 26477,
      "district_id": 341,
      "name": "TERZİBABA MAH",
      "area": "MERKEZKÖYLER",
      "postal_code": "24002"
    },
    {
      "id": 26478,
      "district_id": 341,
      "name": "TÜRKMENOĞLU KÖYÜ",
      "area": "MERKEZKÖYLER",
      "postal_code": "24002"
    },
    {
      "id": 26479,
      "district_id": 341,
      "name": "ÜÇKONAK MAH",
      "area": "MERKEZKÖYLER",
      "postal_code": "24002"
    },
    {
      "id": 26480,
      "district_id": 341,
      "name": "ULALAR MAH",
      "area": "MERKEZKÖYLER",
      "postal_code": "24002"
    },
    {
      "id": 26481,
      "district_id": 341,
      "name": "ÜREK MAH (ÜREK KÖYÜ)",
      "area": "MERKEZKÖYLER",
      "postal_code": "24002"
    },
    {
      "id": 26482,
      "district_id": 341,
      "name": "VANK MAH (GÜNBAĞI KÖYÜ)",
      "area": "MERKEZKÖYLER",
      "postal_code": "24002"
    },
    {
      "id": 26483,
      "district_id": 341,
      "name": "YALINCA KÖYÜ",
      "area": "MERKEZKÖYLER",
      "postal_code": "24002"
    },
    {
      "id": 26484,
      "district_id": 341,
      "name": "YALNIZBAĞ MAH",
      "area": "MERKEZKÖYLER",
      "postal_code": "24002"
    },
    {
      "id": 26485,
      "district_id": 341,
      "name": "YAMAÇLI MAH (ÇAĞLAYAN BELDESİ)",
      "area": "ÇAĞLAYAN",
      "postal_code": "24130"
    },
    {
      "id": 26486,
      "district_id": 341,
      "name": "YAVUZ SELİM MAH",
      "area": "BAHÇELİEVLER",
      "postal_code": "24050"
    },
    {
      "id": 26487,
      "district_id": 341,
      "name": "YENİDOĞAN MAH",
      "area": "MERKEZKÖYLER",
      "postal_code": "24002"
    },
    {
      "id": 26488,
      "district_id": 341,
      "name": "YENİKÖY KÖYÜ",
      "area": "MERKEZKÖYLER",
      "postal_code": "24002"
    },
    {
      "id": 26489,
      "district_id": 341,
      "name": "YENİMAHALLE MAH",
      "area": "BAHÇELİEVLER",
      "postal_code": "24050"
    },
    {
      "id": 26490,
      "district_id": 341,
      "name": "YEŞİLÇAT KÖYÜ",
      "area": "MERKEZKÖYLER",
      "postal_code": "24002"
    },
    {
      "id": 26491,
      "district_id": 341,
      "name": "YEŞİLÇAY KÖYÜ",
      "area": "MERKEZKÖYLER",
      "postal_code": "24002"
    },
    {
      "id": 26492,
      "district_id": 341,
      "name": "YEŞİLYURT MAH (MOLLAKÖY BELDESİ)",
      "area": "MOLLAKÖY",
      "postal_code": "24055"
    },
    {
      "id": 26493,
      "district_id": 341,
      "name": "YUNUS EMRE MAH",
      "area": "AKŞEMSETTİN",
      "postal_code": "24100"
    },
    {
      "id": 26494,
      "district_id": 342,
      "name": "AĞAMÇAĞAM KÖYÜ",
      "area": "MERKEZKÖYLER",
      "postal_code": "24515"
    },
    {
      "id": 26495,
      "district_id": 342,
      "name": "AVCIÇAYIRI KÖYÜ",
      "area": "MERKEZKÖYLER",
      "postal_code": "24515"
    },
    {
      "id": 26496,
      "district_id": 342,
      "name": "BOĞAZLI KÖYÜ",
      "area": "MERKEZKÖYLER",
      "postal_code": "24515"
    },
    {
      "id": 26497,
      "district_id": 342,
      "name": "FATİH MAH",
      "area": "OTLUKBELİ",
      "postal_code": "24510"
    },
    {
      "id": 26498,
      "district_id": 342,
      "name": "KARADİVAN KÖYÜ",
      "area": "MERKEZKÖYLER",
      "postal_code": "24515"
    },
    {
      "id": 26499,
      "district_id": 342,
      "name": "KÜÇÜKOTLUKBELİ KÖYÜ",
      "area": "MERKEZKÖYLER",
      "postal_code": "24515"
    },
    {
      "id": 26500,
      "district_id": 342,
      "name": "MEHMET AKİF ERSOY MAH",
      "area": "OTLUKBELİ",
      "postal_code": "24510"
    },
    {
      "id": 26501,
      "district_id": 342,
      "name": "MEZRA MAH (AĞAMÇAĞAM KÖYÜ)",
      "area": "MERKEZKÖYLER",
      "postal_code": "24515"
    },
    {
      "id": 26502,
      "district_id": 342,
      "name": "MEZRA MAH (SÖĞÜTLÜ KÖYÜ)",
      "area": "MERKEZKÖYLER",
      "postal_code": "24515"
    },
    {
      "id": 26503,
      "district_id": 342,
      "name": "ÖRDEKHACI KÖYÜ",
      "area": "MERKEZKÖYLER",
      "postal_code": "24515"
    },
    {
      "id": 26504,
      "district_id": 342,
      "name": "ŞEHİTLER MAH",
      "area": "OTLUKBELİ",
      "postal_code": "24510"
    },
    {
      "id": 26505,
      "district_id": 342,
      "name": "SÖĞÜTLÜ KÖYÜ",
      "area": "MERKEZKÖYLER",
      "postal_code": "24515"
    },
    {
      "id": 26506,
      "district_id": 342,
      "name": "UMURLU KÖYÜ",
      "area": "MERKEZKÖYLER",
      "postal_code": "24515"
    },
    {
      "id": 26507,
      "district_id": 342,
      "name": "YENİKÖY KÖYÜ",
      "area": "MERKEZKÖYLER",
      "postal_code": "24515"
    },
    {
      "id": 26508,
      "district_id": 342,
      "name": "YEŞİLBÜK KÖYÜ",
      "area": "MERKEZKÖYLER",
      "postal_code": "24515"
    },
    {
      "id": 26509,
      "district_id": 343,
      "name": "AĞMUSA KÖYÜ",
      "area": "MERKEZKÖYLER",
      "postal_code": "24302"
    },
    {
      "id": 26510,
      "district_id": 343,
      "name": "AĞTAŞ MAH (BABAARSLAN KÖYÜ)",
      "area": "MERKEZKÖYLER",
      "postal_code": "24302"
    },
    {
      "id": 26511,
      "district_id": 343,
      "name": "AKARSU KÖYÜ",
      "area": "MERKEZKÖYLER",
      "postal_code": "24302"
    },
    {
      "id": 26512,
      "district_id": 343,
      "name": "AKBAĞ KÖYÜ",
      "area": "MERKEZKÖYLER",
      "postal_code": "24302"
    },
    {
      "id": 26513,
      "district_id": 343,
      "name": "AKÇİĞDEM KÖYÜ",
      "area": "MERKEZKÖYLER",
      "postal_code": "24302"
    },
    {
      "id": 26514,
      "district_id": 343,
      "name": "AKMEŞE MAH (ORTAGÖZE KÖYÜ)",
      "area": "MERKEZKÖYLER",
      "postal_code": "24302"
    },
    {
      "id": 26515,
      "district_id": 343,
      "name": "ALACAATLI KÖYÜ",
      "area": "MERKEZKÖYLER",
      "postal_code": "24302"
    },
    {
      "id": 26516,
      "district_id": 343,
      "name": "ALACAHAN MAH (KÜRELİK KÖYÜ)",
      "area": "MERKEZKÖYLER",
      "postal_code": "24302"
    },
    {
      "id": 26517,
      "district_id": 343,
      "name": "ALAÇAYIR KÖYÜ",
      "area": "MERKEZKÖYLER",
      "postal_code": "24302"
    },
    {
      "id": 26518,
      "district_id": 343,
      "name": "ALAPINAR KÖYÜ",
      "area": "MERKEZKÖYLER",
      "postal_code": "24302"
    },
    {
      "id": 26519,
      "district_id": 343,
      "name": "ALTKÖY KÖYÜ",
      "area": "MERKEZKÖYLER",
      "postal_code": "24302"
    },
    {
      "id": 26520,
      "district_id": 343,
      "name": "ARDIÇLIK KÖYÜ",
      "area": "MERKEZKÖYLER",
      "postal_code": "24302"
    },
    {
      "id": 26521,
      "district_id": 343,
      "name": "ARMUTLU KÖYÜ",
      "area": "MERKEZKÖYLER",
      "postal_code": "24302"
    },
    {
      "id": 26522,
      "district_id": 343,
      "name": "ARPAYAZI KÖYÜ",
      "area": "MERKEZKÖYLER",
      "postal_code": "24302"
    },
    {
      "id": 26523,
      "district_id": 343,
      "name": "AŞAĞIMADEN-ÇAMDİBİ MAH (MADENDERE KÖYÜ)",
      "area": "MERKEZKÖYLER",
      "postal_code": "24302"
    },
    {
      "id": 26524,
      "district_id": 343,
      "name": "AŞAĞISÜTLÜ KÖYÜ",
      "area": "MERKEZKÖYLER",
      "postal_code": "24302"
    },
    {
      "id": 26525,
      "district_id": 343,
      "name": "ASLANYUSUF KÖYÜ",
      "area": "MERKEZKÖYLER",
      "postal_code": "24302"
    },
    {
      "id": 26526,
      "district_id": 343,
      "name": "AŞUT KÖYÜ",
      "area": "MERKEZKÖYLER",
      "postal_code": "24302"
    },
    {
      "id": 26527,
      "district_id": 343,
      "name": "AVŞARÖZÜ KÖYÜ",
      "area": "MERKEZKÖYLER",
      "postal_code": "24302"
    },
    {
      "id": 26528,
      "district_id": 343,
      "name": "AYDINCIK KÖYÜ",
      "area": "MERKEZKÖYLER",
      "postal_code": "24302"
    },
    {
      "id": 26529,
      "district_id": 343,
      "name": "AYDINCIK MAH (KANBERAĞA KÖYÜ)",
      "area": "MERKEZKÖYLER",
      "postal_code": "24302"
    },
    {
      "id": 26530,
      "district_id": 343,
      "name": "AYDOĞAN KÖYÜ",
      "area": "MERKEZKÖYLER",
      "postal_code": "24302"
    },
    {
      "id": 26531,
      "district_id": 343,
      "name": "AYDOĞAN MAH (AYDOĞAN KÖYÜ)",
      "area": "MERKEZKÖYLER",
      "postal_code": "24302"
    },
    {
      "id": 26532,
      "district_id": 343,
      "name": "BABAARSLAN KÖYÜ",
      "area": "MERKEZKÖYLER",
      "postal_code": "24302"
    },
    {
      "id": 26533,
      "district_id": 343,
      "name": "BABOLAR MAH (GÜLENSU KÖYÜ)",
      "area": "MERKEZKÖYLER",
      "postal_code": "24302"
    },
    {
      "id": 26534,
      "district_id": 343,
      "name": "BAKACAK KÖYÜ",
      "area": "MERKEZKÖYLER",
      "postal_code": "24302"
    },
    {
      "id": 26535,
      "district_id": 343,
      "name": "BALOĞLU KÖYÜ",
      "area": "MERKEZKÖYLER",
      "postal_code": "24302"
    },
    {
      "id": 26536,
      "district_id": 343,
      "name": "BAŞTOSUN KÖYÜ",
      "area": "MERKEZKÖYLER",
      "postal_code": "24302"
    },
    {
      "id": 26537,
      "district_id": 343,
      "name": "BEKTAŞLI MAH (MENDEMEBAŞI KÖYÜ)",
      "area": "MERKEZKÖYLER",
      "postal_code": "24302"
    },
    {
      "id": 26538,
      "district_id": 343,
      "name": "BİÇER KÖYÜ",
      "area": "MERKEZKÖYLER",
      "postal_code": "24302"
    },
    {
      "id": 26539,
      "district_id": 343,
      "name": "BİNALİ YILDIRIM MAH",
      "area": "REFAHİYE",
      "postal_code": "24300"
    },
    {
      "id": 26540,
      "district_id": 343,
      "name": "BÖLÜKTEPE KÖYÜ",
      "area": "MERKEZKÖYLER",
      "postal_code": "24302"
    },
    {
      "id": 26541,
      "district_id": 343,
      "name": "BOSTANDERE KÖYÜ",
      "area": "MERKEZKÖYLER",
      "postal_code": "24302"
    },
    {
      "id": 26542,
      "district_id": 343,
      "name": "BULAK MAH (ORTAGÖZE KÖYÜ)",
      "area": "MERKEZKÖYLER",
      "postal_code": "24302"
    },
    {
      "id": 26543,
      "district_id": 343,
      "name": "ÇALTI KÖYÜ",
      "area": "MERKEZKÖYLER",
      "postal_code": "24302"
    },
    {
      "id": 26544,
      "district_id": 343,
      "name": "ÇAMDİBİ KÖYÜ",
      "area": "MERKEZKÖYLER",
      "postal_code": "24302"
    },
    {
      "id": 26545,
      "district_id": 343,
      "name": "CAMİİŞERİF MAH",
      "area": "REFAHİYE",
      "postal_code": "24300"
    },
    {
      "id": 26546,
      "district_id": 343,
      "name": "ÇAMLIMÜLK KÖYÜ",
      "area": "MERKEZKÖYLER",
      "postal_code": "24302"
    },
    {
      "id": 26547,
      "district_id": 343,
      "name": "ÇAT KÖYÜ",
      "area": "MERKEZKÖYLER",
      "postal_code": "24302"
    },
    {
      "id": 26548,
      "district_id": 343,
      "name": "ÇATAK KÖYÜ",
      "area": "MERKEZKÖYLER",
      "postal_code": "24302"
    },
    {
      "id": 26549,
      "district_id": 343,
      "name": "ÇATALÇAM KÖYÜ",
      "area": "MERKEZKÖYLER",
      "postal_code": "24302"
    },
    {
      "id": 26550,
      "district_id": 343,
      "name": "ÇAVUŞ KÖYÜ",
      "area": "MERKEZKÖYLER",
      "postal_code": "24302"
    },
    {
      "id": 26551,
      "district_id": 343,
      "name": "CENGERLİ KÖYÜ",
      "area": "MERKEZKÖYLER",
      "postal_code": "24302"
    },
    {
      "id": 26552,
      "district_id": 343,
      "name": "ÇERÇİLER MAH (DİŞTAŞ KÖYÜ)",
      "area": "MERKEZKÖYLER",
      "postal_code": "24302"
    },
    {
      "id": 26553,
      "district_id": 343,
      "name": "ÇİÇEKALİ KÖYÜ",
      "area": "MERKEZKÖYLER",
      "postal_code": "24302"
    },
    {
      "id": 26554,
      "district_id": 343,
      "name": "ÇIRAGEDİĞİ KÖYÜ",
      "area": "MERKEZKÖYLER",
      "postal_code": "24302"
    },
    {
      "id": 26555,
      "district_id": 343,
      "name": "ÇOBANLI MAH (RESULLER KÖYÜ)",
      "area": "MERKEZKÖYLER",
      "postal_code": "24302"
    },
    {
      "id": 26556,
      "district_id": 343,
      "name": "ÇUKURÇİMEN KÖYÜ",
      "area": "MERKEZKÖYLER",
      "postal_code": "24302"
    },
    {
      "id": 26557,
      "district_id": 343,
      "name": "ÇUKURYAZI KÖYÜ",
      "area": "MERKEZKÖYLER",
      "postal_code": "24302"
    },
    {
      "id": 26558,
      "district_id": 343,
      "name": "DAMLACA KÖYÜ",
      "area": "MERKEZKÖYLER",
      "postal_code": "24302"
    },
    {
      "id": 26559,
      "district_id": 343,
      "name": "DEDEPINAR MAH (YUKARISÜTLÜ KÖYÜ)",
      "area": "MERKEZKÖYLER",
      "postal_code": "24302"
    },
    {
      "id": 26560,
      "district_id": 343,
      "name": "DELİKTAŞ MAH (YENİYURT KÖYÜ)",
      "area": "MERKEZKÖYLER",
      "postal_code": "24302"
    },
    {
      "id": 26561,
      "district_id": 343,
      "name": "DEREBAŞI KÖYÜ",
      "area": "MERKEZKÖYLER",
      "postal_code": "24302"
    },
    {
      "id": 26562,
      "district_id": 343,
      "name": "DERE-YAYLA MAH (ÇUKURÇİMEN KÖYÜ)",
      "area": "MERKEZKÖYLER",
      "postal_code": "24302"
    },
    {
      "id": 26563,
      "district_id": 343,
      "name": "DİKKE--BAYIRLI MAH (KEÇEGÖZ KÖYÜ)",
      "area": "MERKEZKÖYLER",
      "postal_code": "24302"
    },
    {
      "id": 26564,
      "district_id": 343,
      "name": "DİŞTAŞ KÖYÜ",
      "area": "MERKEZKÖYLER",
      "postal_code": "24302"
    },
    {
      "id": 26565,
      "district_id": 343,
      "name": "DİYARLAR KÖYÜ",
      "area": "MERKEZKÖYLER",
      "postal_code": "24302"
    },
    {
      "id": 26566,
      "district_id": 343,
      "name": "DOĞANDERE KÖYÜ",
      "area": "MERKEZKÖYLER",
      "postal_code": "24302"
    },
    {
      "id": 26567,
      "district_id": 343,
      "name": "DOLAYLI KÖYÜ",
      "area": "MERKEZKÖYLER",
      "postal_code": "24302"
    },
    {
      "id": 26568,
      "district_id": 343,
      "name": "DOSTOLAR-UYSAL MAH (LEVENTLER KÖYÜ)",
      "area": "MERKEZKÖYLER",
      "postal_code": "24302"
    },
    {
      "id": 26569,
      "district_id": 343,
      "name": "EKECİK KÖYÜ",
      "area": "MERKEZKÖYLER",
      "postal_code": "24302"
    },
    {
      "id": 26570,
      "district_id": 343,
      "name": "EMİRDERE MAH (KANBERAĞA KÖYÜ)",
      "area": "MERKEZKÖYLER",
      "postal_code": "24302"
    },
    {
      "id": 26571,
      "district_id": 343,
      "name": "ERECEK KÖYÜ",
      "area": "MERKEZKÖYLER",
      "postal_code": "24302"
    },
    {
      "id": 26572,
      "district_id": 343,
      "name": "ESKİKONAK MAH (YENİYURT KÖYÜ)",
      "area": "MERKEZKÖYLER",
      "postal_code": "24302"
    },
    {
      "id": 26573,
      "district_id": 343,
      "name": "GAZİPINAR KÖYÜ",
      "area": "MERKEZKÖYLER",
      "postal_code": "24302"
    },
    {
      "id": 26574,
      "district_id": 343,
      "name": "GEMECİK KÖYÜ",
      "area": "MERKEZKÖYLER",
      "postal_code": "24302"
    },
    {
      "id": 26575,
      "district_id": 343,
      "name": "GENCOLAR-ESENLİK MAH (ÇUKURÇİMEN KÖYÜ)",
      "area": "MERKEZKÖYLER",
      "postal_code": "24302"
    },
    {
      "id": 26576,
      "district_id": 343,
      "name": "GÖÇEVİ KÖYÜ",
      "area": "MERKEZKÖYLER",
      "postal_code": "24302"
    },
    {
      "id": 26577,
      "district_id": 343,
      "name": "GÖKSEKİ KÖYÜ",
      "area": "MERKEZKÖYLER",
      "postal_code": "24302"
    },
    {
      "id": 26578,
      "district_id": 343,
      "name": "GÖLCÜK MAH (KAÇAK KÖYÜ)",
      "area": "MERKEZKÖYLER",
      "postal_code": "24302"
    },
    {
      "id": 26579,
      "district_id": 343,
      "name": "GÖLKÖY KÖYÜ",
      "area": "MERKEZKÖYLER",
      "postal_code": "24302"
    },
    {
      "id": 26580,
      "district_id": 343,
      "name": "GÖMÜ MAH (MENDEMEBAŞI KÖYÜ)",
      "area": "MERKEZKÖYLER",
      "postal_code": "24302"
    },
    {
      "id": 26581,
      "district_id": 343,
      "name": "GÜLENSU KÖYÜ",
      "area": "MERKEZKÖYLER",
      "postal_code": "24302"
    },
    {
      "id": 26582,
      "district_id": 343,
      "name": "GÜMÜŞAKAR KÖYÜ",
      "area": "MERKEZKÖYLER",
      "postal_code": "24302"
    },
    {
      "id": 26583,
      "district_id": 343,
      "name": "GÜNYÜZÜ KÖYÜ",
      "area": "MERKEZKÖYLER",
      "postal_code": "24302"
    },
    {
      "id": 26584,
      "district_id": 343,
      "name": "GÜVENDİK MAH (YAYLABELİ KÖYÜ)",
      "area": "MERKEZKÖYLER",
      "postal_code": "24302"
    },
    {
      "id": 26585,
      "district_id": 343,
      "name": "GÜVENTEPE KÖYÜ",
      "area": "MERKEZKÖYLER",
      "postal_code": "24302"
    },
    {
      "id": 26586,
      "district_id": 343,
      "name": "GÜZLE KÖYÜ",
      "area": "MERKEZKÖYLER",
      "postal_code": "24302"
    },
    {
      "id": 26587,
      "district_id": 343,
      "name": "HACIKÖY KÖYÜ",
      "area": "MERKEZKÖYLER",
      "postal_code": "24302"
    },
    {
      "id": 26588,
      "district_id": 343,
      "name": "HAKOĞLU MAH",
      "area": "REFAHİYE",
      "postal_code": "24300"
    },
    {
      "id": 26589,
      "district_id": 343,
      "name": "HALİTLER KÖYÜ",
      "area": "MERKEZKÖYLER",
      "postal_code": "24302"
    },
    {
      "id": 26590,
      "district_id": 343,
      "name": "HİNİSLER-BAŞAKLI MAH (BABAARSLAN KÖYÜ)",
      "area": "MERKEZKÖYLER",
      "postal_code": "24302"
    },
    {
      "id": 26591,
      "district_id": 343,
      "name": "HÖKÜMET MAH",
      "area": "REFAHİYE",
      "postal_code": "24300"
    },
    {
      "id": 26592,
      "district_id": 343,
      "name": "İMECİK MAH (GÜLENSU KÖYÜ)",
      "area": "MERKEZKÖYLER",
      "postal_code": "24302"
    },
    {
      "id": 26593,
      "district_id": 343,
      "name": "İNCEHATİPLER MAH (DİŞTAŞ KÖYÜ)",
      "area": "MERKEZKÖYLER",
      "postal_code": "24302"
    },
    {
      "id": 26594,
      "district_id": 343,
      "name": "IŞIKLI MAH (GAZİPINAR KÖYÜ)",
      "area": "MERKEZKÖYLER",
      "postal_code": "24302"
    },
    {
      "id": 26595,
      "district_id": 343,
      "name": "KABULLER KÖYÜ",
      "area": "MERKEZKÖYLER",
      "postal_code": "24302"
    },
    {
      "id": 26596,
      "district_id": 343,
      "name": "KAÇAK KÖYÜ",
      "area": "MERKEZKÖYLER",
      "postal_code": "24302"
    },
    {
      "id": 26597,
      "district_id": 343,
      "name": "KADIKÖY KÖYÜ",
      "area": "MERKEZKÖYLER",
      "postal_code": "24302"
    },
    {
      "id": 26598,
      "district_id": 343,
      "name": "KALKANCI KÖYÜ",
      "area": "MERKEZKÖYLER",
      "postal_code": "24302"
    },
    {
      "id": 26599,
      "district_id": 343,
      "name": "KANBERAĞA KÖYÜ",
      "area": "MERKEZKÖYLER",
      "postal_code": "24302"
    },
    {
      "id": 26600,
      "district_id": 343,
      "name": "KANDİL KÖYÜ",
      "area": "MERKEZKÖYLER",
      "postal_code": "24302"
    },
    {
      "id": 26601,
      "district_id": 343,
      "name": "KANLITAŞ KÖYÜ",
      "area": "MERKEZKÖYLER",
      "postal_code": "24302"
    },
    {
      "id": 26602,
      "district_id": 343,
      "name": "KARASU KÖYÜ",
      "area": "MERKEZKÖYLER",
      "postal_code": "24302"
    },
    {
      "id": 26603,
      "district_id": 343,
      "name": "KARAYAPRAK KÖYÜ",
      "area": "MERKEZKÖYLER",
      "postal_code": "24302"
    },
    {
      "id": 26604,
      "district_id": 343,
      "name": "KARDEŞLER MAH (SÖĞÜTLÜ KÖYÜ)",
      "area": "MERKEZKÖYLER",
      "postal_code": "24302"
    },
    {
      "id": 26605,
      "district_id": 343,
      "name": "KARYATAĞI MAH (ÇAMLIMÜLK KÖYÜ)",
      "area": "MERKEZKÖYLER",
      "postal_code": "24302"
    },
    {
      "id": 26606,
      "district_id": 343,
      "name": "KAYI KÖYÜ",
      "area": "MERKEZKÖYLER",
      "postal_code": "24302"
    },
    {
      "id": 26607,
      "district_id": 343,
      "name": "KAZI MAH (ARPAYAZI KÖYÜ)",
      "area": "MERKEZKÖYLER",
      "postal_code": "24302"
    },
    {
      "id": 26608,
      "district_id": 343,
      "name": "KAZÖREN KÖYÜ",
      "area": "MERKEZKÖYLER",
      "postal_code": "24302"
    },
    {
      "id": 26609,
      "district_id": 343,
      "name": "KEÇEGÖZ KÖYÜ",
      "area": "MERKEZKÖYLER",
      "postal_code": "24302"
    },
    {
      "id": 26610,
      "district_id": 343,
      "name": "KEL SÜLEYMAN MAH (SÖĞÜTLÜ KÖYÜ)",
      "area": "MERKEZKÖYLER",
      "postal_code": "24302"
    },
    {
      "id": 26611,
      "district_id": 343,
      "name": "KERDAĞ MAH (DEREBAŞI KÖYÜ)",
      "area": "MERKEZKÖYLER",
      "postal_code": "24302"
    },
    {
      "id": 26612,
      "district_id": 343,
      "name": "KERSEN KÖYÜ",
      "area": "MERKEZKÖYLER",
      "postal_code": "24302"
    },
    {
      "id": 26613,
      "district_id": 343,
      "name": "KINOĞLU MAH (TEPE KÖYÜ)",
      "area": "MERKEZKÖYLER",
      "postal_code": "24302"
    },
    {
      "id": 26614,
      "district_id": 343,
      "name": "KIRANTEPE KÖYÜ",
      "area": "MERKEZKÖYLER",
      "postal_code": "24302"
    },
    {
      "id": 26615,
      "district_id": 343,
      "name": "KIRIKTAŞ KÖYÜ",
      "area": "MERKEZKÖYLER",
      "postal_code": "24302"
    },
    {
      "id": 26616,
      "district_id": 343,
      "name": "KIRKBULAK KÖYÜ",
      "area": "MERKEZKÖYLER",
      "postal_code": "24302"
    },
    {
      "id": 26617,
      "district_id": 343,
      "name": "KIZILİNİŞ KÖYÜ",
      "area": "MERKEZKÖYLER",
      "postal_code": "24302"
    },
    {
      "id": 26618,
      "district_id": 343,
      "name": "KOÇKAYA KÖYÜ",
      "area": "MERKEZKÖYLER",
      "postal_code": "24302"
    },
    {
      "id": 26619,
      "district_id": 343,
      "name": "KOÇO MAH (SÖĞÜTLÜ KÖYÜ)",
      "area": "MERKEZKÖYLER",
      "postal_code": "24302"
    },
    {
      "id": 26620,
      "district_id": 343,
      "name": "KONAKKÖY KÖYÜ",
      "area": "MERKEZKÖYLER",
      "postal_code": "24302"
    },
    {
      "id": 26621,
      "district_id": 343,
      "name": "KÖRİSMAİL MAH (ÇAMLIMÜLK KÖYÜ)",
      "area": "MERKEZKÖYLER",
      "postal_code": "24302"
    },
    {
      "id": 26622,
      "district_id": 343,
      "name": "KOVA MAH (YURTBAŞI KÖYÜ)",
      "area": "MERKEZKÖYLER",
      "postal_code": "24302"
    },
    {
      "id": 26623,
      "district_id": 343,
      "name": "KÜRELİK KÖYÜ",
      "area": "MERKEZKÖYLER",
      "postal_code": "24302"
    },
    {
      "id": 26624,
      "district_id": 343,
      "name": "KUŞCULLU MAH (SAĞLIK KÖYÜ)",
      "area": "MERKEZKÖYLER",
      "postal_code": "24302"
    },
    {
      "id": 26625,
      "district_id": 343,
      "name": "KUZULUK KÖYÜ",
      "area": "MERKEZKÖYLER",
      "postal_code": "24302"
    },
    {
      "id": 26626,
      "district_id": 343,
      "name": "LALELİ KÖYÜ",
      "area": "MERKEZKÖYLER",
      "postal_code": "24302"
    },
    {
      "id": 26627,
      "district_id": 343,
      "name": "LEVENTLER KÖYÜ",
      "area": "MERKEZKÖYLER",
      "postal_code": "24302"
    },
    {
      "id": 26628,
      "district_id": 343,
      "name": "MADENDERE KÖYÜ",
      "area": "MERKEZKÖYLER",
      "postal_code": "24302"
    },
    {
      "id": 26629,
      "district_id": 343,
      "name": "MEMİYURDU MAH (SÖĞÜTLÜ KÖYÜ)",
      "area": "MERKEZKÖYLER",
      "postal_code": "24302"
    },
    {
      "id": 26630,
      "district_id": 343,
      "name": "MENDEMEBAŞI KÖYÜ",
      "area": "MERKEZKÖYLER",
      "postal_code": "24302"
    },
    {
      "id": 26631,
      "district_id": 343,
      "name": "MENDEMEÇUKURU KÖYÜ",
      "area": "MERKEZKÖYLER",
      "postal_code": "24302"
    },
    {
      "id": 26632,
      "district_id": 343,
      "name": "MERKEZ KALKANCI KÖYÜ",
      "area": "MERKEZKÖYLER",
      "postal_code": "24302"
    },
    {
      "id": 26633,
      "district_id": 343,
      "name": "MOLLANINYERİ MAH (ÇAMLIMÜLK KÖYÜ)",
      "area": "MERKEZKÖYLER",
      "postal_code": "24302"
    },
    {
      "id": 26634,
      "district_id": 343,
      "name": "MÜLK KÖYÜ",
      "area": "MERKEZKÖYLER",
      "postal_code": "24302"
    },
    {
      "id": 26635,
      "district_id": 343,
      "name": "MURATÇAYIRI KÖYÜ",
      "area": "MERKEZKÖYLER",
      "postal_code": "24302"
    },
    {
      "id": 26636,
      "district_id": 343,
      "name": "OLGUNLAR KÖYÜ",
      "area": "MERKEZKÖYLER",
      "postal_code": "24302"
    },
    {
      "id": 26637,
      "district_id": 343,
      "name": "OLUKLU MAH (KOÇKAYA KÖYÜ)",
      "area": "MERKEZKÖYLER",
      "postal_code": "24302"
    },
    {
      "id": 26638,
      "district_id": 343,
      "name": "ONURLU KÖYÜ",
      "area": "MERKEZKÖYLER",
      "postal_code": "24302"
    },
    {
      "id": 26639,
      "district_id": 343,
      "name": "ÖREN KÖYÜ",
      "area": "MERKEZKÖYLER",
      "postal_code": "24302"
    },
    {
      "id": 26640,
      "district_id": 343,
      "name": "ÖREN MAH (RESULLER KÖYÜ)",
      "area": "MERKEZKÖYLER",
      "postal_code": "24302"
    },
    {
      "id": 26641,
      "district_id": 343,
      "name": "ORTAGÖZE KÖYÜ",
      "area": "MERKEZKÖYLER",
      "postal_code": "24302"
    },
    {
      "id": 26642,
      "district_id": 343,
      "name": "ÖRTÜLÜ MAH (KIRANTEPE KÖYÜ)",
      "area": "MERKEZKÖYLER",
      "postal_code": "24302"
    },
    {
      "id": 26643,
      "district_id": 343,
      "name": "OZAN MAH (AŞUT KÖYÜ)",
      "area": "MERKEZKÖYLER",
      "postal_code": "24302"
    },
    {
      "id": 26644,
      "district_id": 343,
      "name": "PERÇEM KÖYÜ",
      "area": "MERKEZKÖYLER",
      "postal_code": "24302"
    },
    {
      "id": 26645,
      "district_id": 343,
      "name": "PINARYOLU KÖYÜ",
      "area": "MERKEZKÖYLER",
      "postal_code": "24302"
    },
    {
      "id": 26646,
      "district_id": 343,
      "name": "PİROĞLU MAH (ÇAMLIMÜLK KÖYÜ)",
      "area": "MERKEZKÖYLER",
      "postal_code": "24302"
    },
    {
      "id": 26647,
      "district_id": 343,
      "name": "RESULLER KÖYÜ",
      "area": "MERKEZKÖYLER",
      "postal_code": "24302"
    },
    {
      "id": 26648,
      "district_id": 343,
      "name": "RESULOĞLU MAH (SÖĞÜTLÜ KÖYÜ)",
      "area": "MERKEZKÖYLER",
      "postal_code": "24302"
    },
    {
      "id": 26649,
      "district_id": 343,
      "name": "SAĞLIK KÖYÜ",
      "area": "MERKEZKÖYLER",
      "postal_code": "24302"
    },
    {
      "id": 26650,
      "district_id": 343,
      "name": "ŞAHVERDİ KÖYÜ",
      "area": "MERKEZKÖYLER",
      "postal_code": "24302"
    },
    {
      "id": 26651,
      "district_id": 343,
      "name": "ŞAİP KÖYÜ",
      "area": "MERKEZKÖYLER",
      "postal_code": "24302"
    },
    {
      "id": 26652,
      "district_id": 343,
      "name": "ŞAKALOĞLU KÖYÜ",
      "area": "MERKEZKÖYLER",
      "postal_code": "24302"
    },
    {
      "id": 26653,
      "district_id": 343,
      "name": "ŞAKKA-ÇİFTLİK MAH (BOSTANDERE KÖYÜ)",
      "area": "MERKEZKÖYLER",
      "postal_code": "24302"
    },
    {
      "id": 26654,
      "district_id": 343,
      "name": "SALUR KÖYÜ",
      "area": "MERKEZKÖYLER",
      "postal_code": "24302"
    },
    {
      "id": 26655,
      "district_id": 343,
      "name": "SARHAN KÖYÜ",
      "area": "MERKEZKÖYLER",
      "postal_code": "24302"
    },
    {
      "id": 26656,
      "district_id": 343,
      "name": "SARIBAYIR KÖYÜ",
      "area": "MERKEZKÖYLER",
      "postal_code": "24302"
    },
    {
      "id": 26657,
      "district_id": 343,
      "name": "SARIKOÇ KÖYÜ",
      "area": "MERKEZKÖYLER",
      "postal_code": "24302"
    },
    {
      "id": 26658,
      "district_id": 343,
      "name": "ŞIHORUÇ MAH (GÖLKÖY KÖYÜ)",
      "area": "MERKEZKÖYLER",
      "postal_code": "24302"
    },
    {
      "id": 26659,
      "district_id": 343,
      "name": "SIRALI KÖYÜ",
      "area": "MERKEZKÖYLER",
      "postal_code": "24302"
    },
    {
      "id": 26660,
      "district_id": 343,
      "name": "SÖĞÜTLÜ KÖYÜ",
      "area": "MERKEZKÖYLER",
      "postal_code": "24302"
    },
    {
      "id": 26661,
      "district_id": 343,
      "name": "TAHAR MAH (KONAKKÖY KÖYÜ)",
      "area": "MERKEZKÖYLER",
      "postal_code": "24302"
    },
    {
      "id": 26662,
      "district_id": 343,
      "name": "TAŞDİBİ-TAŞBAŞI MAH (ARPAYAZI KÖYÜ)",
      "area": "MERKEZKÖYLER",
      "postal_code": "24302"
    },
    {
      "id": 26663,
      "district_id": 343,
      "name": "TAŞLICA MAH (SÖĞÜTLÜ KÖYÜ)",
      "area": "MERKEZKÖYLER",
      "postal_code": "24302"
    },
    {
      "id": 26664,
      "district_id": 343,
      "name": "TEKNECİK KÖYÜ",
      "area": "MERKEZKÖYLER",
      "postal_code": "24302"
    },
    {
      "id": 26665,
      "district_id": 343,
      "name": "TEMÜR MAH (ARPAYAZI KÖYÜ)",
      "area": "MERKEZKÖYLER",
      "postal_code": "24302"
    },
    {
      "id": 26666,
      "district_id": 343,
      "name": "TEPE KÖYÜ",
      "area": "MERKEZKÖYLER",
      "postal_code": "24302"
    },
    {
      "id": 26667,
      "district_id": 343,
      "name": "TOPAĞAÇ KÖYÜ",
      "area": "MERKEZKÖYLER",
      "postal_code": "24302"
    },
    {
      "id": 26668,
      "district_id": 343,
      "name": "TOSUNLU MAH (KIZILİNİŞ KÖYÜ)",
      "area": "MERKEZKÖYLER",
      "postal_code": "24302"
    },
    {
      "id": 26669,
      "district_id": 343,
      "name": "TÜLÜ KÖYÜ",
      "area": "MERKEZKÖYLER",
      "postal_code": "24302"
    },
    {
      "id": 26670,
      "district_id": 343,
      "name": "TUZLAKONAĞI MAH (ORTAGÖZE KÖYÜ)",
      "area": "MERKEZKÖYLER",
      "postal_code": "24302"
    },
    {
      "id": 26671,
      "district_id": 343,
      "name": "TUZLUÇAYIR KÖYÜ",
      "area": "MERKEZKÖYLER",
      "postal_code": "24302"
    },
    {
      "id": 26672,
      "district_id": 343,
      "name": "ÜÇÖREN KÖYÜ",
      "area": "MERKEZKÖYLER",
      "postal_code": "24302"
    },
    {
      "id": 26673,
      "district_id": 343,
      "name": "ULUCAK KÖYÜ",
      "area": "MERKEZKÖYLER",
      "postal_code": "24302"
    },
    {
      "id": 26674,
      "district_id": 343,
      "name": "ULUDERE KÖYÜ",
      "area": "MERKEZKÖYLER",
      "postal_code": "24302"
    },
    {
      "id": 26675,
      "district_id": 343,
      "name": "YAĞMURTEPE MAH (KALKANCI KÖYÜ)",
      "area": "MERKEZKÖYLER",
      "postal_code": "24302"
    },
    {
      "id": 26676,
      "district_id": 343,
      "name": "YANIK MAH (ÇAMLIMÜLK KÖYÜ)",
      "area": "MERKEZKÖYLER",
      "postal_code": "24302"
    },
    {
      "id": 26677,
      "district_id": 343,
      "name": "YAYLA MAH (GAZİPINAR KÖYÜ)",
      "area": "MERKEZKÖYLER",
      "postal_code": "24302"
    },
    {
      "id": 26678,
      "district_id": 343,
      "name": "YAYLA MAH (YILDIZÖREN KÖYÜ)",
      "area": "MERKEZKÖYLER",
      "postal_code": "24302"
    },
    {
      "id": 26679,
      "district_id": 343,
      "name": "YAYLABAŞI MAH (GAZİPINAR KÖYÜ)",
      "area": "MERKEZKÖYLER",
      "postal_code": "24302"
    },
    {
      "id": 26680,
      "district_id": 343,
      "name": "YAYLABELİ KÖYÜ",
      "area": "MERKEZKÖYLER",
      "postal_code": "24302"
    },
    {
      "id": 26681,
      "district_id": 343,
      "name": "YAYLACIK MAH (ŞAHVERDİ KÖYÜ)",
      "area": "MERKEZKÖYLER",
      "postal_code": "24302"
    },
    {
      "id": 26682,
      "district_id": 343,
      "name": "YAYLAPINAR KÖYÜ",
      "area": "MERKEZKÖYLER",
      "postal_code": "24302"
    },
    {
      "id": 26683,
      "district_id": 343,
      "name": "YAZI KÖYÜ",
      "area": "MERKEZKÖYLER",
      "postal_code": "24302"
    },
    {
      "id": 26684,
      "district_id": 343,
      "name": "YAZI MAH (SALUR KÖYÜ)",
      "area": "MERKEZKÖYLER",
      "postal_code": "24302"
    },
    {
      "id": 26685,
      "district_id": 343,
      "name": "YAZIGEDİĞİ KÖYÜ",
      "area": "MERKEZKÖYLER",
      "postal_code": "24302"
    },
    {
      "id": 26686,
      "district_id": 343,
      "name": "YENİDOĞAN MAH",
      "area": "REFAHİYE",
      "postal_code": "24300"
    },
    {
      "id": 26687,
      "district_id": 343,
      "name": "YENİKÖY KÖYÜ",
      "area": "MERKEZKÖYLER",
      "postal_code": "24302"
    },
    {
      "id": 26688,
      "district_id": 343,
      "name": "YENİYURT KÖYÜ",
      "area": "MERKEZKÖYLER",
      "postal_code": "24302"
    },
    {
      "id": 26689,
      "district_id": 343,
      "name": "YERLİCE MAH (DİŞTAŞ KÖYÜ)",
      "area": "MERKEZKÖYLER",
      "postal_code": "24302"
    },
    {
      "id": 26690,
      "district_id": 343,
      "name": "YILDIZÖREN KÖYÜ",
      "area": "MERKEZKÖYLER",
      "postal_code": "24302"
    },
    {
      "id": 26691,
      "district_id": 343,
      "name": "YUKARISÜTLÜ KÖYÜ",
      "area": "MERKEZKÖYLER",
      "postal_code": "24302"
    },
    {
      "id": 26692,
      "district_id": 343,
      "name": "YUKARIYENİKÖY KÖYÜ",
      "area": "MERKEZKÖYLER",
      "postal_code": "24302"
    },
    {
      "id": 26693,
      "district_id": 343,
      "name": "YÜNLÜCE MAH (GÜVENTEPE KÖYÜ)",
      "area": "MERKEZKÖYLER",
      "postal_code": "24302"
    },
    {
      "id": 26694,
      "district_id": 343,
      "name": "YURTBAŞI KÖYÜ",
      "area": "MERKEZKÖYLER",
      "postal_code": "24302"
    },
    {
      "id": 26695,
      "district_id": 343,
      "name": "YUVADAĞI KÖYÜ",
      "area": "MERKEZKÖYLER",
      "postal_code": "24302"
    },
    {
      "id": 26696,
      "district_id": 343,
      "name": "ZERELER MAH (GÜLENSU KÖYÜ)",
      "area": "MERKEZKÖYLER",
      "postal_code": "24302"
    },
    {
      "id": 26697,
      "district_id": 344,
      "name": "A.TEPECİK  MAH (İĞİKİ MAH) (ILISU KÖYÜ)",
      "area": "MERKEZKÖYLER",
      "postal_code": "24802"
    },
    {
      "id": 26698,
      "district_id": 344,
      "name": "AĞÖREN KÖYÜ",
      "area": "MERKEZKÖYLER",
      "postal_code": "24802"
    },
    {
      "id": 26699,
      "district_id": 344,
      "name": "AHMET YESEVİ MAH",
      "area": "TERCAN",
      "postal_code": "24800"
    },
    {
      "id": 26700,
      "district_id": 344,
      "name": "AKMEZAR MEZRASI MAH (BALYAYLA KÖYÜ)",
      "area": "MERKEZKÖYLER",
      "postal_code": "24802"
    },
    {
      "id": 26701,
      "district_id": 344,
      "name": "AKŞEMSETTİN MAH (MERCAN BELDESİ)",
      "area": "MERCAN",
      "postal_code": "24860"
    },
    {
      "id": 26702,
      "district_id": 344,
      "name": "AKTAŞ KÖYÜ",
      "area": "MERKEZKÖYLER",
      "postal_code": "24802"
    },
    {
      "id": 26703,
      "district_id": 344,
      "name": "AKYURT KÖYÜ",
      "area": "MERKEZKÖYLER",
      "postal_code": "24802"
    },
    {
      "id": 26704,
      "district_id": 344,
      "name": "ALTINKAYA KÖYÜ",
      "area": "MERKEZKÖYLER",
      "postal_code": "24802"
    },
    {
      "id": 26705,
      "district_id": 344,
      "name": "ALTINOVA MEZRASI MAH (BULMUŞ KÖYÜ)",
      "area": "MERKEZKÖYLER",
      "postal_code": "24802"
    },
    {
      "id": 26706,
      "district_id": 344,
      "name": "ARAKEL KOMU MAH (BAŞBUDAK KÖYÜ)",
      "area": "MERKEZKÖYLER",
      "postal_code": "24802"
    },
    {
      "id": 26707,
      "district_id": 344,
      "name": "ARMUTLUK KÖYÜ",
      "area": "MERKEZKÖYLER",
      "postal_code": "24802"
    },
    {
      "id": 26708,
      "district_id": 344,
      "name": "AŞAĞI BAHÇE MEZRASI MAH (KONARLI KÖYÜ)",
      "area": "MERKEZKÖYLER",
      "postal_code": "24802"
    },
    {
      "id": 26709,
      "district_id": 344,
      "name": "AŞAĞI CEMAL MEZRASI MAH (KONARLI KÖYÜ)",
      "area": "MERKEZKÖYLER",
      "postal_code": "24802"
    },
    {
      "id": 26710,
      "district_id": 344,
      "name": "AŞAĞI KONARLI MEZRASI MAH (KONARLI KÖYÜ)",
      "area": "MERKEZKÖYLER",
      "postal_code": "24802"
    },
    {
      "id": 26711,
      "district_id": 344,
      "name": "ASLAN ÇAYIR MAH (GEDİKDERE KÖYÜ)",
      "area": "MERKEZKÖYLER",
      "postal_code": "24802"
    },
    {
      "id": 26712,
      "district_id": 344,
      "name": "ATATÜRK MAH",
      "area": "TERCAN",
      "postal_code": "24800"
    },
    {
      "id": 26713,
      "district_id": 344,
      "name": "ATATÜRK MAH (MERCAN BELDESİ)",
      "area": "MERCAN",
      "postal_code": "24860"
    },
    {
      "id": 26714,
      "district_id": 344,
      "name": "ATÇAYIRI MAH (DOLUCA KÖYÜ)",
      "area": "MERKEZKÖYLER",
      "postal_code": "24802"
    },
    {
      "id": 26715,
      "district_id": 344,
      "name": "AZİME MAH (YAZIÖREN KÖYÜ)",
      "area": "MERKEZKÖYLER",
      "postal_code": "24802"
    },
    {
      "id": 26716,
      "district_id": 344,
      "name": "BAĞPINAR KÖYÜ",
      "area": "MERKEZKÖYLER",
      "postal_code": "24802"
    },
    {
      "id": 26717,
      "district_id": 344,
      "name": "BAKÇECİK MAH (ÇALKIŞLA KÖYÜ)",
      "area": "MERKEZKÖYLER",
      "postal_code": "24802"
    },
    {
      "id": 26718,
      "district_id": 344,
      "name": "BALÖZÜ MEZRASI MAH (BALYAYLA KÖYÜ)",
      "area": "MERKEZKÖYLER",
      "postal_code": "24802"
    },
    {
      "id": 26719,
      "district_id": 344,
      "name": "BALYAYLA KÖYÜ",
      "area": "MERKEZKÖYLER",
      "postal_code": "24802"
    },
    {
      "id": 26720,
      "district_id": 344,
      "name": "BAŞBUDAK KÖYÜ",
      "area": "MERKEZKÖYLER",
      "postal_code": "24802"
    },
    {
      "id": 26721,
      "district_id": 344,
      "name": "BEĞENDİK KÖYÜ",
      "area": "MERKEZKÖYLER",
      "postal_code": "24802"
    },
    {
      "id": 26722,
      "district_id": 344,
      "name": "BEŞGÖZE KÖYÜ",
      "area": "MERKEZKÖYLER",
      "postal_code": "24802"
    },
    {
      "id": 26723,
      "district_id": 344,
      "name": "BEŞKAYA KÖYÜ",
      "area": "MERKEZKÖYLER",
      "postal_code": "24802"
    },
    {
      "id": 26724,
      "district_id": 344,
      "name": "BEY KOMU MEZRASI MAH (YAYLIM KÖYÜ)",
      "area": "MERKEZKÖYLER",
      "postal_code": "24802"
    },
    {
      "id": 26725,
      "district_id": 344,
      "name": "BEYKONAK KÖYÜ",
      "area": "MERKEZKÖYLER",
      "postal_code": "24802"
    },
    {
      "id": 26726,
      "district_id": 344,
      "name": "BÜKLÜMDERE KÖYÜ",
      "area": "MERKEZKÖYLER",
      "postal_code": "24802"
    },
    {
      "id": 26727,
      "district_id": 344,
      "name": "BULMUŞ KÖYÜ",
      "area": "MERKEZKÖYLER",
      "postal_code": "24802"
    },
    {
      "id": 26728,
      "district_id": 344,
      "name": "BULMUŞ-KOM MAH (BULMUŞ KÖYÜ)",
      "area": "MERKEZKÖYLER",
      "postal_code": "24802"
    },
    {
      "id": 26729,
      "district_id": 344,
      "name": "ÇALKIŞLA KÖYÜ",
      "area": "MERKEZKÖYLER",
      "postal_code": "24802"
    },
    {
      "id": 26730,
      "district_id": 344,
      "name": "CAMİİ KEBİR MAH (ÇADIRKAYA BELDESİ)",
      "area": "ÇADIRKAYA",
      "postal_code": "24870"
    },
    {
      "id": 26731,
      "district_id": 344,
      "name": "CAMİİ ŞERİF MAH (KARGIN BELDESİ)",
      "area": "KARGIN",
      "postal_code": "24880"
    },
    {
      "id": 26732,
      "district_id": 344,
      "name": "ÇATAKDERE KÖYÜ",
      "area": "MERKEZKÖYLER",
      "postal_code": "24802"
    },
    {
      "id": 26733,
      "district_id": 344,
      "name": "ÇAYIRDÜZÜ KÖYÜ",
      "area": "MERKEZKÖYLER",
      "postal_code": "24802"
    },
    {
      "id": 26734,
      "district_id": 344,
      "name": "ÇERME MAH (ILISU KÖYÜ)",
      "area": "MERKEZKÖYLER",
      "postal_code": "24802"
    },
    {
      "id": 26735,
      "district_id": 344,
      "name": "ÇİFTELER MEZRASI MAH (ESENEVLER KÖYÜ)",
      "area": "MERKEZKÖYLER",
      "postal_code": "24802"
    },
    {
      "id": 26736,
      "district_id": 344,
      "name": "CIRNAVUK MAH (FINDIKLI KÖYÜ)",
      "area": "MERKEZKÖYLER",
      "postal_code": "24802"
    },
    {
      "id": 26737,
      "district_id": 344,
      "name": "ÇUKURYURT KÖYÜ",
      "area": "MERKEZKÖYLER",
      "postal_code": "24802"
    },
    {
      "id": 26738,
      "district_id": 344,
      "name": "DALLICA KÖYÜ",
      "area": "MERKEZKÖYLER",
      "postal_code": "24802"
    },
    {
      "id": 26739,
      "district_id": 344,
      "name": "DARITEPE KÖYÜ",
      "area": "MERKEZKÖYLER",
      "postal_code": "24802"
    },
    {
      "id": 26740,
      "district_id": 344,
      "name": "DEĞİRMEN ARKASI MAH (KONARLI KÖYÜ)",
      "area": "MERKEZKÖYLER",
      "postal_code": "24802"
    },
    {
      "id": 26741,
      "district_id": 344,
      "name": "DEMİRKAPI MAH (DARITEPE KÖYÜ)",
      "area": "MERKEZKÖYLER",
      "postal_code": "24802"
    },
    {
      "id": 26742,
      "district_id": 344,
      "name": "DERE MAH (YAYLIM KÖYÜ)",
      "area": "MERKEZKÖYLER",
      "postal_code": "24802"
    },
    {
      "id": 26743,
      "district_id": 344,
      "name": "DEREÇAYIRI MAH (ILISU KÖYÜ)",
      "area": "MERKEZKÖYLER",
      "postal_code": "24802"
    },
    {
      "id": 26744,
      "district_id": 344,
      "name": "DERVİŞ MEZRASI MAH (GEDİKDERE KÖYÜ)",
      "area": "MERKEZKÖYLER",
      "postal_code": "24802"
    },
    {
      "id": 26745,
      "district_id": 344,
      "name": "DOLUCA KÖYÜ",
      "area": "MERKEZKÖYLER",
      "postal_code": "24802"
    },
    {
      "id": 26746,
      "district_id": 344,
      "name": "EDEBÜK KÖYÜ",
      "area": "MERKEZKÖYLER",
      "postal_code": "24802"
    },
    {
      "id": 26747,
      "district_id": 344,
      "name": "ELALDI KÖYÜ",
      "area": "MERKEZKÖYLER",
      "postal_code": "24802"
    },
    {
      "id": 26748,
      "district_id": 344,
      "name": "ELMALI MERKEZ MAH (ELMALI KÖYÜ)",
      "area": "MERKEZKÖYLER",
      "postal_code": "24802"
    },
    {
      "id": 26749,
      "district_id": 344,
      "name": "ESENEVLER KÖYÜ",
      "area": "MERKEZKÖYLER",
      "postal_code": "24802"
    },
    {
      "id": 26750,
      "district_id": 344,
      "name": "FATİH MAH",
      "area": "TERCAN",
      "postal_code": "24800"
    },
    {
      "id": 26751,
      "district_id": 344,
      "name": "FATİH MAH (MERCAN BELDESİ)",
      "area": "MERCAN",
      "postal_code": "24860"
    },
    {
      "id": 26752,
      "district_id": 344,
      "name": "FINDIKLI KÖYÜ",
      "area": "MERKEZKÖYLER",
      "postal_code": "24802"
    },
    {
      "id": 26753,
      "district_id": 344,
      "name": "GAFUREFENDİ KÖYÜ",
      "area": "MERKEZKÖYLER",
      "postal_code": "24802"
    },
    {
      "id": 26754,
      "district_id": 344,
      "name": "GEDİKDERE KÖYÜ",
      "area": "MERKEZKÖYLER",
      "postal_code": "24802"
    },
    {
      "id": 26755,
      "district_id": 344,
      "name": "GENÇALİ MAH (YAYLIM KÖYÜ)",
      "area": "MERKEZKÖYLER",
      "postal_code": "24802"
    },
    {
      "id": 26756,
      "district_id": 344,
      "name": "GEVENLİK KÖYÜ",
      "area": "MERKEZKÖYLER",
      "postal_code": "24802"
    },
    {
      "id": 26757,
      "district_id": 344,
      "name": "GİRNEVİK MAH (KONARLI KÖYÜ)",
      "area": "MERKEZKÖYLER",
      "postal_code": "24802"
    },
    {
      "id": 26758,
      "district_id": 344,
      "name": "GÖKÇE KÖYÜ",
      "area": "MERKEZKÖYLER",
      "postal_code": "24802"
    },
    {
      "id": 26759,
      "district_id": 344,
      "name": "GÖKDERE KÖYÜ",
      "area": "MERKEZKÖYLER",
      "postal_code": "24802"
    },
    {
      "id": 26760,
      "district_id": 344,
      "name": "GÖKPINAR KÖYÜ",
      "area": "MERKEZKÖYLER",
      "postal_code": "24802"
    },
    {
      "id": 26761,
      "district_id": 344,
      "name": "GÖKTAŞ KÖYÜ",
      "area": "MERKEZKÖYLER",
      "postal_code": "24802"
    },
    {
      "id": 26762,
      "district_id": 344,
      "name": "GÖL MEZRASI MAH (KONARLI KÖYÜ)",
      "area": "MERKEZKÖYLER",
      "postal_code": "24802"
    },
    {
      "id": 26763,
      "district_id": 344,
      "name": "GÖLLÜCE MAH (YAYLIM KÖYÜ)",
      "area": "MERKEZKÖYLER",
      "postal_code": "24802"
    },
    {
      "id": 26764,
      "district_id": 344,
      "name": "GÖNCÜKHAN MAH (YAYLIM KÖYÜ)",
      "area": "MERKEZKÖYLER",
      "postal_code": "24802"
    },
    {
      "id": 26765,
      "district_id": 344,
      "name": "GÖZELER MAH (ÇADIRKAYA BELDESİ)",
      "area": "ÇADIRKAYA",
      "postal_code": "24870"
    },
    {
      "id": 26766,
      "district_id": 344,
      "name": "GÜZBULAK KÖYÜ",
      "area": "MERKEZKÖYLER",
      "postal_code": "24802"
    },
    {
      "id": 26767,
      "district_id": 344,
      "name": "HACIBAYRAM KÖYÜ",
      "area": "MERKEZKÖYLER",
      "postal_code": "24802"
    },
    {
      "id": 26768,
      "district_id": 344,
      "name": "HARHURU MAH (BAŞBUDAK KÖYÜ)",
      "area": "MERKEZKÖYLER",
      "postal_code": "24802"
    },
    {
      "id": 26769,
      "district_id": 344,
      "name": "HAYRANLI MAH (KONARLI KÖYÜ)",
      "area": "MERKEZKÖYLER",
      "postal_code": "24802"
    },
    {
      "id": 26770,
      "district_id": 344,
      "name": "HOT MAH (YAYLIM KÖYÜ)",
      "area": "MERKEZKÖYLER",
      "postal_code": "24802"
    },
    {
      "id": 26771,
      "district_id": 344,
      "name": "İBRAHİMAĞA MEZRASI MAH (ESENEVLER KÖYÜ)",
      "area": "MERKEZKÖYLER",
      "postal_code": "24802"
    },
    {
      "id": 26772,
      "district_id": 344,
      "name": "İBRAHİMAĞA MEZRASI MAH (GÜZBULAK KÖYÜ)",
      "area": "MERKEZKÖYLER",
      "postal_code": "24802"
    },
    {
      "id": 26773,
      "district_id": 344,
      "name": "İKİZLER KÖYÜ",
      "area": "MERKEZKÖYLER",
      "postal_code": "24802"
    },
    {
      "id": 26774,
      "district_id": 344,
      "name": "İNAKLI MEZRASI MAH (YAYLIM KÖYÜ)",
      "area": "MERKEZKÖYLER",
      "postal_code": "24802"
    },
    {
      "id": 26775,
      "district_id": 344,
      "name": "İSHAK MAH (YAYLIM KÖYÜ)",
      "area": "MERKEZKÖYLER",
      "postal_code": "24802"
    },
    {
      "id": 26776,
      "district_id": 344,
      "name": "İSMAİL AĞA MAH (KONARLI KÖYÜ)",
      "area": "MERKEZKÖYLER",
      "postal_code": "24802"
    },
    {
      "id": 26777,
      "district_id": 344,
      "name": "İSTASYON MAH (KARGIN BELDESİ)",
      "area": "KARGIN",
      "postal_code": "24880"
    },
    {
      "id": 26778,
      "district_id": 344,
      "name": "KALE MEZRASI MAH (GEDİKDERE KÖYÜ)",
      "area": "MERKEZKÖYLER",
      "postal_code": "24802"
    },
    {
      "id": 26779,
      "district_id": 344,
      "name": "KALECİK KÖYÜ",
      "area": "MERKEZKÖYLER",
      "postal_code": "24802"
    },
    {
      "id": 26780,
      "district_id": 344,
      "name": "KAMER KOMU MAH (KONARLI KÖYÜ)",
      "area": "MERKEZKÖYLER",
      "postal_code": "24802"
    },
    {
      "id": 26781,
      "district_id": 344,
      "name": "KANÇO MEZRASI MAH (GEDİKDERE KÖYÜ)",
      "area": "MERKEZKÖYLER",
      "postal_code": "24802"
    },
    {
      "id": 26782,
      "district_id": 344,
      "name": "KARABAŞ MAH (KONARLI KÖYÜ)",
      "area": "MERKEZKÖYLER",
      "postal_code": "24802"
    },
    {
      "id": 26783,
      "district_id": 344,
      "name": "KARACAKIŞLAK KÖYÜ",
      "area": "MERKEZKÖYLER",
      "postal_code": "24802"
    },
    {
      "id": 26784,
      "district_id": 344,
      "name": "KARACAÖREN KÖYÜ",
      "area": "MERKEZKÖYLER",
      "postal_code": "24802"
    },
    {
      "id": 26785,
      "district_id": 344,
      "name": "KARAHÜSEYİN KÖYÜ",
      "area": "MERKEZKÖYLER",
      "postal_code": "24802"
    },
    {
      "id": 26786,
      "district_id": 344,
      "name": "KARLIK MAH (İKİZLER KÖYÜ)",
      "area": "MERKEZKÖYLER",
      "postal_code": "24802"
    },
    {
      "id": 26787,
      "district_id": 344,
      "name": "KARŞIKARABAŞ MAH (KONARLI KÖYÜ)",
      "area": "MERKEZKÖYLER",
      "postal_code": "24802"
    },
    {
      "id": 26788,
      "district_id": 344,
      "name": "KARUMNA MEZRASI MAH (YAYLIM KÖYÜ)",
      "area": "MERKEZKÖYLER",
      "postal_code": "24802"
    },
    {
      "id": 26789,
      "district_id": 344,
      "name": "KAVAKLI MAH (KARACAKIŞLAK KÖYÜ)",
      "area": "MERKEZKÖYLER",
      "postal_code": "24802"
    },
    {
      "id": 26790,
      "district_id": 344,
      "name": "KAVAKLIK KÖYÜ",
      "area": "MERKEZKÖYLER",
      "postal_code": "24802"
    },
    {
      "id": 26791,
      "district_id": 344,
      "name": "KAZIM KARABEKİR MAH",
      "area": "TERCAN",
      "postal_code": "24800"
    },
    {
      "id": 26792,
      "district_id": 344,
      "name": "KEBANİ MEZRASI MAH (GÜZBULAK KÖYÜ)",
      "area": "MERKEZKÖYLER",
      "postal_code": "24802"
    },
    {
      "id": 26793,
      "district_id": 344,
      "name": "KEMERÇAM KÖYÜ",
      "area": "MERKEZKÖYLER",
      "postal_code": "24802"
    },
    {
      "id": 26794,
      "district_id": 344,
      "name": "KEŞİŞ KOMU MAH (GEDİKDERE KÖYÜ)",
      "area": "MERKEZKÖYLER",
      "postal_code": "24802"
    },
    {
      "id": 26795,
      "district_id": 344,
      "name": "KİLİSE KOMU MAH (BAŞBUDAK KÖYÜ)",
      "area": "MERKEZKÖYLER",
      "postal_code": "24802"
    },
    {
      "id": 26796,
      "district_id": 344,
      "name": "KİLİSE MEZRASI MAH (YAYLIM KÖYÜ)",
      "area": "MERKEZKÖYLER",
      "postal_code": "24802"
    },
    {
      "id": 26797,
      "district_id": 344,
      "name": "KIZILCA KÖYÜ",
      "area": "MERKEZKÖYLER",
      "postal_code": "24802"
    },
    {
      "id": 26798,
      "district_id": 344,
      "name": "KONARLI KÖYÜ",
      "area": "MERKEZKÖYLER",
      "postal_code": "24802"
    },
    {
      "id": 26799,
      "district_id": 344,
      "name": "KÖPRÜBAŞI KÖYÜ",
      "area": "MERKEZKÖYLER",
      "postal_code": "24802"
    },
    {
      "id": 26800,
      "district_id": 344,
      "name": "KÖSEBEY KIŞLAĞI MEZRASI MAH (YUVALI KÖYÜ)",
      "area": "MERKEZKÖYLER",
      "postal_code": "24802"
    },
    {
      "id": 26801,
      "district_id": 344,
      "name": "KOT MAH (YAYLIM KÖYÜ)",
      "area": "MERKEZKÖYLER",
      "postal_code": "24802"
    },
    {
      "id": 26802,
      "district_id": 344,
      "name": "KÖZME MAH (KONARLI KÖYÜ)",
      "area": "MERKEZKÖYLER",
      "postal_code": "24802"
    },
    {
      "id": 26803,
      "district_id": 344,
      "name": "KÜÇÜKAĞA KÖYÜ",
      "area": "MERKEZKÖYLER",
      "postal_code": "24802"
    },
    {
      "id": 26804,
      "district_id": 344,
      "name": "KÜLLÜCE KÖYÜ",
      "area": "MERKEZKÖYLER",
      "postal_code": "24802"
    },
    {
      "id": 26805,
      "district_id": 344,
      "name": "KURUBEY MAH (YASTIKKÖY KÖYÜ)",
      "area": "MERKEZKÖYLER",
      "postal_code": "24802"
    },
    {
      "id": 26806,
      "district_id": 344,
      "name": "KÜRÜK MEZRASI MAH (YAYLIM KÖYÜ)",
      "area": "MERKEZKÖYLER",
      "postal_code": "24802"
    },
    {
      "id": 26807,
      "district_id": 344,
      "name": "KURUKOL KÖYÜ",
      "area": "MERKEZKÖYLER",
      "postal_code": "24802"
    },
    {
      "id": 26808,
      "district_id": 344,
      "name": "KUŞLU MAH (YAZIÖREN KÖYÜ)",
      "area": "MERKEZKÖYLER",
      "postal_code": "24802"
    },
    {
      "id": 26809,
      "district_id": 344,
      "name": "KUZÖREN KÖYÜ",
      "area": "MERKEZKÖYLER",
      "postal_code": "24802"
    },
    {
      "id": 26810,
      "district_id": 344,
      "name": "LOLAN MEZRASI MAH (YAYLIM KÖYÜ)",
      "area": "MERKEZKÖYLER",
      "postal_code": "24802"
    },
    {
      "id": 26811,
      "district_id": 344,
      "name": "MAMAHATUN MAH",
      "area": "TERCAN",
      "postal_code": "24800"
    },
    {
      "id": 26812,
      "district_id": 344,
      "name": "MANTARLI KÖYÜ",
      "area": "MERKEZKÖYLER",
      "postal_code": "24802"
    },
    {
      "id": 26813,
      "district_id": 344,
      "name": "MOLLAVELİ MAH (YAZIÖREN KÖYÜ)",
      "area": "MERKEZKÖYLER",
      "postal_code": "24802"
    },
    {
      "id": 26814,
      "district_id": 344,
      "name": "MÜFTÜOĞLU KÖYÜ",
      "area": "MERKEZKÖYLER",
      "postal_code": "24802"
    },
    {
      "id": 26815,
      "district_id": 344,
      "name": "MUSA KOMU MAH (ALTINKAYA KÖYÜ)",
      "area": "MERKEZKÖYLER",
      "postal_code": "24802"
    },
    {
      "id": 26816,
      "district_id": 344,
      "name": "MUSTAFABEY KÖYÜ",
      "area": "MERKEZKÖYLER",
      "postal_code": "24802"
    },
    {
      "id": 26817,
      "district_id": 344,
      "name": "OĞULVEREN KÖYÜ",
      "area": "MERKEZKÖYLER",
      "postal_code": "24802"
    },
    {
      "id": 26818,
      "district_id": 344,
      "name": "ORTAKOM MAH (DOLUCA KÖYÜ)",
      "area": "MERKEZKÖYLER",
      "postal_code": "24802"
    },
    {
      "id": 26819,
      "district_id": 344,
      "name": "ORTAKÖY KÖYÜ",
      "area": "MERKEZKÖYLER",
      "postal_code": "24802"
    },
    {
      "id": 26820,
      "district_id": 344,
      "name": "OYMATAŞ MAH (YAYLIM KÖYÜ)",
      "area": "MERKEZKÖYLER",
      "postal_code": "24802"
    },
    {
      "id": 26821,
      "district_id": 344,
      "name": "PENCİREK MAH (KONARLI KÖYÜ)",
      "area": "MERKEZKÖYLER",
      "postal_code": "24802"
    },
    {
      "id": 26822,
      "district_id": 344,
      "name": "ROSTO MEZRASI MAH (GÜZBULAK KÖYÜ)",
      "area": "MERKEZKÖYLER",
      "postal_code": "24802"
    },
    {
      "id": 26823,
      "district_id": 344,
      "name": "SAĞIR KOMU MAH (BAŞBUDAK KÖYÜ)",
      "area": "MERKEZKÖYLER",
      "postal_code": "24802"
    },
    {
      "id": 26824,
      "district_id": 344,
      "name": "SAĞLICA KÖYÜ",
      "area": "MERKEZKÖYLER",
      "postal_code": "24802"
    },
    {
      "id": 26825,
      "district_id": 344,
      "name": "ŞAKİRAĞA MAH (KONARLI KÖYÜ)",
      "area": "MERKEZKÖYLER",
      "postal_code": "24802"
    },
    {
      "id": 26826,
      "district_id": 344,
      "name": "SARIKAYA KÖYÜ",
      "area": "MERKEZKÖYLER",
      "postal_code": "24802"
    },
    {
      "id": 26827,
      "district_id": 344,
      "name": "ŞEHİT AHMET AYTEKİN MAH (KARGIN BELDESİ)",
      "area": "KARGIN",
      "postal_code": "24880"
    },
    {
      "id": 26828,
      "district_id": 344,
      "name": "ŞENGÜL KÖYÜ",
      "area": "MERKEZKÖYLER",
      "postal_code": "24802"
    },
    {
      "id": 26829,
      "district_id": 344,
      "name": "SEYGİ MEZRASI MAH (YALINKAŞ KÖYÜ)",
      "area": "MERKEZKÖYLER",
      "postal_code": "24802"
    },
    {
      "id": 26830,
      "district_id": 344,
      "name": "SIRMALI MAH (AKTAŞ KÖYÜ)",
      "area": "MERKEZKÖYLER",
      "postal_code": "24802"
    },
    {
      "id": 26831,
      "district_id": 344,
      "name": "SUCUALİ MAH (KARGIN BELDESİ)",
      "area": "KARGIN",
      "postal_code": "24880"
    },
    {
      "id": 26832,
      "district_id": 344,
      "name": "TEPEBAŞI KÖYÜ",
      "area": "MERKEZKÖYLER",
      "postal_code": "24802"
    },
    {
      "id": 26833,
      "district_id": 344,
      "name": "TOPALHASAN KÖYÜ",
      "area": "MERKEZKÖYLER",
      "postal_code": "24802"
    },
    {
      "id": 26834,
      "district_id": 344,
      "name": "TOPDURAĞI MAH (HACIBAYRAM KÖYÜ)",
      "area": "MERKEZKÖYLER",
      "postal_code": "24802"
    },
    {
      "id": 26835,
      "district_id": 344,
      "name": "ÜÇPINAR KÖYÜ",
      "area": "MERKEZKÖYLER",
      "postal_code": "24802"
    },
    {
      "id": 26836,
      "district_id": 344,
      "name": "Y.TEPECİK MAH (İĞİKİ MAH) (ILISU KÖYÜ)",
      "area": "MERKEZKÖYLER",
      "postal_code": "24802"
    },
    {
      "id": 26837,
      "district_id": 344,
      "name": "YALINKAŞ KÖYÜ",
      "area": "MERKEZKÖYLER",
      "postal_code": "24802"
    },
    {
      "id": 26838,
      "district_id": 344,
      "name": "YAMANLAR KÖYÜ",
      "area": "MERKEZKÖYLER",
      "postal_code": "24802"
    },
    {
      "id": 26839,
      "district_id": 344,
      "name": "YASTIKKÖY KÖYÜ",
      "area": "MERKEZKÖYLER",
      "postal_code": "24802"
    },
    {
      "id": 26840,
      "district_id": 344,
      "name": "YAVUZ SELİM MAH",
      "area": "TERCAN",
      "postal_code": "24800"
    },
    {
      "id": 26841,
      "district_id": 344,
      "name": "YAYLACIK KÖYÜ",
      "area": "MERKEZKÖYLER",
      "postal_code": "24802"
    },
    {
      "id": 26842,
      "district_id": 344,
      "name": "YAYLAYOLU KÖYÜ",
      "area": "MERKEZKÖYLER",
      "postal_code": "24802"
    },
    {
      "id": 26843,
      "district_id": 344,
      "name": "YAYLIM KÖYÜ",
      "area": "MERKEZKÖYLER",
      "postal_code": "24802"
    },
    {
      "id": 26844,
      "district_id": 344,
      "name": "YAZIÖREN KÖYÜ",
      "area": "MERKEZKÖYLER",
      "postal_code": "24802"
    },
    {
      "id": 26845,
      "district_id": 344,
      "name": "YENİ KÖY MEZRASI MAH (ESENEVLER KÖYÜ)",
      "area": "MERKEZKÖYLER",
      "postal_code": "24802"
    },
    {
      "id": 26846,
      "district_id": 344,
      "name": "YENİ MAH (ÇADIRKAYA BELDESİ)",
      "area": "ÇADIRKAYA",
      "postal_code": "24870"
    },
    {
      "id": 26847,
      "district_id": 344,
      "name": "YENİBUCAK KÖYÜ",
      "area": "MERKEZKÖYLER",
      "postal_code": "24802"
    },
    {
      "id": 26848,
      "district_id": 344,
      "name": "YENİEVLER MAH (İKİZLER KÖYÜ)",
      "area": "MERKEZKÖYLER",
      "postal_code": "24802"
    },
    {
      "id": 26849,
      "district_id": 344,
      "name": "YEŞİLYAYLA KÖYÜ",
      "area": "MERKEZKÖYLER",
      "postal_code": "24802"
    },
    {
      "id": 26850,
      "district_id": 344,
      "name": "YOĞURTLU  MAH ( MAZAN MAH) (YASTIKKÖY KÖYÜ)",
      "area": "MERKEZKÖYLER",
      "postal_code": "24802"
    },
    {
      "id": 26851,
      "district_id": 344,
      "name": "YOLLARÜSTÜ MAH (KARGIN BELDESİ)",
      "area": "KARGIN",
      "postal_code": "24880"
    },
    {
      "id": 26852,
      "district_id": 344,
      "name": "YOLLUCA MAH (ÇALKIŞLA KÖYÜ)",
      "area": "MERKEZKÖYLER",
      "postal_code": "24802"
    },
    {
      "id": 26853,
      "district_id": 344,
      "name": "YONCALAR MAH (KONARLI KÖYÜ)",
      "area": "MERKEZKÖYLER",
      "postal_code": "24802"
    },
    {
      "id": 26854,
      "district_id": 344,
      "name": "YUKARI BAHÇE MEZRASI MAH (KONARLI KÖYÜ)",
      "area": "MERKEZKÖYLER",
      "postal_code": "24802"
    },
    {
      "id": 26855,
      "district_id": 344,
      "name": "YUKARI BÜKLÜMDERE MAH (BÜKLÜMDERE KÖYÜ)",
      "area": "MERKEZKÖYLER",
      "postal_code": "24802"
    },
    {
      "id": 26856,
      "district_id": 344,
      "name": "YUKARI CEMAL MAZRASI MAH (KONARLI KÖYÜ)",
      "area": "MERKEZKÖYLER",
      "postal_code": "24802"
    },
    {
      "id": 26857,
      "district_id": 344,
      "name": "YUKARI GEDİKDERE MEZRASI MAH (GEDİKDERE KÖYÜ)",
      "area": "MERKEZKÖYLER",
      "postal_code": "24802"
    },
    {
      "id": 26858,
      "district_id": 344,
      "name": "YUKARI KONARLI MEZRASI MAH (KONARLI KÖYÜ)",
      "area": "MERKEZKÖYLER",
      "postal_code": "24802"
    },
    {
      "id": 26859,
      "district_id": 344,
      "name": "YUKARI PUN MAH (İKİZLER KÖYÜ)",
      "area": "MERKEZKÖYLER",
      "postal_code": "24802"
    },
    {
      "id": 26860,
      "district_id": 344,
      "name": "YUKARIKOM MAH (KONARLI KÖYÜ)",
      "area": "MERKEZKÖYLER",
      "postal_code": "24802"
    },
    {
      "id": 26861,
      "district_id": 344,
      "name": "YUVALI KÖYÜ",
      "area": "MERKEZKÖYLER",
      "postal_code": "24802"
    },
    {
      "id": 26862,
      "district_id": 344,
      "name": "ZİNCİRLİ MAH (AKTAŞ KÖYÜ)",
      "area": "MERKEZKÖYLER",
      "postal_code": "24802"
    },
    {
      "id": 26863,
      "district_id": 345,
      "name": "AHMETAĞA MAH (KUREYŞLİSARIKAYA KÖYÜ)",
      "area": "MERKEZKÖYLER",
      "postal_code": "24152"
    },
    {
      "id": 26864,
      "district_id": 345,
      "name": "AKBİNBURNU MAH (KUREYŞLİSARIKAYA KÖYÜ)",
      "area": "MERKEZKÖYLER",
      "postal_code": "24152"
    },
    {
      "id": 26865,
      "district_id": 345,
      "name": "AKBULUT MAH (BAYIRBAĞ KÖYÜ)",
      "area": "MERKEZKÖYLER",
      "postal_code": "24152"
    },
    {
      "id": 26866,
      "district_id": 345,
      "name": "AKÖREN VE AŞAĞI AKÖREN MAH (KUREYŞLİSARIKAYA KÖYÜ)",
      "area": "MERKEZKÖYLER",
      "postal_code": "24152"
    },
    {
      "id": 26867,
      "district_id": 345,
      "name": "ATATÜRK MAH (BAYIRBAĞ KÖYÜ)",
      "area": "MERKEZKÖYLER",
      "postal_code": "24152"
    },
    {
      "id": 26868,
      "district_id": 345,
      "name": "AVCILAR KÖYÜ",
      "area": "MERKEZKÖYLER",
      "postal_code": "24152"
    },
    {
      "id": 26869,
      "district_id": 345,
      "name": "BABACAN MAH",
      "area": "ÜZÜMLÜ",
      "postal_code": "24150"
    },
    {
      "id": 26870,
      "district_id": 345,
      "name": "BAĞLAR DEMİRKAPI MAH (BAĞLAR KÖYÜ)",
      "area": "MERKEZKÖYLER",
      "postal_code": "24152"
    },
    {
      "id": 26871,
      "district_id": 345,
      "name": "BAĞLAR KÖYÜ",
      "area": "MERKEZKÖYLER",
      "postal_code": "24152"
    },
    {
      "id": 26872,
      "district_id": 345,
      "name": "BAHÇELİEVLER MAH (BAYIRBAĞ KÖYÜ)",
      "area": "MERKEZKÖYLER",
      "postal_code": "24152"
    },
    {
      "id": 26873,
      "district_id": 345,
      "name": "BAHÇEŞEHİR MAH",
      "area": "ÜZÜMLÜ",
      "postal_code": "24150"
    },
    {
      "id": 26874,
      "district_id": 345,
      "name": "BALABANLI KÖYÜ",
      "area": "MERKEZKÖYLER",
      "postal_code": "24152"
    },
    {
      "id": 26875,
      "district_id": 345,
      "name": "BEKTAŞ MAH (PELİTLİ KÖYÜ)",
      "area": "MERKEZKÖYLER",
      "postal_code": "24152"
    },
    {
      "id": 26876,
      "district_id": 345,
      "name": "BULANIK KÖYÜ",
      "area": "MERKEZKÖYLER",
      "postal_code": "24152"
    },
    {
      "id": 26877,
      "district_id": 345,
      "name": "BÜYÜK KADAĞAN MAH (ALTINBAŞAK BELDESİ)",
      "area": "ALTINBAŞAK",
      "postal_code": "24160"
    },
    {
      "id": 26878,
      "district_id": 345,
      "name": "BÜYÜKKÖY ESKİ YERLEŞİM MAH (BÜYÜKKÖY KÖYÜ)",
      "area": "MERKEZKÖYLER",
      "postal_code": "24152"
    },
    {
      "id": 26879,
      "district_id": 345,
      "name": "BÜYÜKKÖY KÖYÜ",
      "area": "MERKEZKÖYLER",
      "postal_code": "24152"
    },
    {
      "id": 26880,
      "district_id": 345,
      "name": "ÇADIRTEPE KÖYÜ",
      "area": "MERKEZKÖYLER",
      "postal_code": "24152"
    },
    {
      "id": 26881,
      "district_id": 345,
      "name": "ÇAMLICA KÖYÜ",
      "area": "MERKEZKÖYLER",
      "postal_code": "24152"
    },
    {
      "id": 26882,
      "district_id": 345,
      "name": "ÇARDAKLI DERMELİ MEZRASI MAH (ÇARDAKLI KÖYÜ)",
      "area": "MERKEZKÖYLER",
      "postal_code": "24152"
    },
    {
      "id": 26883,
      "district_id": 345,
      "name": "ÇARDAKLI DÜZALİ MEZRASI MAH (ÇARDAKLI KÖYÜ)",
      "area": "MERKEZKÖYLER",
      "postal_code": "24152"
    },
    {
      "id": 26884,
      "district_id": 345,
      "name": "ÇARDAKLI KÖYÜ",
      "area": "MERKEZKÖYLER",
      "postal_code": "24152"
    },
    {
      "id": 26885,
      "district_id": 345,
      "name": "ÇARDAKLI MURAT KOMU MEZRASI MAH (ÇARDAKLI KÖYÜ)",
      "area": "MERKEZKÖYLER",
      "postal_code": "24152"
    },
    {
      "id": 26886,
      "district_id": 345,
      "name": "ÇARDAKLI ŞAKO MEZRASI MAH (ÇARDAKLI KÖYÜ)",
      "area": "MERKEZKÖYLER",
      "postal_code": "24152"
    },
    {
      "id": 26887,
      "district_id": 345,
      "name": "ÇAVUŞLU MAH",
      "area": "ÜZÜMLÜ",
      "postal_code": "24150"
    },
    {
      "id": 26888,
      "district_id": 345,
      "name": "ÇAY MAH",
      "area": "ÜZÜMLÜ",
      "postal_code": "24150"
    },
    {
      "id": 26889,
      "district_id": 345,
      "name": "ÇAYIRYAZI KÖYÜ",
      "area": "MERKEZKÖYLER",
      "postal_code": "24152"
    },
    {
      "id": 26890,
      "district_id": 345,
      "name": "ÇAYKOMU MAH (BALABANLI KÖYÜ)",
      "area": "MERKEZKÖYLER",
      "postal_code": "24152"
    },
    {
      "id": 26891,
      "district_id": 345,
      "name": "ÇERMİK MAH (KARAKAYA KÖYÜ)",
      "area": "MERKEZKÖYLER",
      "postal_code": "24152"
    },
    {
      "id": 26892,
      "district_id": 345,
      "name": "ÇİKOLAR MAH (BAĞLAR KÖYÜ)",
      "area": "MERKEZKÖYLER",
      "postal_code": "24152"
    },
    {
      "id": 26893,
      "district_id": 345,
      "name": "CİMİNLİ BABA MAH",
      "area": "ÜZÜMLÜ",
      "postal_code": "24150"
    },
    {
      "id": 26894,
      "district_id": 345,
      "name": "ÇINARLI MAH (KARAKAYA KÖYÜ)",
      "area": "MERKEZKÖYLER",
      "postal_code": "24152"
    },
    {
      "id": 26895,
      "district_id": 345,
      "name": "DEĞİRMENDERE MAH (PELİTLİ KÖYÜ)",
      "area": "MERKEZKÖYLER",
      "postal_code": "24152"
    },
    {
      "id": 26896,
      "district_id": 345,
      "name": "DEMİRPINAR KÖYÜ",
      "area": "MERKEZKÖYLER",
      "postal_code": "24152"
    },
    {
      "id": 26897,
      "district_id": 345,
      "name": "DENİZDAMI KÖYÜ",
      "area": "MERKEZKÖYLER",
      "postal_code": "24152"
    },
    {
      "id": 26898,
      "district_id": 345,
      "name": "DEREBÜK KÖYÜ",
      "area": "MERKEZKÖYLER",
      "postal_code": "24152"
    },
    {
      "id": 26899,
      "district_id": 345,
      "name": "DÜZALİ MAH (ÇARDAKLI KÖYÜ)",
      "area": "MERKEZKÖYLER",
      "postal_code": "24152"
    },
    {
      "id": 26900,
      "district_id": 345,
      "name": "ERGENEKON MAH (KARAKAYA KÖYÜ)",
      "area": "MERKEZKÖYLER",
      "postal_code": "24152"
    },
    {
      "id": 26901,
      "district_id": 345,
      "name": "ESENYURT KÖYÜ",
      "area": "MERKEZKÖYLER",
      "postal_code": "24152"
    },
    {
      "id": 26902,
      "district_id": 345,
      "name": "ESKİ AVCILAR MAH (AVCILAR KÖYÜ)",
      "area": "MERKEZKÖYLER",
      "postal_code": "24152"
    },
    {
      "id": 26903,
      "district_id": 345,
      "name": "FATİH MAH",
      "area": "ÜZÜMLÜ",
      "postal_code": "24150"
    },
    {
      "id": 26904,
      "district_id": 345,
      "name": "FEVZİPAŞA MAH (KARAKAYA KÖYÜ)",
      "area": "MERKEZKÖYLER",
      "postal_code": "24152"
    },
    {
      "id": 26905,
      "district_id": 345,
      "name": "FIRAT MAH (ALTINBAŞAK BELDESİ)",
      "area": "ALTINBAŞAK",
      "postal_code": "24160"
    },
    {
      "id": 26906,
      "district_id": 345,
      "name": "GALCA MAH (AVCILAR KÖYÜ)",
      "area": "MERKEZKÖYLER",
      "postal_code": "24152"
    },
    {
      "id": 26907,
      "district_id": 345,
      "name": "GEDİKARKASI MAH (ÇARDAKLI KÖYÜ)",
      "area": "MERKEZKÖYLER",
      "postal_code": "24152"
    },
    {
      "id": 26908,
      "district_id": 345,
      "name": "GEYİKLİ MAH",
      "area": "ÜZÜMLÜ",
      "postal_code": "24150"
    },
    {
      "id": 26909,
      "district_id": 345,
      "name": "GÖLLER KÖYÜ",
      "area": "MERKEZKÖYLER",
      "postal_code": "24152"
    },
    {
      "id": 26910,
      "district_id": 345,
      "name": "GÜLPINAR MAH (KUREYŞLİSARIKAYA KÖYÜ)",
      "area": "MERKEZKÖYLER",
      "postal_code": "24152"
    },
    {
      "id": 26911,
      "district_id": 345,
      "name": "HASANAĞA MAH (KUREYŞLİSARIKAYA KÖYÜ)",
      "area": "MERKEZKÖYLER",
      "postal_code": "24152"
    },
    {
      "id": 26912,
      "district_id": 345,
      "name": "İNANDIK MAH (ESENYURT KÖYÜ)",
      "area": "MERKEZKÖYLER",
      "postal_code": "24152"
    },
    {
      "id": 26913,
      "district_id": 345,
      "name": "İSTASYON GEÇİT MAH (PELİTLİ KÖYÜ)",
      "area": "MERKEZKÖYLER",
      "postal_code": "24152"
    },
    {
      "id": 26914,
      "district_id": 345,
      "name": "İSTASYON MAH (ALTINBAŞAK BELDESİ)",
      "area": "ALTINBAŞAK",
      "postal_code": "24160"
    },
    {
      "id": 26915,
      "district_id": 345,
      "name": "KARACALAR ESKİ KÖY",
      "area": "MERKEZKÖYLER",
      "postal_code": "24152"
    },
    {
      "id": 26916,
      "district_id": 345,
      "name": "KARACALAR KÖYÜ",
      "area": "MERKEZKÖYLER",
      "postal_code": "24152"
    },
    {
      "id": 26917,
      "district_id": 345,
      "name": "KAZMALI MAH (KUREYŞLİSARIKAYA KÖYÜ)",
      "area": "MERKEZKÖYLER",
      "postal_code": "24152"
    },
    {
      "id": 26918,
      "district_id": 345,
      "name": "KOM MAH (AVCILAR KÖYÜ)",
      "area": "MERKEZKÖYLER",
      "postal_code": "24152"
    },
    {
      "id": 26919,
      "district_id": 345,
      "name": "KÜÇÜK KADAĞAN MAH (ALTINBAŞAK BELDESİ)",
      "area": "ALTINBAŞAK",
      "postal_code": "24160"
    },
    {
      "id": 26920,
      "district_id": 345,
      "name": "KUREYŞLİSARIKAYA KÖYÜ",
      "area": "MERKEZKÖYLER",
      "postal_code": "24152"
    },
    {
      "id": 26921,
      "district_id": 345,
      "name": "MAHO MEZRASI MAH (ÇARDAKLI KÖYÜ)",
      "area": "MERKEZKÖYLER",
      "postal_code": "24152"
    },
    {
      "id": 26922,
      "district_id": 345,
      "name": "MİMAR SİNAN MAH",
      "area": "ÜZÜMLÜ",
      "postal_code": "24150"
    },
    {
      "id": 26923,
      "district_id": 345,
      "name": "MUHSİN YAZICIOĞLU MAH",
      "area": "ÜZÜMLÜ",
      "postal_code": "24150"
    },
    {
      "id": 26924,
      "district_id": 345,
      "name": "OCAKBAŞI KÖYÜ",
      "area": "MERKEZKÖYLER",
      "postal_code": "24152"
    },
    {
      "id": 26925,
      "district_id": 345,
      "name": "ORUÇLU MAH",
      "area": "ÜZÜMLÜ",
      "postal_code": "24150"
    },
    {
      "id": 26926,
      "district_id": 345,
      "name": "ORUM MEZRASI MAH (ÇARDAKLI KÖYÜ)",
      "area": "MERKEZKÖYLER",
      "postal_code": "24152"
    },
    {
      "id": 26927,
      "district_id": 345,
      "name": "OTLUK KÖYÜ",
      "area": "MERKEZKÖYLER",
      "postal_code": "24152"
    },
    {
      "id": 26928,
      "district_id": 345,
      "name": "PELİTLİ KÖYÜ",
      "area": "MERKEZKÖYLER",
      "postal_code": "24152"
    },
    {
      "id": 26929,
      "district_id": 345,
      "name": "PINARBAŞI MAH (ALTINBAŞAK BELDESİ)",
      "area": "ALTINBAŞAK",
      "postal_code": "24160"
    },
    {
      "id": 26930,
      "district_id": 345,
      "name": "PINARLIKAYA KÖYÜ",
      "area": "MERKEZKÖYLER",
      "postal_code": "24152"
    },
    {
      "id": 26931,
      "district_id": 345,
      "name": "PİRİ SAMİ MAH",
      "area": "ÜZÜMLÜ",
      "postal_code": "24150"
    },
    {
      "id": 26932,
      "district_id": 345,
      "name": "PİŞKİDAĞ KÖYÜ",
      "area": "MERKEZKÖYLER",
      "postal_code": "24152"
    },
    {
      "id": 26933,
      "district_id": 345,
      "name": "RESO SARIÇAM MAH (KUREYŞLİSARIKAYA KÖYÜ)",
      "area": "MERKEZKÖYLER",
      "postal_code": "24152"
    },
    {
      "id": 26934,
      "district_id": 345,
      "name": "SAĞLAMLI MAH (OCAKBAŞI KÖYÜ)",
      "area": "MERKEZKÖYLER",
      "postal_code": "24152"
    },
    {
      "id": 26935,
      "district_id": 345,
      "name": "SANSA MAH (BAĞLAR KÖYÜ)",
      "area": "MERKEZKÖYLER",
      "postal_code": "24152"
    },
    {
      "id": 26936,
      "district_id": 345,
      "name": "SEDO MAH (KUREYŞLİSARIKAYA KÖYÜ)",
      "area": "MERKEZKÖYLER",
      "postal_code": "24152"
    },
    {
      "id": 26937,
      "district_id": 345,
      "name": "SÜLEYMANLI MAH (ALTINBAŞAK BELDESİ)",
      "area": "ALTINBAŞAK",
      "postal_code": "24160"
    },
    {
      "id": 26938,
      "district_id": 345,
      "name": "TERZİBABA MAH",
      "area": "ÜZÜMLÜ",
      "postal_code": "24150"
    },
    {
      "id": 26939,
      "district_id": 345,
      "name": "ÜÇLER MAH",
      "area": "ÜZÜMLÜ",
      "postal_code": "24150"
    },
    {
      "id": 26940,
      "district_id": 345,
      "name": "YAVUZ SELİM MAH",
      "area": "ÜZÜMLÜ",
      "postal_code": "24150"
    },
    {
      "id": 26941,
      "district_id": 345,
      "name": "YILDIZ MAH (PELİTLİ KÖYÜ)",
      "area": "MERKEZKÖYLER",
      "postal_code": "24152"
    },
    {
      "id": 26942,
      "district_id": 345,
      "name": "YUNUS EMRE MAH",
      "area": "ÜZÜMLÜ",
      "postal_code": "24150"
    },
    {
      "id": 26943,
      "district_id": 345,
      "name": "YUNUS EMRE MAH (BAYIRBAĞ KÖYÜ)",
      "area": "MERKEZKÖYLER",
      "postal_code": "24152"
    }
  ]
}