{
  "neighborhoods": [
    {
      "id": 26944,
      "district_id": 346,
      "name": "ABDALCIK MAH",
      "area": "AŞKALE",
      "postal_code": "25500"
    },
    {
      "id": 26945,
      "district_id": 346,
      "name": "AKÖREN MAH",
      "area": "AŞKALE",
      "postal_code": "25500"
    },
    {
      "id": 26946,
      "district_id": 346,
      "name": "ALTINTAŞ MAH",
      "area": "AŞKALE",
      "postal_code": "25500"
    },
    {
      "id": 26947,
      "district_id": 346,
      "name": "BAHÇELİEVLER MAH",
      "area": "AŞKALE",
      "postal_code": "25500"
    },
    {
      "id": 26948,
      "district_id": 346,
      "name": "BALLITAŞ MAH",
      "area": "AŞKALE",
      "postal_code": "25500"
    },
    {
      "id": 26949,
      "district_id": 346,
      "name": "BOZBURUN MAH",
      "area": "AŞKALE",
      "postal_code": "25500"
    },
    {
      "id": 26950,
      "district_id": 346,
      "name": "BÜYÜKGEÇİT MAH",
      "area": "AŞKALE",
      "postal_code": "25500"
    },
    {
      "id": 26951,
      "district_id": 346,
      "name": "CAHİT AYBAR MAH",
      "area": "AŞKALE",
      "postal_code": "25500"
    },
    {
      "id": 26952,
      "district_id": 346,
      "name": "ÇARŞI MAH",
      "area": "AŞKALE",
      "postal_code": "25500"
    },
    {
      "id": 26953,
      "district_id": 346,
      "name": "ÇATALBAYIR MAH",
      "area": "AŞKALE",
      "postal_code": "25500"
    },
    {
      "id": 26954,
      "district_id": 346,
      "name": "ÇAYKÖY MAH",
      "area": "AŞKALE",
      "postal_code": "25500"
    },
    {
      "id": 26955,
      "district_id": 346,
      "name": "ÇİFTLİK BUCAĞI ÇATÖREN MAH",
      "area": "AŞKALE",
      "postal_code": "25500"
    },
    {
      "id": 26956,
      "district_id": 346,
      "name": "ÇİFTLİK MAH",
      "area": "AŞKALE",
      "postal_code": "25500"
    },
    {
      "id": 26957,
      "district_id": 346,
      "name": "DAĞYURDU MAH",
      "area": "AŞKALE",
      "postal_code": "25500"
    },
    {
      "id": 26958,
      "district_id": 346,
      "name": "DALLI MAH",
      "area": "AŞKALE",
      "postal_code": "25500"
    },
    {
      "id": 26959,
      "district_id": 346,
      "name": "DEMİRKIRAN MAH",
      "area": "AŞKALE",
      "postal_code": "25500"
    },
    {
      "id": 26960,
      "district_id": 346,
      "name": "DEREKÖY MAH",
      "area": "AŞKALE",
      "postal_code": "25500"
    },
    {
      "id": 26961,
      "district_id": 346,
      "name": "DÜZYURT MAH",
      "area": "AŞKALE",
      "postal_code": "25500"
    },
    {
      "id": 26962,
      "district_id": 346,
      "name": "EMEK MAH",
      "area": "AŞKALE",
      "postal_code": "25500"
    },
    {
      "id": 26963,
      "district_id": 346,
      "name": "ESENTEPE MAH",
      "area": "AŞKALE",
      "postal_code": "25500"
    },
    {
      "id": 26964,
      "district_id": 346,
      "name": "EYÜPOĞLU MAH",
      "area": "AŞKALE",
      "postal_code": "25500"
    },
    {
      "id": 26965,
      "district_id": 346,
      "name": "GÖKÇEBÜK MAH",
      "area": "AŞKALE",
      "postal_code": "25500"
    },
    {
      "id": 26966,
      "district_id": 346,
      "name": "GÜLLÜDERE MAH",
      "area": "AŞKALE",
      "postal_code": "25500"
    },
    {
      "id": 26967,
      "district_id": 346,
      "name": "GÜMÜŞSEREN MAH",
      "area": "AŞKALE",
      "postal_code": "25500"
    },
    {
      "id": 26968,
      "district_id": 346,
      "name": "GÜNEYÇAM MAH",
      "area": "AŞKALE",
      "postal_code": "25500"
    },
    {
      "id": 26969,
      "district_id": 346,
      "name": "GÜRKAYNAK MAH",
      "area": "AŞKALE",
      "postal_code": "25500"
    },
    {
      "id": 26970,
      "district_id": 346,
      "name": "HACIBEKİR MAH",
      "area": "AŞKALE",
      "postal_code": "25500"
    },
    {
      "id": 26971,
      "district_id": 346,
      "name": "HACIHAMZA MAH",
      "area": "AŞKALE",
      "postal_code": "25500"
    },
    {
      "id": 26972,
      "district_id": 346,
      "name": "HACIMAHMUT MAH",
      "area": "AŞKALE",
      "postal_code": "25500"
    },
    {
      "id": 26973,
      "district_id": 346,
      "name": "HATUNCUK MAH",
      "area": "AŞKALE",
      "postal_code": "25500"
    },
    {
      "id": 26974,
      "district_id": 346,
      "name": "HAYDARHACI MAH",
      "area": "AŞKALE",
      "postal_code": "25500"
    },
    {
      "id": 26975,
      "district_id": 346,
      "name": "İSTASYON MAH",
      "area": "AŞKALE",
      "postal_code": "25500"
    },
    {
      "id": 26976,
      "district_id": 346,
      "name": "KANDİLLİ MAH",
      "area": "AŞKALE",
      "postal_code": "25500"
    },
    {
      "id": 26977,
      "district_id": 346,
      "name": "KAPIKALE MAH",
      "area": "AŞKALE",
      "postal_code": "25500"
    },
    {
      "id": 26978,
      "district_id": 346,
      "name": "KARAHASAN MAH",
      "area": "AŞKALE",
      "postal_code": "25500"
    },
    {
      "id": 26979,
      "district_id": 346,
      "name": "KARASU MAH",
      "area": "AŞKALE",
      "postal_code": "25500"
    },
    {
      "id": 26980,
      "district_id": 346,
      "name": "KAVURMAÇUKURU MAH",
      "area": "AŞKALE",
      "postal_code": "25500"
    },
    {
      "id": 26981,
      "district_id": 346,
      "name": "KIBRIS MAH",
      "area": "AŞKALE",
      "postal_code": "25500"
    },
    {
      "id": 26982,
      "district_id": 346,
      "name": "KOÇBABA MAH",
      "area": "AŞKALE",
      "postal_code": "25500"
    },
    {
      "id": 26983,
      "district_id": 346,
      "name": "KOŞAPINAR MAH",
      "area": "AŞKALE",
      "postal_code": "25500"
    },
    {
      "id": 26984,
      "district_id": 346,
      "name": "KÜÇÜKGEÇİT MAH",
      "area": "AŞKALE",
      "postal_code": "25500"
    },
    {
      "id": 26985,
      "district_id": 346,
      "name": "KÜÇÜKOVA MAH",
      "area": "AŞKALE",
      "postal_code": "25500"
    },
    {
      "id": 26986,
      "district_id": 346,
      "name": "KÜKÜRTLÜ MAH",
      "area": "AŞKALE",
      "postal_code": "25500"
    },
    {
      "id": 26987,
      "district_id": 346,
      "name": "KURTMAHMUT MAH",
      "area": "AŞKALE",
      "postal_code": "25500"
    },
    {
      "id": 26988,
      "district_id": 346,
      "name": "MERDİVENKÖY MAH",
      "area": "AŞKALE",
      "postal_code": "25500"
    },
    {
      "id": 26989,
      "district_id": 346,
      "name": "MERKEZ BUCAĞI ÇATÖREN MAH",
      "area": "AŞKALE",
      "postal_code": "25500"
    },
    {
      "id": 26990,
      "district_id": 346,
      "name": "MERKEZ BUCAĞI GÖLÖREN MAH",
      "area": "AŞKALE",
      "postal_code": "25500"
    },
    {
      "id": 26991,
      "district_id": 346,
      "name": "MEYDAN MAH",
      "area": "AŞKALE",
      "postal_code": "25500"
    },
    {
      "id": 26992,
      "district_id": 346,
      "name": "MEZREA MAH",
      "area": "AŞKALE",
      "postal_code": "25500"
    },
    {
      "id": 26993,
      "district_id": 346,
      "name": "MUSATANIŞMAN MAH",
      "area": "AŞKALE",
      "postal_code": "25500"
    },
    {
      "id": 26994,
      "district_id": 346,
      "name": "NAHİYE GÖLÖREN MAH",
      "area": "AŞKALE",
      "postal_code": "25500"
    },
    {
      "id": 26995,
      "district_id": 346,
      "name": "OCAKLI MAH",
      "area": "AŞKALE",
      "postal_code": "25500"
    },
    {
      "id": 26996,
      "district_id": 346,
      "name": "OVACIK MAH",
      "area": "AŞKALE",
      "postal_code": "25500"
    },
    {
      "id": 26997,
      "district_id": 346,
      "name": "ÖZLER MAH",
      "area": "AŞKALE",
      "postal_code": "25500"
    },
    {
      "id": 26998,
      "district_id": 346,
      "name": "PIRNAKABAN MAH",
      "area": "AŞKALE",
      "postal_code": "25500"
    },
    {
      "id": 26999,
      "district_id": 346,
      "name": "ŞAFAK MAH",
      "area": "AŞKALE",
      "postal_code": "25500"
    },
    {
      "id": 27000,
      "district_id": 346,
      "name": "SAPTIRAN MAH",
      "area": "AŞKALE",
      "postal_code": "25500"
    },
    {
      "id": 27001,
      "district_id": 346,
      "name": "SARIBABA MAH",
      "area": "AŞKALE",
      "postal_code": "25500"
    },
    {
      "id": 27002,
      "district_id": 346,
      "name": "SAZLI MAH",
      "area": "AŞKALE",
      "postal_code": "25500"
    },
    {
      "id": 27003,
      "district_id": 346,
      "name": "TAŞAĞIL MAH",
      "area": "AŞKALE",
      "postal_code": "25500"
    },
    {
      "id": 27004,
      "district_id": 346,
      "name": "TAŞLIÇAYIR MAH",
      "area": "AŞKALE",
      "postal_code": "25500"
    },
    {
      "id": 27005,
      "district_id": 346,
      "name": "TECER MAH",
      "area": "AŞKALE",
      "postal_code": "25500"
    },
    {
      "id": 27006,
      "district_id": 346,
      "name": "TEPSİCİK MAH",
      "area": "AŞKALE",
      "postal_code": "25500"
    },
    {
      "id": 27007,
      "district_id": 346,
      "name": "TOKÇA MAH",
      "area": "AŞKALE",
      "postal_code": "25500"
    },
    {
      "id": 27008,
      "district_id": 346,
      "name": "TOPALÇAVUŞ MAH",
      "area": "AŞKALE",
      "postal_code": "25500"
    },
    {
      "id": 27009,
      "district_id": 346,
      "name": "TOSUNLU MAH",
      "area": "AŞKALE",
      "postal_code": "25500"
    },
    {
      "id": 27010,
      "district_id": 346,
      "name": "TOZLUCA MAH",
      "area": "AŞKALE",
      "postal_code": "25500"
    },
    {
      "id": 27011,
      "district_id": 346,
      "name": "TURAÇ MAH",
      "area": "AŞKALE",
      "postal_code": "25500"
    },
    {
      "id": 27012,
      "district_id": 346,
      "name": "ÜÇ MART MAH",
      "area": "AŞKALE",
      "postal_code": "25500"
    },
    {
      "id": 27013,
      "district_id": 346,
      "name": "YAYLAKÖY MAH",
      "area": "AŞKALE",
      "postal_code": "25500"
    },
    {
      "id": 27014,
      "district_id": 346,
      "name": "YAYLAYOLU MAH",
      "area": "AŞKALE",
      "postal_code": "25500"
    },
    {
      "id": 27015,
      "district_id": 346,
      "name": "YAYLIMLI MAH",
      "area": "AŞKALE",
      "postal_code": "25500"
    },
    {
      "id": 27016,
      "district_id": 346,
      "name": "YENİ MAH",
      "area": "AŞKALE",
      "postal_code": "25500"
    },
    {
      "id": 27017,
      "district_id": 346,
      "name": "YENİKÖY HALİTPAŞA MAH",
      "area": "AŞKALE",
      "postal_code": "25500"
    },
    {
      "id": 27018,
      "district_id": 346,
      "name": "YEŞİLOVA MAH",
      "area": "AŞKALE",
      "postal_code": "25500"
    },
    {
      "id": 27019,
      "district_id": 346,
      "name": "YUMRUVEREN MAH",
      "area": "AŞKALE",
      "postal_code": "25500"
    },
    {
      "id": 27020,
      "district_id": 347,
      "name": "ADAÇAY MAH",
      "area": "ILICA",
      "postal_code": "25700"
    },
    {
      "id": 27021,
      "district_id": 347,
      "name": "AĞCAKENT MAH",
      "area": "ILICA",
      "postal_code": "25700"
    },
    {
      "id": 27022,
      "district_id": 347,
      "name": "AĞÖREN MAH",
      "area": "ILICA",
      "postal_code": "25700"
    },
    {
      "id": 27023,
      "district_id": 347,
      "name": "AHIRCIK MAH",
      "area": "ILICA",
      "postal_code": "25700"
    },
    {
      "id": 27024,
      "district_id": 347,
      "name": "AKDAĞ MAH",
      "area": "ILICA",
      "postal_code": "25700"
    },
    {
      "id": 27025,
      "district_id": 347,
      "name": "AKYAZI MAH",
      "area": "ILICA",
      "postal_code": "25700"
    },
    {
      "id": 27026,
      "district_id": 347,
      "name": "ALACA MAH",
      "area": "ILICA",
      "postal_code": "25700"
    },
    {
      "id": 27027,
      "district_id": 347,
      "name": "ALAYBEYİ MAH",
      "area": "ILICA",
      "postal_code": "25700"
    },
    {
      "id": 27028,
      "district_id": 347,
      "name": "AŞAĞI YENİCE MAH",
      "area": "ILICA",
      "postal_code": "25700"
    },
    {
      "id": 27029,
      "district_id": 347,
      "name": "AŞAĞICANÖREN MAH",
      "area": "ILICA",
      "postal_code": "25700"
    },
    {
      "id": 27030,
      "district_id": 347,
      "name": "ATLIKONAK MAH",
      "area": "ILICA",
      "postal_code": "25700"
    },
    {
      "id": 27031,
      "district_id": 347,
      "name": "AYNALIKALE MAH",
      "area": "ILICA",
      "postal_code": "25700"
    },
    {
      "id": 27032,
      "district_id": 347,
      "name": "BAŞÇAKMAK MAH",
      "area": "ILICA",
      "postal_code": "25700"
    },
    {
      "id": 27033,
      "district_id": 347,
      "name": "BAŞKENT MAH",
      "area": "ILICA",
      "postal_code": "25700"
    },
    {
      "id": 27034,
      "district_id": 347,
      "name": "BAŞKURTDERE MAH",
      "area": "ILICA",
      "postal_code": "25700"
    },
    {
      "id": 27035,
      "district_id": 347,
      "name": "BAŞOVACIK MAH",
      "area": "ILICA",
      "postal_code": "25700"
    },
    {
      "id": 27036,
      "district_id": 347,
      "name": "BEYPINARI MAH",
      "area": "ILICA",
      "postal_code": "25700"
    },
    {
      "id": 27037,
      "district_id": 347,
      "name": "BİNGÖZE MAH",
      "area": "ILICA",
      "postal_code": "25700"
    },
    {
      "id": 27038,
      "district_id": 347,
      "name": "ÇAMLICA MAH",
      "area": "ILICA",
      "postal_code": "25700"
    },
    {
      "id": 27039,
      "district_id": 347,
      "name": "ÇATAK MAH",
      "area": "ILICA",
      "postal_code": "25700"
    },
    {
      "id": 27040,
      "district_id": 347,
      "name": "ÇAVDARLI MAH",
      "area": "ILICA",
      "postal_code": "25700"
    },
    {
      "id": 27041,
      "district_id": 347,
      "name": "ÇAVUŞOĞLU MAH",
      "area": "ILICA",
      "postal_code": "25700"
    },
    {
      "id": 27042,
      "district_id": 347,
      "name": "ÇİĞDEMLİ MAH",
      "area": "ILICA",
      "postal_code": "25700"
    },
    {
      "id": 27043,
      "district_id": 347,
      "name": "ÇIKRIKLI MAH",
      "area": "ILICA",
      "postal_code": "25700"
    },
    {
      "id": 27044,
      "district_id": 347,
      "name": "DAĞDAGÜL MAH",
      "area": "ILICA",
      "postal_code": "25700"
    },
    {
      "id": 27045,
      "district_id": 347,
      "name": "DEMİRGEÇİT MAH",
      "area": "ILICA",
      "postal_code": "25700"
    },
    {
      "id": 27046,
      "district_id": 347,
      "name": "DÜZTOPRAK MAH",
      "area": "ILICA",
      "postal_code": "25700"
    },
    {
      "id": 27047,
      "district_id": 347,
      "name": "EĞERTİ MAH",
      "area": "ILICA",
      "postal_code": "25700"
    },
    {
      "id": 27048,
      "district_id": 347,
      "name": "ELMALI MAH",
      "area": "ILICA",
      "postal_code": "25700"
    },
    {
      "id": 27049,
      "district_id": 347,
      "name": "EMRECİK MAH",
      "area": "ILICA",
      "postal_code": "25700"
    },
    {
      "id": 27050,
      "district_id": 347,
      "name": "EŞKİNKAYA MAH",
      "area": "ILICA",
      "postal_code": "25700"
    },
    {
      "id": 27051,
      "district_id": 347,
      "name": "ESKİPOLAT MAH",
      "area": "ILICA",
      "postal_code": "25700"
    },
    {
      "id": 27052,
      "district_id": 347,
      "name": "GELİNKAYA MAH",
      "area": "ILICA",
      "postal_code": "25700"
    },
    {
      "id": 27053,
      "district_id": 347,
      "name": "GEYİK MAH",
      "area": "ILICA",
      "postal_code": "25700"
    },
    {
      "id": 27054,
      "district_id": 347,
      "name": "GEZ KÖYÜOSB MAH",
      "area": "ILICA",
      "postal_code": "25700"
    },
    {
      "id": 27055,
      "district_id": 347,
      "name": "GÜLLÜCE MAH",
      "area": "ILICA",
      "postal_code": "25700"
    },
    {
      "id": 27056,
      "district_id": 347,
      "name": "HALİLKAYA MAH",
      "area": "ILICA",
      "postal_code": "25700"
    },
    {
      "id": 27057,
      "district_id": 347,
      "name": "ILICA MAH",
      "area": "ILICA",
      "postal_code": "25700"
    },
    {
      "id": 27058,
      "district_id": 347,
      "name": "KABAKTEPE MAH",
      "area": "ILICA",
      "postal_code": "25700"
    },
    {
      "id": 27059,
      "district_id": 347,
      "name": "KAHRAMANLAR MAH",
      "area": "ILICA",
      "postal_code": "25700"
    },
    {
      "id": 27060,
      "district_id": 347,
      "name": "KAPULU MAH",
      "area": "ILICA",
      "postal_code": "25700"
    },
    {
      "id": 27061,
      "district_id": 347,
      "name": "KARAKALE MAH",
      "area": "ILICA",
      "postal_code": "25700"
    },
    {
      "id": 27062,
      "district_id": 347,
      "name": "KAVAKLIDERE MAH",
      "area": "ILICA",
      "postal_code": "25700"
    },
    {
      "id": 27063,
      "district_id": 347,
      "name": "KAYAPA MAH",
      "area": "ILICA",
      "postal_code": "25700"
    },
    {
      "id": 27064,
      "district_id": 347,
      "name": "KIZILKALE MAH",
      "area": "ILICA",
      "postal_code": "25700"
    },
    {
      "id": 27065,
      "district_id": 347,
      "name": "KUMLUYAZI MAH",
      "area": "ILICA",
      "postal_code": "25700"
    },
    {
      "id": 27066,
      "district_id": 347,
      "name": "KUŞÇU MAH",
      "area": "ILICA",
      "postal_code": "25700"
    },
    {
      "id": 27067,
      "district_id": 347,
      "name": "KUZGUN MAH",
      "area": "ILICA",
      "postal_code": "25700"
    },
    {
      "id": 27068,
      "district_id": 347,
      "name": "KUZULUK MAH",
      "area": "ILICA",
      "postal_code": "25700"
    },
    {
      "id": 27069,
      "district_id": 347,
      "name": "OCAK MAH",
      "area": "ILICA",
      "postal_code": "25700"
    },
    {
      "id": 27070,
      "district_id": 347,
      "name": "ÖMERTEPE MAH",
      "area": "ILICA",
      "postal_code": "25700"
    },
    {
      "id": 27071,
      "district_id": 347,
      "name": "ÖZBEK MAH",
      "area": "ILICA",
      "postal_code": "25700"
    },
    {
      "id": 27072,
      "district_id": 347,
      "name": "ÖZBİLEN MAH",
      "area": "ILICA",
      "postal_code": "25700"
    },
    {
      "id": 27073,
      "district_id": 347,
      "name": "PAŞAYURDU MAH",
      "area": "ILICA",
      "postal_code": "25700"
    },
    {
      "id": 27074,
      "district_id": 347,
      "name": "RİZEKENT MAH",
      "area": "ILICA",
      "postal_code": "25700"
    },
    {
      "id": 27075,
      "district_id": 347,
      "name": "SAKALIKESİK MAH",
      "area": "ILICA",
      "postal_code": "25700"
    },
    {
      "id": 27076,
      "district_id": 347,
      "name": "SALTUKLU MAH",
      "area": "ILICA",
      "postal_code": "25700"
    },
    {
      "id": 27077,
      "district_id": 347,
      "name": "SARIYAYLA MAH",
      "area": "ILICA",
      "postal_code": "25700"
    },
    {
      "id": 27078,
      "district_id": 347,
      "name": "SELÇUKLU MAH",
      "area": "ILICA",
      "postal_code": "25700"
    },
    {
      "id": 27079,
      "district_id": 347,
      "name": "SIRLI MAH",
      "area": "ILICA",
      "postal_code": "25700"
    },
    {
      "id": 27080,
      "district_id": 347,
      "name": "SÖĞÜTLÜ  MAH (OVACIK MAH)",
      "area": "ILICA",
      "postal_code": "25700"
    },
    {
      "id": 27081,
      "district_id": 347,
      "name": "SÖĞÜTLÜ MAH",
      "area": "ILICA",
      "postal_code": "25700"
    },
    {
      "id": 27082,
      "district_id": 347,
      "name": "SORKUNLU MAH",
      "area": "ILICA",
      "postal_code": "25700"
    },
    {
      "id": 27083,
      "district_id": 347,
      "name": "TAŞPINAR MAH",
      "area": "ILICA",
      "postal_code": "25700"
    },
    {
      "id": 27084,
      "district_id": 347,
      "name": "TEBRİZCİK MAH",
      "area": "ILICA",
      "postal_code": "25700"
    },
    {
      "id": 27085,
      "district_id": 347,
      "name": "TINAZLI MAH",
      "area": "ILICA",
      "postal_code": "25700"
    },
    {
      "id": 27086,
      "district_id": 347,
      "name": "TOPRAKKALE MAH",
      "area": "ILICA",
      "postal_code": "25700"
    },
    {
      "id": 27087,
      "district_id": 347,
      "name": "ÜÇKÖŞE MAH",
      "area": "ILICA",
      "postal_code": "25700"
    },
    {
      "id": 27088,
      "district_id": 347,
      "name": "YARIMCA MAH",
      "area": "ILICA",
      "postal_code": "25700"
    },
    {
      "id": 27089,
      "district_id": 347,
      "name": "YEŞİLOVA MAH",
      "area": "ILICA",
      "postal_code": "25700"
    },
    {
      "id": 27090,
      "district_id": 347,
      "name": "YEŞİLVADİ MAH",
      "area": "ILICA",
      "postal_code": "25700"
    },
    {
      "id": 27091,
      "district_id": 347,
      "name": "YONCALIK MAH",
      "area": "ILICA",
      "postal_code": "25700"
    },
    {
      "id": 27092,
      "district_id": 347,
      "name": "YUKARICANÖREN MAH",
      "area": "ILICA",
      "postal_code": "25700"
    },
    {
      "id": 27093,
      "district_id": 348,
      "name": "AĞAKÖY MAH",
      "area": "ÇAT",
      "postal_code": "25750"
    },
    {
      "id": 27094,
      "district_id": 348,
      "name": "AŞAĞIÇAT MAH",
      "area": "ÇAT",
      "postal_code": "25750"
    },
    {
      "id": 27095,
      "district_id": 348,
      "name": "BABADERESİ MAH",
      "area": "ÇAT",
      "postal_code": "25750"
    },
    {
      "id": 27096,
      "district_id": 348,
      "name": "BAĞLICA MAH",
      "area": "ÇAT",
      "postal_code": "25750"
    },
    {
      "id": 27097,
      "district_id": 348,
      "name": "BARDAKÇI MAH",
      "area": "ÇAT",
      "postal_code": "25750"
    },
    {
      "id": 27098,
      "district_id": 348,
      "name": "BAŞKÖY MAH",
      "area": "ÇAT",
      "postal_code": "25750"
    },
    {
      "id": 27099,
      "district_id": 348,
      "name": "BAYINDIR MAH",
      "area": "ÇAT",
      "postal_code": "25750"
    },
    {
      "id": 27100,
      "district_id": 348,
      "name": "BOZYAZI MAH",
      "area": "ÇAT",
      "postal_code": "25750"
    },
    {
      "id": 27101,
      "district_id": 348,
      "name": "BUDAKLAR MAH",
      "area": "ÇAT",
      "postal_code": "25750"
    },
    {
      "id": 27102,
      "district_id": 348,
      "name": "ÇAYIRTEPE MAH",
      "area": "ÇAT",
      "postal_code": "25750"
    },
    {
      "id": 27103,
      "district_id": 348,
      "name": "ÇİMENÖZÜ MAH",
      "area": "ÇAT",
      "postal_code": "25750"
    },
    {
      "id": 27104,
      "district_id": 348,
      "name": "ÇİRİŞLİ MAH",
      "area": "ÇAT",
      "postal_code": "25750"
    },
    {
      "id": 27105,
      "district_id": 348,
      "name": "ÇUKURÇAYIR MAH",
      "area": "ÇAT",
      "postal_code": "25750"
    },
    {
      "id": 27106,
      "district_id": 348,
      "name": "DEĞİRMENLİ MAH",
      "area": "ÇAT",
      "postal_code": "25750"
    },
    {
      "id": 27107,
      "district_id": 348,
      "name": "ELMAPINAR MAH",
      "area": "ÇAT",
      "postal_code": "25750"
    },
    {
      "id": 27108,
      "district_id": 348,
      "name": "GÖBEKÖREN MAH",
      "area": "ÇAT",
      "postal_code": "25750"
    },
    {
      "id": 27109,
      "district_id": 348,
      "name": "GÖKÇEŞEYH MAH",
      "area": "ÇAT",
      "postal_code": "25750"
    },
    {
      "id": 27110,
      "district_id": 348,
      "name": "GÖLKÖY MAH",
      "area": "ÇAT",
      "postal_code": "25750"
    },
    {
      "id": 27111,
      "district_id": 348,
      "name": "HATUNKÖY MAH",
      "area": "ÇAT",
      "postal_code": "25750"
    },
    {
      "id": 27112,
      "district_id": 348,
      "name": "İŞKİNLİ MAH",
      "area": "ÇAT",
      "postal_code": "25750"
    },
    {
      "id": 27113,
      "district_id": 348,
      "name": "KAPLICA MAH",
      "area": "ÇAT",
      "postal_code": "25750"
    },
    {
      "id": 27114,
      "district_id": 348,
      "name": "KARABEY MAH",
      "area": "ÇAT",
      "postal_code": "25750"
    },
    {
      "id": 27115,
      "district_id": 348,
      "name": "KARACA MAH",
      "area": "ÇAT",
      "postal_code": "25750"
    },
    {
      "id": 27116,
      "district_id": 348,
      "name": "KARAŞEYH MAH",
      "area": "ÇAT",
      "postal_code": "25750"
    },
    {
      "id": 27117,
      "district_id": 348,
      "name": "KIZILCA MAH",
      "area": "ÇAT",
      "postal_code": "25750"
    },
    {
      "id": 27118,
      "district_id": 348,
      "name": "KÖSELER MAH",
      "area": "ÇAT",
      "postal_code": "25750"
    },
    {
      "id": 27119,
      "district_id": 348,
      "name": "KUMAŞLI MAH",
      "area": "ÇAT",
      "postal_code": "25750"
    },
    {
      "id": 27120,
      "district_id": 348,
      "name": "KURBANLI MAH",
      "area": "ÇAT",
      "postal_code": "25750"
    },
    {
      "id": 27121,
      "district_id": 348,
      "name": "MOLLAÖMER MAH",
      "area": "ÇAT",
      "postal_code": "25750"
    },
    {
      "id": 27122,
      "district_id": 348,
      "name": "MURATÇAYIRI MAH",
      "area": "ÇAT",
      "postal_code": "25750"
    },
    {
      "id": 27123,
      "district_id": 348,
      "name": "OYUKLU MAH",
      "area": "ÇAT",
      "postal_code": "25750"
    },
    {
      "id": 27124,
      "district_id": 348,
      "name": "PARMAKSIZ MAH",
      "area": "ÇAT",
      "postal_code": "25750"
    },
    {
      "id": 27125,
      "district_id": 348,
      "name": "SALTAŞ MAH",
      "area": "ÇAT",
      "postal_code": "25750"
    },
    {
      "id": 27126,
      "district_id": 348,
      "name": "SARIKAŞIK MAH",
      "area": "ÇAT",
      "postal_code": "25750"
    },
    {
      "id": 27127,
      "district_id": 348,
      "name": "SARIKAYA MAH",
      "area": "ÇAT",
      "postal_code": "25750"
    },
    {
      "id": 27128,
      "district_id": 348,
      "name": "ŞEYHHASAN MAH",
      "area": "ÇAT",
      "postal_code": "25750"
    },
    {
      "id": 27129,
      "district_id": 348,
      "name": "SÖBEÇAYIR MAH",
      "area": "ÇAT",
      "postal_code": "25750"
    },
    {
      "id": 27130,
      "district_id": 348,
      "name": "SOĞUKPINAR MAH",
      "area": "ÇAT",
      "postal_code": "25750"
    },
    {
      "id": 27131,
      "district_id": 348,
      "name": "TAŞAĞIL MAH",
      "area": "ÇAT",
      "postal_code": "25750"
    },
    {
      "id": 27132,
      "district_id": 348,
      "name": "TUZLATAŞI MAH",
      "area": "ÇAT",
      "postal_code": "25750"
    },
    {
      "id": 27133,
      "district_id": 348,
      "name": "TUZLUCA MAH",
      "area": "ÇAT",
      "postal_code": "25750"
    },
    {
      "id": 27134,
      "district_id": 348,
      "name": "YARMAK MAH",
      "area": "ÇAT",
      "postal_code": "25750"
    },
    {
      "id": 27135,
      "district_id": 348,
      "name": "YAVİ MAH",
      "area": "ÇAT",
      "postal_code": "25750"
    },
    {
      "id": 27136,
      "district_id": 348,
      "name": "YAYLASUYU MAH",
      "area": "ÇAT",
      "postal_code": "25750"
    },
    {
      "id": 27137,
      "district_id": 348,
      "name": "YUKARIÇAT MAH",
      "area": "ÇAT",
      "postal_code": "25750"
    },
    {
      "id": 27138,
      "district_id": 349,
      "name": "ACARKÖY MAH",
      "area": "HINIS",
      "postal_code": "25600"
    },
    {
      "id": 27139,
      "district_id": 349,
      "name": "AKBAYIR MAH",
      "area": "HINIS",
      "postal_code": "25600"
    },
    {
      "id": 27140,
      "district_id": 349,
      "name": "AKÇAMELİK MAH",
      "area": "HINIS",
      "postal_code": "25600"
    },
    {
      "id": 27141,
      "district_id": 349,
      "name": "AKGELİN MAH",
      "area": "HINIS",
      "postal_code": "25600"
    },
    {
      "id": 27142,
      "district_id": 349,
      "name": "AKGÖZE MAH",
      "area": "HINIS",
      "postal_code": "25600"
    },
    {
      "id": 27143,
      "district_id": 349,
      "name": "AKÖREN MAH",
      "area": "HINIS",
      "postal_code": "25600"
    },
    {
      "id": 27144,
      "district_id": 349,
      "name": "ALACA MAH",
      "area": "HINIS",
      "postal_code": "25600"
    },
    {
      "id": 27145,
      "district_id": 349,
      "name": "ALAGÖZ MAH",
      "area": "HINIS",
      "postal_code": "25600"
    },
    {
      "id": 27146,
      "district_id": 349,
      "name": "ALİKIRI ABDALAN MAH",
      "area": "HINIS",
      "postal_code": "25600"
    },
    {
      "id": 27147,
      "district_id": 349,
      "name": "ALINTERİ MAH",
      "area": "HINIS",
      "postal_code": "25600"
    },
    {
      "id": 27148,
      "district_id": 349,
      "name": "ALTINPINAR MAH",
      "area": "HINIS",
      "postal_code": "25600"
    },
    {
      "id": 27149,
      "district_id": 349,
      "name": "ARPADERESİ MAH",
      "area": "HINIS",
      "postal_code": "25600"
    },
    {
      "id": 27150,
      "district_id": 349,
      "name": "AŞAĞIKAYABAŞI MAH",
      "area": "HINIS",
      "postal_code": "25600"
    },
    {
      "id": 27151,
      "district_id": 349,
      "name": "AVCILAR MAH",
      "area": "HINIS",
      "postal_code": "25600"
    },
    {
      "id": 27152,
      "district_id": 349,
      "name": "BAHÇE MAH",
      "area": "HINIS",
      "postal_code": "25600"
    },
    {
      "id": 27153,
      "district_id": 349,
      "name": "BAŞKÖY MAH",
      "area": "HINIS",
      "postal_code": "25600"
    },
    {
      "id": 27154,
      "district_id": 349,
      "name": "BAYIRKÖY MAH",
      "area": "HINIS",
      "postal_code": "25600"
    },
    {
      "id": 27155,
      "district_id": 349,
      "name": "BELLİTAŞ MAH",
      "area": "HINIS",
      "postal_code": "25600"
    },
    {
      "id": 27156,
      "district_id": 349,
      "name": "BEYYURDU MAH",
      "area": "HINIS",
      "postal_code": "25600"
    },
    {
      "id": 27157,
      "district_id": 349,
      "name": "BURHANKÖY MAH",
      "area": "HINIS",
      "postal_code": "25600"
    },
    {
      "id": 27158,
      "district_id": 349,
      "name": "ÇAKMAK MAH",
      "area": "HINIS",
      "postal_code": "25600"
    },
    {
      "id": 27159,
      "district_id": 349,
      "name": "ÇAMURLU MAH",
      "area": "HINIS",
      "postal_code": "25600"
    },
    {
      "id": 27160,
      "district_id": 349,
      "name": "ÇATAK MAH",
      "area": "HINIS",
      "postal_code": "25600"
    },
    {
      "id": 27161,
      "district_id": 349,
      "name": "ÇİLLİGÖL MAH",
      "area": "HINIS",
      "postal_code": "25600"
    },
    {
      "id": 27162,
      "district_id": 349,
      "name": "DAĞÇAYIRI MAH",
      "area": "HINIS",
      "postal_code": "25600"
    },
    {
      "id": 27163,
      "district_id": 349,
      "name": "DEMİRCİ MAH",
      "area": "HINIS",
      "postal_code": "25600"
    },
    {
      "id": 27164,
      "district_id": 349,
      "name": "DERİNCE MAH",
      "area": "HINIS",
      "postal_code": "25600"
    },
    {
      "id": 27165,
      "district_id": 349,
      "name": "DERVİŞALİ MAH",
      "area": "HINIS",
      "postal_code": "25600"
    },
    {
      "id": 27166,
      "district_id": 349,
      "name": "DİBEKLİ MAH",
      "area": "HINIS",
      "postal_code": "25600"
    },
    {
      "id": 27167,
      "district_id": 349,
      "name": "DİKİLİ MAH",
      "area": "HINIS",
      "postal_code": "25600"
    },
    {
      "id": 27168,
      "district_id": 349,
      "name": "DİVANHÜSEYİN MAH",
      "area": "HINIS",
      "postal_code": "25600"
    },
    {
      "id": 27169,
      "district_id": 349,
      "name": "ELMADALI MAH",
      "area": "HINIS",
      "postal_code": "25600"
    },
    {
      "id": 27170,
      "district_id": 349,
      "name": "ERBEYLİ MAH",
      "area": "HINIS",
      "postal_code": "25600"
    },
    {
      "id": 27171,
      "district_id": 349,
      "name": "ERDURAN MAH",
      "area": "HINIS",
      "postal_code": "25600"
    },
    {
      "id": 27172,
      "district_id": 349,
      "name": "ERENCE MAH",
      "area": "HINIS",
      "postal_code": "25600"
    },
    {
      "id": 27173,
      "district_id": 349,
      "name": "ESENLİ MAH",
      "area": "HINIS",
      "postal_code": "25600"
    },
    {
      "id": 27174,
      "district_id": 349,
      "name": "GÖLLER MAH",
      "area": "HINIS",
      "postal_code": "25600"
    },
    {
      "id": 27175,
      "district_id": 349,
      "name": "GÜLİSTAN MAH",
      "area": "HINIS",
      "postal_code": "25600"
    },
    {
      "id": 27176,
      "district_id": 349,
      "name": "GÜLLÜÇİMEN MAH",
      "area": "HINIS",
      "postal_code": "25600"
    },
    {
      "id": 27177,
      "district_id": 349,
      "name": "GÜRÇAYIR MAH",
      "area": "HINIS",
      "postal_code": "25600"
    },
    {
      "id": 27178,
      "district_id": 349,
      "name": "GÜZELDERE MAH",
      "area": "HINIS",
      "postal_code": "25600"
    },
    {
      "id": 27179,
      "district_id": 349,
      "name": "HALİLÇAVUŞ MAH",
      "area": "HINIS",
      "postal_code": "25600"
    },
    {
      "id": 27180,
      "district_id": 349,
      "name": "HAYRAN MAH",
      "area": "HINIS",
      "postal_code": "25600"
    },
    {
      "id": 27181,
      "district_id": 349,
      "name": "ILICAKÖY MAH",
      "area": "HINIS",
      "postal_code": "25600"
    },
    {
      "id": 27182,
      "district_id": 349,
      "name": "İSMAİL MAH",
      "area": "HINIS",
      "postal_code": "25600"
    },
    {
      "id": 27183,
      "district_id": 349,
      "name": "KALECİK MAH",
      "area": "HINIS",
      "postal_code": "25600"
    },
    {
      "id": 27184,
      "district_id": 349,
      "name": "KARAAĞAÇ MAH",
      "area": "HINIS",
      "postal_code": "25600"
    },
    {
      "id": 27185,
      "district_id": 349,
      "name": "KARABUDAK MAH",
      "area": "HINIS",
      "postal_code": "25600"
    },
    {
      "id": 27186,
      "district_id": 349,
      "name": "KARAKULA MAH",
      "area": "HINIS",
      "postal_code": "25600"
    },
    {
      "id": 27187,
      "district_id": 349,
      "name": "KARAMOLLA MAH",
      "area": "HINIS",
      "postal_code": "25600"
    },
    {
      "id": 27188,
      "district_id": 349,
      "name": "KAZANCI MAH",
      "area": "HINIS",
      "postal_code": "25600"
    },
    {
      "id": 27189,
      "district_id": 349,
      "name": "KETENCİ MAH",
      "area": "HINIS",
      "postal_code": "25600"
    },
    {
      "id": 27190,
      "district_id": 349,
      "name": "KISIK MAH",
      "area": "HINIS",
      "postal_code": "25600"
    },
    {
      "id": 27191,
      "district_id": 349,
      "name": "KIZILAHMET MAH",
      "area": "HINIS",
      "postal_code": "25600"
    },
    {
      "id": 27192,
      "district_id": 349,
      "name": "KIZMUSA MAH",
      "area": "HINIS",
      "postal_code": "25600"
    },
    {
      "id": 27193,
      "district_id": 349,
      "name": "KOLHİSAR MAH",
      "area": "HINIS",
      "postal_code": "25600"
    },
    {
      "id": 27194,
      "district_id": 349,
      "name": "KONGUR MAH",
      "area": "HINIS",
      "postal_code": "25600"
    },
    {
      "id": 27195,
      "district_id": 349,
      "name": "KÖPRÜBAŞI MAH",
      "area": "HINIS",
      "postal_code": "25600"
    },
    {
      "id": 27196,
      "district_id": 349,
      "name": "MEYDANKÖY MAH",
      "area": "HINIS",
      "postal_code": "25600"
    },
    {
      "id": 27197,
      "district_id": 349,
      "name": "MEZRA MAH",
      "area": "HINIS",
      "postal_code": "25600"
    },
    {
      "id": 27198,
      "district_id": 349,
      "name": "MOLLACELİL MAH",
      "area": "HINIS",
      "postal_code": "25600"
    },
    {
      "id": 27199,
      "district_id": 349,
      "name": "MOLLAKULAÇ MAH",
      "area": "HINIS",
      "postal_code": "25600"
    },
    {
      "id": 27200,
      "district_id": 349,
      "name": "MUTLUCA MAH",
      "area": "HINIS",
      "postal_code": "25600"
    },
    {
      "id": 27201,
      "district_id": 349,
      "name": "ORTAKÖY MAH",
      "area": "HINIS",
      "postal_code": "25600"
    },
    {
      "id": 27202,
      "district_id": 349,
      "name": "OVAÇEVİRME MAH",
      "area": "HINIS",
      "postal_code": "25600"
    },
    {
      "id": 27203,
      "district_id": 349,
      "name": "OVAKOZLU MAH",
      "area": "HINIS",
      "postal_code": "25600"
    },
    {
      "id": 27204,
      "district_id": 349,
      "name": "PARMAKSIZ MAH",
      "area": "HINIS",
      "postal_code": "25600"
    },
    {
      "id": 27205,
      "district_id": 349,
      "name": "PINARBAŞI MAH",
      "area": "HINIS",
      "postal_code": "25600"
    },
    {
      "id": 27206,
      "district_id": 349,
      "name": "PINARKÖY MAH",
      "area": "HINIS",
      "postal_code": "25600"
    },
    {
      "id": 27207,
      "district_id": 349,
      "name": "ŞAHABETTİNKÖY MAH",
      "area": "HINIS",
      "postal_code": "25600"
    },
    {
      "id": 27208,
      "district_id": 349,
      "name": "ŞAHVERDİ MAH",
      "area": "HINIS",
      "postal_code": "25600"
    },
    {
      "id": 27209,
      "district_id": 349,
      "name": "ŞALGAMKÖY MAH",
      "area": "HINIS",
      "postal_code": "25600"
    },
    {
      "id": 27210,
      "district_id": 349,
      "name": "SALTEPE MAH",
      "area": "HINIS",
      "postal_code": "25600"
    },
    {
      "id": 27211,
      "district_id": 349,
      "name": "SANAYİ MAH",
      "area": "HINIS",
      "postal_code": "25600"
    },
    {
      "id": 27212,
      "district_id": 349,
      "name": "SARILI MAH",
      "area": "HINIS",
      "postal_code": "25600"
    },
    {
      "id": 27213,
      "district_id": 349,
      "name": "SILDIZ MAH",
      "area": "HINIS",
      "postal_code": "25600"
    },
    {
      "id": 27214,
      "district_id": 349,
      "name": "SÖĞÜTLÜ MAH",
      "area": "HINIS",
      "postal_code": "25600"
    },
    {
      "id": 27215,
      "district_id": 349,
      "name": "SULTANLI MAH",
      "area": "HINIS",
      "postal_code": "25600"
    },
    {
      "id": 27216,
      "district_id": 349,
      "name": "SUVARAN MAH",
      "area": "HINIS",
      "postal_code": "25600"
    },
    {
      "id": 27217,
      "district_id": 349,
      "name": "TANIR MAH",
      "area": "HINIS",
      "postal_code": "25600"
    },
    {
      "id": 27218,
      "district_id": 349,
      "name": "TAPUKÖY MAH",
      "area": "HINIS",
      "postal_code": "25600"
    },
    {
      "id": 27219,
      "district_id": 349,
      "name": "TAŞBUDAK MAH",
      "area": "HINIS",
      "postal_code": "25600"
    },
    {
      "id": 27220,
      "district_id": 349,
      "name": "TELLİTEPE MAH",
      "area": "HINIS",
      "postal_code": "25600"
    },
    {
      "id": 27221,
      "district_id": 349,
      "name": "TİPİDERESİ MAH",
      "area": "HINIS",
      "postal_code": "25600"
    },
    {
      "id": 27222,
      "district_id": 349,
      "name": "TOPRAKKALE MAH",
      "area": "HINIS",
      "postal_code": "25600"
    },
    {
      "id": 27223,
      "district_id": 349,
      "name": "TORAMAN MAH",
      "area": "HINIS",
      "postal_code": "25600"
    },
    {
      "id": 27224,
      "district_id": 349,
      "name": "ULUÇAYIR MAH",
      "area": "HINIS",
      "postal_code": "25600"
    },
    {
      "id": 27225,
      "district_id": 349,
      "name": "ÜNLÜCE MAH",
      "area": "HINIS",
      "postal_code": "25600"
    },
    {
      "id": 27226,
      "district_id": 349,
      "name": "UYANIK MAH",
      "area": "HINIS",
      "postal_code": "25600"
    },
    {
      "id": 27227,
      "district_id": 349,
      "name": "YAMANLAR MAH",
      "area": "HINIS",
      "postal_code": "25600"
    },
    {
      "id": 27228,
      "district_id": 349,
      "name": "YAYLAKONAK MAH",
      "area": "HINIS",
      "postal_code": "25600"
    },
    {
      "id": 27229,
      "district_id": 349,
      "name": "YELPİZ MAH",
      "area": "HINIS",
      "postal_code": "25600"
    },
    {
      "id": 27230,
      "district_id": 349,
      "name": "YENİKENT MAH",
      "area": "HINIS",
      "postal_code": "25600"
    },
    {
      "id": 27231,
      "district_id": 349,
      "name": "YENİKÖY MAH",
      "area": "HINIS",
      "postal_code": "25600"
    },
    {
      "id": 27232,
      "district_id": 349,
      "name": "YEŞİLBAHÇE MAH",
      "area": "HINIS",
      "postal_code": "25600"
    },
    {
      "id": 27233,
      "district_id": 349,
      "name": "YEŞİLYAZI MAH",
      "area": "HINIS",
      "postal_code": "25600"
    },
    {
      "id": 27234,
      "district_id": 349,
      "name": "YOLÜSTÜ MAH",
      "area": "HINIS",
      "postal_code": "25600"
    },
    {
      "id": 27235,
      "district_id": 349,
      "name": "YUKARIKAYABAŞI MAH",
      "area": "HINIS",
      "postal_code": "25600"
    },
    {
      "id": 27236,
      "district_id": 350,
      "name": "ADNAN MENDERES MAH",
      "area": "HORASAN",
      "postal_code": "25800"
    },
    {
      "id": 27237,
      "district_id": 350,
      "name": "AĞILLI MAH",
      "area": "HORASAN",
      "postal_code": "25800"
    },
    {
      "id": 27238,
      "district_id": 350,
      "name": "AKÇATAŞ MAH",
      "area": "HORASAN",
      "postal_code": "25800"
    },
    {
      "id": 27239,
      "district_id": 350,
      "name": "AKÇATOPRAK MAH",
      "area": "HORASAN",
      "postal_code": "25800"
    },
    {
      "id": 27240,
      "district_id": 350,
      "name": "ALAGÖZ MAH",
      "area": "HORASAN",
      "postal_code": "25800"
    },
    {
      "id": 27241,
      "district_id": 350,
      "name": "ALİÇEYREK MAH",
      "area": "HORASAN",
      "postal_code": "25800"
    },
    {
      "id": 27242,
      "district_id": 350,
      "name": "ARAS MAH",
      "area": "HORASAN",
      "postal_code": "25800"
    },
    {
      "id": 27243,
      "district_id": 350,
      "name": "ARDI MAH",
      "area": "HORASAN",
      "postal_code": "25800"
    },
    {
      "id": 27244,
      "district_id": 350,
      "name": "ARPAÇAYIR MAH",
      "area": "HORASAN",
      "postal_code": "25800"
    },
    {
      "id": 27245,
      "district_id": 350,
      "name": "AŞAĞIAKTAŞ MAH",
      "area": "HORASAN",
      "postal_code": "25800"
    },
    {
      "id": 27246,
      "district_id": 350,
      "name": "AŞAĞIBADEMÖZÜ MAH",
      "area": "HORASAN",
      "postal_code": "25800"
    },
    {
      "id": 27247,
      "district_id": 350,
      "name": "AZAP MAH",
      "area": "HORASAN",
      "postal_code": "25800"
    },
    {
      "id": 27248,
      "district_id": 350,
      "name": "BAHÇE MAH",
      "area": "HORASAN",
      "postal_code": "25800"
    },
    {
      "id": 27249,
      "district_id": 350,
      "name": "BULGURLU MAH",
      "area": "HORASAN",
      "postal_code": "25800"
    },
    {
      "id": 27250,
      "district_id": 350,
      "name": "CAMİİ KEBİR MAH",
      "area": "HORASAN",
      "postal_code": "25800"
    },
    {
      "id": 27251,
      "district_id": 350,
      "name": "ÇAMLIKALE MAH",
      "area": "HORASAN",
      "postal_code": "25800"
    },
    {
      "id": 27252,
      "district_id": 350,
      "name": "ÇAMURLU MAH",
      "area": "HORASAN",
      "postal_code": "25800"
    },
    {
      "id": 27253,
      "district_id": 350,
      "name": "ÇAYIRDÜZÜ MAH",
      "area": "HORASAN",
      "postal_code": "25800"
    },
    {
      "id": 27254,
      "district_id": 350,
      "name": "ÇİFTLİK MAH",
      "area": "HORASAN",
      "postal_code": "25800"
    },
    {
      "id": 27255,
      "district_id": 350,
      "name": "DALBAŞI MAH",
      "area": "HORASAN",
      "postal_code": "25800"
    },
    {
      "id": 27256,
      "district_id": 350,
      "name": "DANİŞMENT MAH",
      "area": "HORASAN",
      "postal_code": "25800"
    },
    {
      "id": 27257,
      "district_id": 350,
      "name": "DEĞİRMENLER MAH",
      "area": "HORASAN",
      "postal_code": "25800"
    },
    {
      "id": 27258,
      "district_id": 350,
      "name": "DİKİLİ MAH",
      "area": "HORASAN",
      "postal_code": "25800"
    },
    {
      "id": 27259,
      "district_id": 350,
      "name": "DÖLLEK MAH",
      "area": "HORASAN",
      "postal_code": "25800"
    },
    {
      "id": 27260,
      "district_id": 350,
      "name": "DÖNERTAŞ MAH",
      "area": "HORASAN",
      "postal_code": "25800"
    },
    {
      "id": 27261,
      "district_id": 350,
      "name": "EĞERTAŞLAR MAH",
      "area": "HORASAN",
      "postal_code": "25800"
    },
    {
      "id": 27262,
      "district_id": 350,
      "name": "ESENTEPE MAH",
      "area": "HORASAN",
      "postal_code": "25800"
    },
    {
      "id": 27263,
      "district_id": 350,
      "name": "FATİH SULTAN MEHMET MAH",
      "area": "HORASAN",
      "postal_code": "25800"
    },
    {
      "id": 27264,
      "district_id": 350,
      "name": "GEREK MAH",
      "area": "HORASAN",
      "postal_code": "25800"
    },
    {
      "id": 27265,
      "district_id": 350,
      "name": "GÜNDEĞER MAH",
      "area": "HORASAN",
      "postal_code": "25800"
    },
    {
      "id": 27266,
      "district_id": 350,
      "name": "GÜZELYAYLA MAH",
      "area": "HORASAN",
      "postal_code": "25800"
    },
    {
      "id": 27267,
      "district_id": 350,
      "name": "HACIAHMET MAH",
      "area": "HORASAN",
      "postal_code": "25800"
    },
    {
      "id": 27268,
      "district_id": 350,
      "name": "HACIHALİL MAH",
      "area": "HORASAN",
      "postal_code": "25800"
    },
    {
      "id": 27269,
      "district_id": 350,
      "name": "HARÇLI MAH",
      "area": "HORASAN",
      "postal_code": "25800"
    },
    {
      "id": 27270,
      "district_id": 350,
      "name": "HASANBABA MAH",
      "area": "HORASAN",
      "postal_code": "25800"
    },
    {
      "id": 27271,
      "district_id": 350,
      "name": "HASANBEY MAH",
      "area": "HORASAN",
      "postal_code": "25800"
    },
    {
      "id": 27272,
      "district_id": 350,
      "name": "HAYDARLI MAH",
      "area": "HORASAN",
      "postal_code": "25800"
    },
    {
      "id": 27273,
      "district_id": 350,
      "name": "HIZARDERE MAH",
      "area": "HORASAN",
      "postal_code": "25800"
    },
    {
      "id": 27274,
      "district_id": 350,
      "name": "HIZIRİLYAS MAH",
      "area": "HORASAN",
      "postal_code": "25800"
    },
    {
      "id": 27275,
      "district_id": 350,
      "name": "İĞDELİ MAH",
      "area": "HORASAN",
      "postal_code": "25800"
    },
    {
      "id": 27276,
      "district_id": 350,
      "name": "IĞIRBIĞIR MAH",
      "area": "HORASAN",
      "postal_code": "25800"
    },
    {
      "id": 27277,
      "district_id": 350,
      "name": "İNCESU MAH",
      "area": "HORASAN",
      "postal_code": "25800"
    },
    {
      "id": 27278,
      "district_id": 350,
      "name": "İNÖNÜ MAH",
      "area": "HORASAN",
      "postal_code": "25800"
    },
    {
      "id": 27279,
      "district_id": 350,
      "name": "KADICELAL MAH",
      "area": "HORASAN",
      "postal_code": "25800"
    },
    {
      "id": 27280,
      "district_id": 350,
      "name": "KALENDER MAH",
      "area": "HORASAN",
      "postal_code": "25800"
    },
    {
      "id": 27281,
      "district_id": 350,
      "name": "KARABIYIK MAH",
      "area": "HORASAN",
      "postal_code": "25800"
    },
    {
      "id": 27282,
      "district_id": 350,
      "name": "KARACAÖREN MAH",
      "area": "HORASAN",
      "postal_code": "25800"
    },
    {
      "id": 27283,
      "district_id": 350,
      "name": "KARAÇUHA MAH",
      "area": "HORASAN",
      "postal_code": "25800"
    },
    {
      "id": 27284,
      "district_id": 350,
      "name": "KARAPINAR MAH",
      "area": "HORASAN",
      "postal_code": "25800"
    },
    {
      "id": 27285,
      "district_id": 350,
      "name": "KAYNARCA MAH",
      "area": "HORASAN",
      "postal_code": "25800"
    },
    {
      "id": 27286,
      "district_id": 350,
      "name": "KAZIM KARABEKİR MAH",
      "area": "HORASAN",
      "postal_code": "25800"
    },
    {
      "id": 27287,
      "district_id": 350,
      "name": "KEMERLİ MAH",
      "area": "HORASAN",
      "postal_code": "25800"
    },
    {
      "id": 27288,
      "district_id": 350,
      "name": "KEPENEK MAH",
      "area": "HORASAN",
      "postal_code": "25800"
    },
    {
      "id": 27289,
      "district_id": 350,
      "name": "KIRIK MAH",
      "area": "HORASAN",
      "postal_code": "25800"
    },
    {
      "id": 27290,
      "district_id": 350,
      "name": "KIRKDİKME MAH",
      "area": "HORASAN",
      "postal_code": "25800"
    },
    {
      "id": 27291,
      "district_id": 350,
      "name": "KIRKGÖZELER MAH",
      "area": "HORASAN",
      "postal_code": "25800"
    },
    {
      "id": 27292,
      "district_id": 350,
      "name": "KIRKLAR MAH",
      "area": "HORASAN",
      "postal_code": "25800"
    },
    {
      "id": 27293,
      "district_id": 350,
      "name": "KIZILCA MAH",
      "area": "HORASAN",
      "postal_code": "25800"
    },
    {
      "id": 27294,
      "district_id": 350,
      "name": "KIZLARKALE MAH",
      "area": "HORASAN",
      "postal_code": "25800"
    },
    {
      "id": 27295,
      "district_id": 350,
      "name": "KÜÇÜKKONAK MAH",
      "area": "HORASAN",
      "postal_code": "25800"
    },
    {
      "id": 27296,
      "district_id": 350,
      "name": "KÜKÜRTLÜ MAH",
      "area": "HORASAN",
      "postal_code": "25800"
    },
    {
      "id": 27297,
      "district_id": 350,
      "name": "MOLLAAHMET MAH",
      "area": "HORASAN",
      "postal_code": "25800"
    },
    {
      "id": 27298,
      "district_id": 350,
      "name": "MOLLAMELİK MAH",
      "area": "HORASAN",
      "postal_code": "25800"
    },
    {
      "id": 27299,
      "district_id": 350,
      "name": "MÜMTAZ TURAN MAH",
      "area": "HORASAN",
      "postal_code": "25800"
    },
    {
      "id": 27300,
      "district_id": 350,
      "name": "MURATBAĞI MAH",
      "area": "HORASAN",
      "postal_code": "25800"
    },
    {
      "id": 27301,
      "district_id": 350,
      "name": "PİNARLİ MAH",
      "area": "HORASAN",
      "postal_code": "25800"
    },
    {
      "id": 27302,
      "district_id": 350,
      "name": "PİRALİ MAH",
      "area": "HORASAN",
      "postal_code": "25800"
    },
    {
      "id": 27303,
      "district_id": 350,
      "name": "PİRHASAN MAH",
      "area": "HORASAN",
      "postal_code": "25800"
    },
    {
      "id": 27304,
      "district_id": 350,
      "name": "RECEP TAYYİP ERDOĞAN MAH",
      "area": "HORASAN",
      "postal_code": "25800"
    },
    {
      "id": 27305,
      "district_id": 350,
      "name": "SAÇLIK MAH",
      "area": "HORASAN",
      "postal_code": "25800"
    },
    {
      "id": 27306,
      "district_id": 350,
      "name": "SEKMAN MAH",
      "area": "HORASAN",
      "postal_code": "25800"
    },
    {
      "id": 27307,
      "district_id": 350,
      "name": "ŞEREFİYE MAH",
      "area": "HORASAN",
      "postal_code": "25800"
    },
    {
      "id": 27308,
      "district_id": 350,
      "name": "ŞEYHYUSUF MAH",
      "area": "HORASAN",
      "postal_code": "25800"
    },
    {
      "id": 27309,
      "district_id": 350,
      "name": "TAHİRHOCA MAH",
      "area": "HORASAN",
      "postal_code": "25800"
    },
    {
      "id": 27310,
      "district_id": 350,
      "name": "TAVŞANCIK MAH",
      "area": "HORASAN",
      "postal_code": "25800"
    },
    {
      "id": 27311,
      "district_id": 350,
      "name": "TEKNECİK MAH",
      "area": "HORASAN",
      "postal_code": "25800"
    },
    {
      "id": 27312,
      "district_id": 350,
      "name": "YARBOĞAZ MAH",
      "area": "HORASAN",
      "postal_code": "25800"
    },
    {
      "id": 27313,
      "district_id": 350,
      "name": "YAYLACIK MAH",
      "area": "HORASAN",
      "postal_code": "25800"
    },
    {
      "id": 27314,
      "district_id": 350,
      "name": "YAZILITAŞ MAH",
      "area": "HORASAN",
      "postal_code": "25800"
    },
    {
      "id": 27315,
      "district_id": 350,
      "name": "YEŞİLDERE MAH",
      "area": "HORASAN",
      "postal_code": "25800"
    },
    {
      "id": 27316,
      "district_id": 350,
      "name": "YEŞİLÖZ MAH",
      "area": "HORASAN",
      "postal_code": "25800"
    },
    {
      "id": 27317,
      "district_id": 350,
      "name": "YILDIRAN MAH",
      "area": "HORASAN",
      "postal_code": "25800"
    },
    {
      "id": 27318,
      "district_id": 350,
      "name": "YUKARIBADEMÖZÜ MAH",
      "area": "HORASAN",
      "postal_code": "25800"
    },
    {
      "id": 27319,
      "district_id": 350,
      "name": "YUKARIHORUM MAH",
      "area": "HORASAN",
      "postal_code": "25800"
    },
    {
      "id": 27320,
      "district_id": 350,
      "name": "YUKARITAHİRHOCA MAH",
      "area": "HORASAN",
      "postal_code": "25800"
    },
    {
      "id": 27321,
      "district_id": 350,
      "name": "YÜRÜKATLI MAH",
      "area": "HORASAN",
      "postal_code": "25800"
    },
    {
      "id": 27322,
      "district_id": 350,
      "name": "YÜZÖREN MAH",
      "area": "HORASAN",
      "postal_code": "25800"
    },
    {
      "id": 27323,
      "district_id": 351,
      "name": "AHLATLI MAH",
      "area": "İSPİR",
      "postal_code": "25900"
    },
    {
      "id": 27324,
      "district_id": 351,
      "name": "AKGÜNEY MAH",
      "area": "İSPİR",
      "postal_code": "25900"
    },
    {
      "id": 27325,
      "district_id": 351,
      "name": "AKPINAR MAH",
      "area": "İSPİR",
      "postal_code": "25900"
    },
    {
      "id": 27326,
      "district_id": 351,
      "name": "AKSEKİ MAH",
      "area": "İSPİR",
      "postal_code": "25900"
    },
    {
      "id": 27327,
      "district_id": 351,
      "name": "AKSU MAH",
      "area": "İSPİR",
      "postal_code": "25900"
    },
    {
      "id": 27328,
      "district_id": 351,
      "name": "AKTAŞ MAH",
      "area": "İSPİR",
      "postal_code": "25900"
    },
    {
      "id": 27329,
      "district_id": 351,
      "name": "ALACABÜK MAH",
      "area": "İSPİR",
      "postal_code": "25900"
    },
    {
      "id": 27330,
      "district_id": 351,
      "name": "ARAKÖY MAH",
      "area": "İSPİR",
      "postal_code": "25900"
    },
    {
      "id": 27331,
      "district_id": 351,
      "name": "ARDIÇLI MAH",
      "area": "İSPİR",
      "postal_code": "25900"
    },
    {
      "id": 27332,
      "district_id": 351,
      "name": "ARMUTLU MAH",
      "area": "İSPİR",
      "postal_code": "25900"
    },
    {
      "id": 27333,
      "district_id": 351,
      "name": "AŞAĞI FINDIKLI MAH",
      "area": "İSPİR",
      "postal_code": "25900"
    },
    {
      "id": 27334,
      "district_id": 351,
      "name": "AŞAĞI ÖZBAĞ MAH",
      "area": "İSPİR",
      "postal_code": "25900"
    },
    {
      "id": 27335,
      "district_id": 351,
      "name": "ATÜRKÜTEN MAH",
      "area": "İSPİR",
      "postal_code": "25900"
    },
    {
      "id": 27336,
      "district_id": 351,
      "name": "AVCIKÖY MAH",
      "area": "İSPİR",
      "postal_code": "25900"
    },
    {
      "id": 27337,
      "district_id": 351,
      "name": "BADEMLİ MAH",
      "area": "İSPİR",
      "postal_code": "25900"
    },
    {
      "id": 27338,
      "district_id": 351,
      "name": "BAHÇELİ MAH",
      "area": "İSPİR",
      "postal_code": "25900"
    },
    {
      "id": 27339,
      "district_id": 351,
      "name": "BAŞÇEŞME MAH",
      "area": "İSPİR",
      "postal_code": "25900"
    },
    {
      "id": 27340,
      "district_id": 351,
      "name": "BAŞKÖY MAH",
      "area": "İSPİR",
      "postal_code": "25900"
    },
    {
      "id": 27341,
      "district_id": 351,
      "name": "BAŞPINAR MAH",
      "area": "İSPİR",
      "postal_code": "25900"
    },
    {
      "id": 27342,
      "district_id": 351,
      "name": "BOSTANCI MAH",
      "area": "İSPİR",
      "postal_code": "25900"
    },
    {
      "id": 27343,
      "district_id": 351,
      "name": "BOZAN MAH",
      "area": "İSPİR",
      "postal_code": "25900"
    },
    {
      "id": 27344,
      "district_id": 351,
      "name": "ÇAKMAKLI MAH",
      "area": "İSPİR",
      "postal_code": "25900"
    },
    {
      "id": 27345,
      "district_id": 351,
      "name": "ÇAMLICA MAH",
      "area": "İSPİR",
      "postal_code": "25900"
    },
    {
      "id": 27346,
      "district_id": 351,
      "name": "ÇAMLIKAYA MAH",
      "area": "İSPİR",
      "postal_code": "25900"
    },
    {
      "id": 27347,
      "district_id": 351,
      "name": "CANKURTARAN MAH",
      "area": "İSPİR",
      "postal_code": "25900"
    },
    {
      "id": 27348,
      "district_id": 351,
      "name": "ÇATAKKAYA MAH",
      "area": "İSPİR",
      "postal_code": "25900"
    },
    {
      "id": 27349,
      "district_id": 351,
      "name": "ÇAYIRBAŞI MAH",
      "area": "İSPİR",
      "postal_code": "25900"
    },
    {
      "id": 27350,
      "district_id": 351,
      "name": "ÇAYIRÖZÜ MAH",
      "area": "İSPİR",
      "postal_code": "25900"
    },
    {
      "id": 27351,
      "district_id": 351,
      "name": "CİBALİ MAH",
      "area": "İSPİR",
      "postal_code": "25900"
    },
    {
      "id": 27352,
      "district_id": 351,
      "name": "ÇİÇEKLİ MAH",
      "area": "İSPİR",
      "postal_code": "25900"
    },
    {
      "id": 27353,
      "district_id": 351,
      "name": "DEĞİRMENDERE MAH",
      "area": "İSPİR",
      "postal_code": "25900"
    },
    {
      "id": 27354,
      "district_id": 351,
      "name": "DEĞİRMENLİ MAH",
      "area": "İSPİR",
      "postal_code": "25900"
    },
    {
      "id": 27355,
      "district_id": 351,
      "name": "DEMİRBİLEK MAH",
      "area": "İSPİR",
      "postal_code": "25900"
    },
    {
      "id": 27356,
      "district_id": 351,
      "name": "DEMİRKAYA MAH",
      "area": "İSPİR",
      "postal_code": "25900"
    },
    {
      "id": 27357,
      "district_id": 351,
      "name": "DEVEDAĞI MAH",
      "area": "İSPİR",
      "postal_code": "25900"
    },
    {
      "id": 27358,
      "district_id": 351,
      "name": "DURUKÖY MAH",
      "area": "İSPİR",
      "postal_code": "25900"
    },
    {
      "id": 27359,
      "district_id": 351,
      "name": "DÜZKÖY MAH",
      "area": "İSPİR",
      "postal_code": "25900"
    },
    {
      "id": 27360,
      "district_id": 351,
      "name": "ELMALI MAH",
      "area": "İSPİR",
      "postal_code": "25900"
    },
    {
      "id": 27361,
      "district_id": 351,
      "name": "GAZİLER MAH",
      "area": "İSPİR",
      "postal_code": "25900"
    },
    {
      "id": 27362,
      "district_id": 351,
      "name": "GEÇİTAĞZI MAH",
      "area": "İSPİR",
      "postal_code": "25900"
    },
    {
      "id": 27363,
      "district_id": 351,
      "name": "GÖÇKÖY MAH",
      "area": "İSPİR",
      "postal_code": "25900"
    },
    {
      "id": 27364,
      "district_id": 351,
      "name": "GÖLYURT MAH",
      "area": "İSPİR",
      "postal_code": "25900"
    },
    {
      "id": 27365,
      "district_id": 351,
      "name": "GÜLHAS MAH",
      "area": "İSPİR",
      "postal_code": "25900"
    },
    {
      "id": 27366,
      "district_id": 351,
      "name": "GÜLLÜBAĞ MAH",
      "area": "İSPİR",
      "postal_code": "25900"
    },
    {
      "id": 27367,
      "district_id": 351,
      "name": "GÜNDOĞDU MAH",
      "area": "İSPİR",
      "postal_code": "25900"
    },
    {
      "id": 27368,
      "district_id": 351,
      "name": "GÜNEY MAH",
      "area": "İSPİR",
      "postal_code": "25900"
    },
    {
      "id": 27369,
      "district_id": 351,
      "name": "HALİLPAŞA MAH",
      "area": "İSPİR",
      "postal_code": "25900"
    },
    {
      "id": 27370,
      "district_id": 351,
      "name": "İKİSU MAH",
      "area": "İSPİR",
      "postal_code": "25900"
    },
    {
      "id": 27371,
      "district_id": 351,
      "name": "İNCESU MAH",
      "area": "İSPİR",
      "postal_code": "25900"
    },
    {
      "id": 27372,
      "district_id": 351,
      "name": "IRMAKKÖY MAH",
      "area": "İSPİR",
      "postal_code": "25900"
    },
    {
      "id": 27373,
      "district_id": 351,
      "name": "İYİDERE MAH",
      "area": "İSPİR",
      "postal_code": "25900"
    },
    {
      "id": 27374,
      "district_id": 351,
      "name": "KARAHAN MAH",
      "area": "İSPİR",
      "postal_code": "25900"
    },
    {
      "id": 27375,
      "district_id": 351,
      "name": "KARAKALE MAH",
      "area": "İSPİR",
      "postal_code": "25900"
    },
    {
      "id": 27376,
      "district_id": 351,
      "name": "KARAKAMIŞ MAH",
      "area": "İSPİR",
      "postal_code": "25900"
    },
    {
      "id": 27377,
      "district_id": 351,
      "name": "KARAKAYA MAH",
      "area": "İSPİR",
      "postal_code": "25900"
    },
    {
      "id": 27378,
      "district_id": 351,
      "name": "KARASEYDİ MAH",
      "area": "İSPİR",
      "postal_code": "25900"
    },
    {
      "id": 27379,
      "district_id": 351,
      "name": "KARŞIYAKA MAH",
      "area": "İSPİR",
      "postal_code": "25900"
    },
    {
      "id": 27380,
      "district_id": 351,
      "name": "KAVAKLI MAH",
      "area": "İSPİR",
      "postal_code": "25900"
    },
    {
      "id": 27381,
      "district_id": 351,
      "name": "KAYNAKBAŞI MAH",
      "area": "İSPİR",
      "postal_code": "25900"
    },
    {
      "id": 27382,
      "district_id": 351,
      "name": "KİRAZLI MAH",
      "area": "İSPİR",
      "postal_code": "25900"
    },
    {
      "id": 27383,
      "district_id": 351,
      "name": "KIRIK MAH",
      "area": "İSPİR",
      "postal_code": "25900"
    },
    {
      "id": 27384,
      "district_id": 351,
      "name": "KIZILHASAN MAH",
      "area": "İSPİR",
      "postal_code": "25900"
    },
    {
      "id": 27385,
      "district_id": 351,
      "name": "KOÇ MAH",
      "area": "İSPİR",
      "postal_code": "25900"
    },
    {
      "id": 27386,
      "district_id": 351,
      "name": "KÖPRÜKÖY MAH",
      "area": "İSPİR",
      "postal_code": "25900"
    },
    {
      "id": 27387,
      "district_id": 351,
      "name": "KÜMETAŞ MAH",
      "area": "İSPİR",
      "postal_code": "25900"
    },
    {
      "id": 27388,
      "district_id": 351,
      "name": "LEYLEKKÖY MAH",
      "area": "İSPİR",
      "postal_code": "25900"
    },
    {
      "id": 27389,
      "district_id": 351,
      "name": "MADENKÖPRÜBAŞI MAH",
      "area": "İSPİR",
      "postal_code": "25900"
    },
    {
      "id": 27390,
      "district_id": 351,
      "name": "MESCİTLİ MAH",
      "area": "İSPİR",
      "postal_code": "25900"
    },
    {
      "id": 27391,
      "district_id": 351,
      "name": "MEYDANLI MAH",
      "area": "İSPİR",
      "postal_code": "25900"
    },
    {
      "id": 27392,
      "district_id": 351,
      "name": "MORYAYLA MAH",
      "area": "İSPİR",
      "postal_code": "25900"
    },
    {
      "id": 27393,
      "district_id": 351,
      "name": "MÜLKKÖY MAH",
      "area": "İSPİR",
      "postal_code": "25900"
    },
    {
      "id": 27394,
      "district_id": 351,
      "name": "NUMANPAŞA MAH",
      "area": "İSPİR",
      "postal_code": "25900"
    },
    {
      "id": 27395,
      "district_id": 351,
      "name": "ORTAKÖY MAH",
      "area": "İSPİR",
      "postal_code": "25900"
    },
    {
      "id": 27396,
      "district_id": 351,
      "name": "ORTAÖREN MAH",
      "area": "İSPİR",
      "postal_code": "25900"
    },
    {
      "id": 27397,
      "district_id": 351,
      "name": "ÖZLÜCE MAH",
      "area": "İSPİR",
      "postal_code": "25900"
    },
    {
      "id": 27398,
      "district_id": 351,
      "name": "ÖZTOPRAK MAH",
      "area": "İSPİR",
      "postal_code": "25900"
    },
    {
      "id": 27399,
      "district_id": 351,
      "name": "PETEKLİ MAH",
      "area": "İSPİR",
      "postal_code": "25900"
    },
    {
      "id": 27400,
      "district_id": 351,
      "name": "PINARLI MAH",
      "area": "İSPİR",
      "postal_code": "25900"
    },
    {
      "id": 27401,
      "district_id": 351,
      "name": "SANDIKLI MAH",
      "area": "İSPİR",
      "postal_code": "25900"
    },
    {
      "id": 27402,
      "district_id": 351,
      "name": "ŞENKÖY MAH",
      "area": "İSPİR",
      "postal_code": "25900"
    },
    {
      "id": 27403,
      "district_id": 351,
      "name": "SIRAKONAK MAH",
      "area": "İSPİR",
      "postal_code": "25900"
    },
    {
      "id": 27404,
      "district_id": 351,
      "name": "SOĞUKSU MAH",
      "area": "İSPİR",
      "postal_code": "25900"
    },
    {
      "id": 27405,
      "district_id": 351,
      "name": "TAŞBAŞI MAH",
      "area": "İSPİR",
      "postal_code": "25900"
    },
    {
      "id": 27406,
      "district_id": 351,
      "name": "TAŞLICA MAH",
      "area": "İSPİR",
      "postal_code": "25900"
    },
    {
      "id": 27407,
      "district_id": 351,
      "name": "TEKPINAR MAH",
      "area": "İSPİR",
      "postal_code": "25900"
    },
    {
      "id": 27408,
      "district_id": 351,
      "name": "TEPECİK MAH",
      "area": "İSPİR",
      "postal_code": "25900"
    },
    {
      "id": 27409,
      "district_id": 351,
      "name": "ULUBEL MAH",
      "area": "İSPİR",
      "postal_code": "25900"
    },
    {
      "id": 27410,
      "district_id": 351,
      "name": "ULUTAŞ MAH",
      "area": "İSPİR",
      "postal_code": "25900"
    },
    {
      "id": 27411,
      "district_id": 351,
      "name": "ÜZÜMBAĞI MAH",
      "area": "İSPİR",
      "postal_code": "25900"
    },
    {
      "id": 27412,
      "district_id": 351,
      "name": "YAĞLI MAH",
      "area": "İSPİR",
      "postal_code": "25900"
    },
    {
      "id": 27413,
      "district_id": 351,
      "name": "YAYLACIK MAH",
      "area": "İSPİR",
      "postal_code": "25900"
    },
    {
      "id": 27414,
      "district_id": 351,
      "name": "YEDİGÖL MAH",
      "area": "İSPİR",
      "postal_code": "25900"
    },
    {
      "id": 27415,
      "district_id": 351,
      "name": "YEDİGÖZE MAH",
      "area": "İSPİR",
      "postal_code": "25900"
    },
    {
      "id": 27416,
      "district_id": 351,
      "name": "YEŞİLTEPE MAH",
      "area": "İSPİR",
      "postal_code": "25900"
    },
    {
      "id": 27417,
      "district_id": 351,
      "name": "YEŞİLYURT MAH",
      "area": "İSPİR",
      "postal_code": "25900"
    },
    {
      "id": 27418,
      "district_id": 351,
      "name": "YILDIZTEPE MAH",
      "area": "İSPİR",
      "postal_code": "25900"
    },
    {
      "id": 27419,
      "district_id": 351,
      "name": "YUKARI FINDIKLI MAH",
      "area": "İSPİR",
      "postal_code": "25900"
    },
    {
      "id": 27420,
      "district_id": 351,
      "name": "YUKARI MAH",
      "area": "İSPİR",
      "postal_code": "25900"
    },
    {
      "id": 27421,
      "district_id": 351,
      "name": "YUKARI ÖZBAĞ MAH",
      "area": "İSPİR",
      "postal_code": "25900"
    },
    {
      "id": 27422,
      "district_id": 351,
      "name": "YUNUSKÖY MAH",
      "area": "İSPİR",
      "postal_code": "25900"
    },
    {
      "id": 27423,
      "district_id": 351,
      "name": "ZEYREK MAH",
      "area": "İSPİR",
      "postal_code": "25900"
    },
    {
      "id": 27424,
      "district_id": 352,
      "name": "AKKAVAK MAH",
      "area": "KARAÇOBAN",
      "postal_code": "25610"
    },
    {
      "id": 27425,
      "district_id": 352,
      "name": "BAĞLAR MAH",
      "area": "KARAÇOBAN",
      "postal_code": "25610"
    },
    {
      "id": 27426,
      "district_id": 352,
      "name": "BAHÇELİ MAH",
      "area": "KARAÇOBAN",
      "postal_code": "25610"
    },
    {
      "id": 27427,
      "district_id": 352,
      "name": "BİNPINAR MAH",
      "area": "KARAÇOBAN",
      "postal_code": "25610"
    },
    {
      "id": 27428,
      "district_id": 352,
      "name": "BOZYAR MAH",
      "area": "KARAÇOBAN",
      "postal_code": "25610"
    },
    {
      "id": 27429,
      "district_id": 352,
      "name": "BUDAKLI MAH",
      "area": "KARAÇOBAN",
      "postal_code": "25610"
    },
    {
      "id": 27430,
      "district_id": 352,
      "name": "BURNAZ MAH",
      "area": "KARAÇOBAN",
      "postal_code": "25610"
    },
    {
      "id": 27431,
      "district_id": 352,
      "name": "ÇATALGÜL MAH",
      "area": "KARAÇOBAN",
      "postal_code": "25610"
    },
    {
      "id": 27432,
      "district_id": 352,
      "name": "DEDEÖREN MAH",
      "area": "KARAÇOBAN",
      "postal_code": "25610"
    },
    {
      "id": 27433,
      "district_id": 352,
      "name": "DOĞANBEY MAH",
      "area": "KARAÇOBAN",
      "postal_code": "25610"
    },
    {
      "id": 27434,
      "district_id": 352,
      "name": "DUMAN MAH",
      "area": "KARAÇOBAN",
      "postal_code": "25610"
    },
    {
      "id": 27435,
      "district_id": 352,
      "name": "ERENLER MAH",
      "area": "KARAÇOBAN",
      "postal_code": "25610"
    },
    {
      "id": 27436,
      "district_id": 352,
      "name": "ERHANLAR MAH",
      "area": "KARAÇOBAN",
      "postal_code": "25610"
    },
    {
      "id": 27437,
      "district_id": 352,
      "name": "GÜNDÜZ MAH",
      "area": "KARAÇOBAN",
      "postal_code": "25610"
    },
    {
      "id": 27438,
      "district_id": 352,
      "name": "HACILAR MAH",
      "area": "KARAÇOBAN",
      "postal_code": "25610"
    },
    {
      "id": 27439,
      "district_id": 352,
      "name": "KARAGÖZ MAH",
      "area": "KARAÇOBAN",
      "postal_code": "25610"
    },
    {
      "id": 27440,
      "district_id": 352,
      "name": "KARAKÖPRÜ MAH",
      "area": "KARAÇOBAN",
      "postal_code": "25610"
    },
    {
      "id": 27441,
      "district_id": 352,
      "name": "KARMIŞ MAH",
      "area": "KARAÇOBAN",
      "postal_code": "25610"
    },
    {
      "id": 27442,
      "district_id": 352,
      "name": "KAVAKLI MAH",
      "area": "KARAÇOBAN",
      "postal_code": "25610"
    },
    {
      "id": 27443,
      "district_id": 352,
      "name": "KIRIMKAYA MAH",
      "area": "KARAÇOBAN",
      "postal_code": "25610"
    },
    {
      "id": 27444,
      "district_id": 352,
      "name": "KOPAL MAH",
      "area": "KARAÇOBAN",
      "postal_code": "25610"
    },
    {
      "id": 27445,
      "district_id": 352,
      "name": "KUŞLUCA MAH",
      "area": "KARAÇOBAN",
      "postal_code": "25610"
    },
    {
      "id": 27446,
      "district_id": 352,
      "name": "MARUF MAH",
      "area": "KARAÇOBAN",
      "postal_code": "25610"
    },
    {
      "id": 27447,
      "district_id": 352,
      "name": "MOLLADAVUT MAH",
      "area": "KARAÇOBAN",
      "postal_code": "25610"
    },
    {
      "id": 27448,
      "district_id": 352,
      "name": "OVAYONCALI MAH",
      "area": "KARAÇOBAN",
      "postal_code": "25610"
    },
    {
      "id": 27449,
      "district_id": 352,
      "name": "SARIVELİ MAH",
      "area": "KARAÇOBAN",
      "postal_code": "25610"
    },
    {
      "id": 27450,
      "district_id": 352,
      "name": "SEYHAN MAH",
      "area": "KARAÇOBAN",
      "postal_code": "25610"
    },
    {
      "id": 27451,
      "district_id": 353,
      "name": "ABDURRAHMANKÖY MAH",
      "area": "KARAYAZI",
      "postal_code": "25830"
    },
    {
      "id": 27452,
      "district_id": 353,
      "name": "AĞAÇLI MAH",
      "area": "KARAYAZI",
      "postal_code": "25830"
    },
    {
      "id": 27453,
      "district_id": 353,
      "name": "AKARSU MAH",
      "area": "KARAYAZI",
      "postal_code": "25830"
    },
    {
      "id": 27454,
      "district_id": 353,
      "name": "AKPINAR MAH",
      "area": "KARAYAZI",
      "postal_code": "25830"
    },
    {
      "id": 27455,
      "district_id": 353,
      "name": "ALEMDAĞI MAH",
      "area": "KARAYAZI",
      "postal_code": "25830"
    },
    {
      "id": 27456,
      "district_id": 353,
      "name": "ALİKÜLLEK MAH",
      "area": "KARAYAZI",
      "postal_code": "25830"
    },
    {
      "id": 27457,
      "district_id": 353,
      "name": "ANITLI MAH",
      "area": "KARAYAZI",
      "postal_code": "25830"
    },
    {
      "id": 27458,
      "district_id": 353,
      "name": "AŞAĞIİNCESU MAH",
      "area": "KARAYAZI",
      "postal_code": "25830"
    },
    {
      "id": 27459,
      "district_id": 353,
      "name": "AŞAĞISÖYLEMEZ MAH",
      "area": "KARAYAZI",
      "postal_code": "25830"
    },
    {
      "id": 27460,
      "district_id": 353,
      "name": "AYDINSU MAH",
      "area": "KARAYAZI",
      "postal_code": "25830"
    },
    {
      "id": 27461,
      "district_id": 353,
      "name": "BAYRAKTAR MAH",
      "area": "KARAYAZI",
      "postal_code": "25830"
    },
    {
      "id": 27462,
      "district_id": 353,
      "name": "BEZİRHANE MAH",
      "area": "KARAYAZI",
      "postal_code": "25830"
    },
    {
      "id": 27463,
      "district_id": 353,
      "name": "ÇAKMAKÖZÜ MAH",
      "area": "KARAYAZI",
      "postal_code": "25830"
    },
    {
      "id": 27464,
      "district_id": 353,
      "name": "ÇALIŞKAN MAH",
      "area": "KARAYAZI",
      "postal_code": "25830"
    },
    {
      "id": 27465,
      "district_id": 353,
      "name": "ÇALTILI MAH",
      "area": "KARAYAZI",
      "postal_code": "25830"
    },
    {
      "id": 27466,
      "district_id": 353,
      "name": "ÇATALÖREN MAH",
      "area": "KARAYAZI",
      "postal_code": "25830"
    },
    {
      "id": 27467,
      "district_id": 353,
      "name": "ÇAVUŞKÖY MAH",
      "area": "KARAYAZI",
      "postal_code": "25830"
    },
    {
      "id": 27468,
      "district_id": 353,
      "name": "ÇAYIRBEYLİ MAH",
      "area": "KARAYAZI",
      "postal_code": "25830"
    },
    {
      "id": 27469,
      "district_id": 353,
      "name": "ÇELİKLİ MAH",
      "area": "KARAYAZI",
      "postal_code": "25830"
    },
    {
      "id": 27470,
      "district_id": 353,
      "name": "ÇEPİ MAH",
      "area": "KARAYAZI",
      "postal_code": "25830"
    },
    {
      "id": 27471,
      "district_id": 353,
      "name": "DEĞİRMENKAYA MAH",
      "area": "KARAYAZI",
      "postal_code": "25830"
    },
    {
      "id": 27472,
      "district_id": 353,
      "name": "DÖRTPINAR MAH",
      "area": "KARAYAZI",
      "postal_code": "25830"
    },
    {
      "id": 27473,
      "district_id": 353,
      "name": "DORUCA MAH",
      "area": "KARAYAZI",
      "postal_code": "25830"
    },
    {
      "id": 27474,
      "district_id": 353,
      "name": "DÜNDAR MAH",
      "area": "KARAYAZI",
      "postal_code": "25830"
    },
    {
      "id": 27475,
      "district_id": 353,
      "name": "DURUCA MAH",
      "area": "KARAYAZI",
      "postal_code": "25830"
    },
    {
      "id": 27476,
      "district_id": 353,
      "name": "ELMAAĞAÇ MAH",
      "area": "KARAYAZI",
      "postal_code": "25830"
    },
    {
      "id": 27477,
      "district_id": 353,
      "name": "GEVENTEPE MAH",
      "area": "KARAYAZI",
      "postal_code": "25830"
    },
    {
      "id": 27478,
      "district_id": 353,
      "name": "GÖKSU MAH",
      "area": "KARAYAZI",
      "postal_code": "25830"
    },
    {
      "id": 27479,
      "district_id": 353,
      "name": "GÖKTEPE MAH",
      "area": "KARAYAZI",
      "postal_code": "25830"
    },
    {
      "id": 27480,
      "district_id": 353,
      "name": "GÜLLÜ MAH",
      "area": "KARAYAZI",
      "postal_code": "25830"
    },
    {
      "id": 27481,
      "district_id": 353,
      "name": "HACIBAYRAM MAH",
      "area": "KARAYAZI",
      "postal_code": "25830"
    },
    {
      "id": 27482,
      "district_id": 353,
      "name": "HASANOVA MAH",
      "area": "KARAYAZI",
      "postal_code": "25830"
    },
    {
      "id": 27483,
      "district_id": 353,
      "name": "KAPANLI MAH",
      "area": "KARAYAZI",
      "postal_code": "25830"
    },
    {
      "id": 27484,
      "district_id": 353,
      "name": "KARAAĞIL MAH",
      "area": "KARAYAZI",
      "postal_code": "25830"
    },
    {
      "id": 27485,
      "district_id": 353,
      "name": "KARABEY MAH",
      "area": "KARAYAZI",
      "postal_code": "25830"
    },
    {
      "id": 27486,
      "district_id": 353,
      "name": "KARAKALE MAH",
      "area": "KARAYAZI",
      "postal_code": "25830"
    },
    {
      "id": 27487,
      "district_id": 353,
      "name": "KARAKAYA MAH",
      "area": "KARAYAZI",
      "postal_code": "25830"
    },
    {
      "id": 27488,
      "district_id": 353,
      "name": "KARASU MAH",
      "area": "KARAYAZI",
      "postal_code": "25830"
    },
    {
      "id": 27489,
      "district_id": 353,
      "name": "KARŞIYAKA MAH",
      "area": "KARAYAZI",
      "postal_code": "25830"
    },
    {
      "id": 27490,
      "district_id": 353,
      "name": "KAYALAR MAH",
      "area": "KARAYAZI",
      "postal_code": "25830"
    },
    {
      "id": 27491,
      "district_id": 353,
      "name": "KAZBEL MAH",
      "area": "KARAYAZI",
      "postal_code": "25830"
    },
    {
      "id": 27492,
      "district_id": 353,
      "name": "KIRGINDERE MAH",
      "area": "KARAYAZI",
      "postal_code": "25830"
    },
    {
      "id": 27493,
      "district_id": 353,
      "name": "KIRKPINAR MAH",
      "area": "KARAYAZI",
      "postal_code": "25830"
    },
    {
      "id": 27494,
      "district_id": 353,
      "name": "KÖSEHASAN MAH",
      "area": "KARAYAZI",
      "postal_code": "25830"
    },
    {
      "id": 27495,
      "district_id": 353,
      "name": "KÖYCEĞİZ MAH",
      "area": "KARAYAZI",
      "postal_code": "25830"
    },
    {
      "id": 27496,
      "district_id": 353,
      "name": "KURUPINAR MAH",
      "area": "KARAYAZI",
      "postal_code": "25830"
    },
    {
      "id": 27497,
      "district_id": 353,
      "name": "MOLLA OSMAN MAH",
      "area": "KARAYAZI",
      "postal_code": "25830"
    },
    {
      "id": 27498,
      "district_id": 353,
      "name": "MOLLABEKİR MAH",
      "area": "KARAYAZI",
      "postal_code": "25830"
    },
    {
      "id": 27499,
      "district_id": 353,
      "name": "MURATLI MAH",
      "area": "KARAYAZI",
      "postal_code": "25830"
    },
    {
      "id": 27500,
      "district_id": 353,
      "name": "PAYVEREN MAH",
      "area": "KARAYAZI",
      "postal_code": "25830"
    },
    {
      "id": 27501,
      "district_id": 353,
      "name": "ŞAKİRKÖY MAH",
      "area": "KARAYAZI",
      "postal_code": "25830"
    },
    {
      "id": 27502,
      "district_id": 353,
      "name": "SALYAMAÇ MAH",
      "area": "KARAYAZI",
      "postal_code": "25830"
    },
    {
      "id": 27503,
      "district_id": 353,
      "name": "SANCAKTAR MAH",
      "area": "KARAYAZI",
      "postal_code": "25830"
    },
    {
      "id": 27504,
      "district_id": 353,
      "name": "SARIÇİÇEK MAH",
      "area": "KARAYAZI",
      "postal_code": "25830"
    },
    {
      "id": 27505,
      "district_id": 353,
      "name": "SELENLİ MAH",
      "area": "KARAYAZI",
      "postal_code": "25830"
    },
    {
      "id": 27506,
      "district_id": 353,
      "name": "SUKONAK MAH",
      "area": "KARAYAZI",
      "postal_code": "25830"
    },
    {
      "id": 27507,
      "district_id": 353,
      "name": "SULUTAŞ MAH",
      "area": "KARAYAZI",
      "postal_code": "25830"
    },
    {
      "id": 27508,
      "district_id": 353,
      "name": "TAŞAN MAH",
      "area": "KARAYAZI",
      "postal_code": "25830"
    },
    {
      "id": 27509,
      "district_id": 353,
      "name": "TOSUNLU MAH",
      "area": "KARAYAZI",
      "postal_code": "25830"
    },
    {
      "id": 27510,
      "district_id": 353,
      "name": "TURNAGÖL MAH",
      "area": "KARAYAZI",
      "postal_code": "25830"
    },
    {
      "id": 27511,
      "district_id": 353,
      "name": "UĞURDALI MAH",
      "area": "KARAYAZI",
      "postal_code": "25830"
    },
    {
      "id": 27512,
      "district_id": 353,
      "name": "ULUCANLAR MAH",
      "area": "KARAYAZI",
      "postal_code": "25830"
    },
    {
      "id": 27513,
      "district_id": 353,
      "name": "ÜZENGİLİ MAH",
      "area": "KARAYAZI",
      "postal_code": "25830"
    },
    {
      "id": 27514,
      "district_id": 353,
      "name": "YAHYAKÖY MAH",
      "area": "KARAYAZI",
      "postal_code": "25830"
    },
    {
      "id": 27515,
      "district_id": 353,
      "name": "YALINDAL MAH",
      "area": "KARAYAZI",
      "postal_code": "25830"
    },
    {
      "id": 27516,
      "district_id": 353,
      "name": "YENİ MAH",
      "area": "KARAYAZI",
      "postal_code": "25830"
    },
    {
      "id": 27517,
      "district_id": 353,
      "name": "YENİKÖY MAH",
      "area": "KARAYAZI",
      "postal_code": "25830"
    },
    {
      "id": 27518,
      "district_id": 353,
      "name": "YEŞİLOVA MAH",
      "area": "KARAYAZI",
      "postal_code": "25830"
    },
    {
      "id": 27519,
      "district_id": 353,
      "name": "YEŞİLYURT MAH",
      "area": "KARAYAZI",
      "postal_code": "25830"
    },
    {
      "id": 27520,
      "district_id": 353,
      "name": "YİĞİTYOLU MAH",
      "area": "KARAYAZI",
      "postal_code": "25830"
    },
    {
      "id": 27521,
      "district_id": 353,
      "name": "YOLGÖREN MAH",
      "area": "KARAYAZI",
      "postal_code": "25830"
    },
    {
      "id": 27522,
      "district_id": 353,
      "name": "YÜCELİK MAH",
      "area": "KARAYAZI",
      "postal_code": "25830"
    },
    {
      "id": 27523,
      "district_id": 353,
      "name": "YUKARIÇIĞILGAN MAH",
      "area": "KARAYAZI",
      "postal_code": "25830"
    },
    {
      "id": 27524,
      "district_id": 353,
      "name": "YUKARICİHANBEY MAH",
      "area": "KARAYAZI",
      "postal_code": "25830"
    },
    {
      "id": 27525,
      "district_id": 353,
      "name": "YUKARISÖYLEMEZ MAH",
      "area": "KARAYAZI",
      "postal_code": "25830"
    },
    {
      "id": 27526,
      "district_id": 354,
      "name": "AĞCAŞAR MAH",
      "area": "KÖPRÜKÖY",
      "postal_code": "25320"
    },
    {
      "id": 27527,
      "district_id": 354,
      "name": "AKÇAM MAH",
      "area": "KÖPRÜKÖY",
      "postal_code": "25320"
    },
    {
      "id": 27528,
      "district_id": 354,
      "name": "ALACA MAH",
      "area": "KÖPRÜKÖY",
      "postal_code": "25320"
    },
    {
      "id": 27529,
      "district_id": 354,
      "name": "AŞAĞIÇAKMAK MAH",
      "area": "KÖPRÜKÖY",
      "postal_code": "25320"
    },
    {
      "id": 27530,
      "district_id": 354,
      "name": "AŞAĞIKIZILKALE MAH",
      "area": "KÖPRÜKÖY",
      "postal_code": "25320"
    },
    {
      "id": 27531,
      "district_id": 354,
      "name": "ATAKÖY MAH",
      "area": "KÖPRÜKÖY",
      "postal_code": "25320"
    },
    {
      "id": 27532,
      "district_id": 354,
      "name": "BUĞDAYLI MAH",
      "area": "KÖPRÜKÖY",
      "postal_code": "25320"
    },
    {
      "id": 27533,
      "district_id": 354,
      "name": "CAMİKEBİR MAH",
      "area": "KÖPRÜKÖY",
      "postal_code": "25320"
    },
    {
      "id": 27534,
      "district_id": 354,
      "name": "ÇULLU MAH",
      "area": "KÖPRÜKÖY",
      "postal_code": "25320"
    },
    {
      "id": 27535,
      "district_id": 354,
      "name": "DEREBAŞI MAH",
      "area": "KÖPRÜKÖY",
      "postal_code": "25320"
    },
    {
      "id": 27536,
      "district_id": 354,
      "name": "DİLEK MAH",
      "area": "KÖPRÜKÖY",
      "postal_code": "25320"
    },
    {
      "id": 27537,
      "district_id": 354,
      "name": "DUATEPE MAH",
      "area": "KÖPRÜKÖY",
      "postal_code": "25320"
    },
    {
      "id": 27538,
      "district_id": 354,
      "name": "DUMANKAYA MAH",
      "area": "KÖPRÜKÖY",
      "postal_code": "25320"
    },
    {
      "id": 27539,
      "district_id": 354,
      "name": "EĞİRMEZ MAH",
      "area": "KÖPRÜKÖY",
      "postal_code": "25320"
    },
    {
      "id": 27540,
      "district_id": 354,
      "name": "EMRE MAH",
      "area": "KÖPRÜKÖY",
      "postal_code": "25320"
    },
    {
      "id": 27541,
      "district_id": 354,
      "name": "EYÜPLER MAH",
      "area": "KÖPRÜKÖY",
      "postal_code": "25320"
    },
    {
      "id": 27542,
      "district_id": 354,
      "name": "GEYİKLİ MAH",
      "area": "KÖPRÜKÖY",
      "postal_code": "25320"
    },
    {
      "id": 27543,
      "district_id": 354,
      "name": "GÖLÇAYIR MAH",
      "area": "KÖPRÜKÖY",
      "postal_code": "25320"
    },
    {
      "id": 27544,
      "district_id": 354,
      "name": "GÜZELHİSAR MAH",
      "area": "KÖPRÜKÖY",
      "postal_code": "25320"
    },
    {
      "id": 27545,
      "district_id": 354,
      "name": "ILICASU MAH",
      "area": "KÖPRÜKÖY",
      "postal_code": "25320"
    },
    {
      "id": 27546,
      "district_id": 354,
      "name": "KARATAŞLAR MAH",
      "area": "KÖPRÜKÖY",
      "postal_code": "25320"
    },
    {
      "id": 27547,
      "district_id": 354,
      "name": "KAYABAŞI MAH",
      "area": "KÖPRÜKÖY",
      "postal_code": "25320"
    },
    {
      "id": 27548,
      "district_id": 354,
      "name": "KIYIKONAK MAH",
      "area": "KÖPRÜKÖY",
      "postal_code": "25320"
    },
    {
      "id": 27549,
      "district_id": 354,
      "name": "MARİFET MAH",
      "area": "KÖPRÜKÖY",
      "postal_code": "25320"
    },
    {
      "id": 27550,
      "district_id": 354,
      "name": "MESCİTLİ MAH",
      "area": "KÖPRÜKÖY",
      "postal_code": "25320"
    },
    {
      "id": 27551,
      "district_id": 354,
      "name": "ÖRENTAŞ MAH",
      "area": "KÖPRÜKÖY",
      "postal_code": "25320"
    },
    {
      "id": 27552,
      "district_id": 354,
      "name": "ORTAKLAR MAH",
      "area": "KÖPRÜKÖY",
      "postal_code": "25320"
    },
    {
      "id": 27553,
      "district_id": 354,
      "name": "PEKECİK MAH",
      "area": "KÖPRÜKÖY",
      "postal_code": "25320"
    },
    {
      "id": 27554,
      "district_id": 354,
      "name": "SARITAŞ MAH",
      "area": "KÖPRÜKÖY",
      "postal_code": "25320"
    },
    {
      "id": 27555,
      "district_id": 354,
      "name": "SAVATLI MAH",
      "area": "KÖPRÜKÖY",
      "postal_code": "25320"
    },
    {
      "id": 27556,
      "district_id": 354,
      "name": "ŞEHİTLER MAH",
      "area": "KÖPRÜKÖY",
      "postal_code": "25320"
    },
    {
      "id": 27557,
      "district_id": 354,
      "name": "SOĞUKSU MAH",
      "area": "KÖPRÜKÖY",
      "postal_code": "25320"
    },
    {
      "id": 27558,
      "district_id": 354,
      "name": "TOPÇU MAH",
      "area": "KÖPRÜKÖY",
      "postal_code": "25320"
    },
    {
      "id": 27559,
      "district_id": 354,
      "name": "YAĞAN MAH",
      "area": "KÖPRÜKÖY",
      "postal_code": "25320"
    },
    {
      "id": 27560,
      "district_id": 354,
      "name": "YAPAĞILI MAH",
      "area": "KÖPRÜKÖY",
      "postal_code": "25320"
    },
    {
      "id": 27561,
      "district_id": 354,
      "name": "YEMLİK MAH",
      "area": "KÖPRÜKÖY",
      "postal_code": "25320"
    },
    {
      "id": 27562,
      "district_id": 354,
      "name": "YEŞİLÖZ MAH",
      "area": "KÖPRÜKÖY",
      "postal_code": "25320"
    },
    {
      "id": 27563,
      "district_id": 354,
      "name": "YILANLI MAH",
      "area": "KÖPRÜKÖY",
      "postal_code": "25320"
    },
    {
      "id": 27564,
      "district_id": 354,
      "name": "YUKARIKIZILCA MAH",
      "area": "KÖPRÜKÖY",
      "postal_code": "25320"
    },
    {
      "id": 27565,
      "district_id": 354,
      "name": "YUKARIKIZILKALE MAH",
      "area": "KÖPRÜKÖY",
      "postal_code": "25320"
    },
    {
      "id": 27566,
      "district_id": 354,
      "name": "YUKARISÖĞÜTLÜ MAH",
      "area": "KÖPRÜKÖY",
      "postal_code": "25320"
    },
    {
      "id": 27567,
      "district_id": 354,
      "name": "ZİYARET MAH",
      "area": "KÖPRÜKÖY",
      "postal_code": "25320"
    },
    {
      "id": 27568,
      "district_id": 355,
      "name": "ALABALIK MAH",
      "area": "NARMAN",
      "postal_code": "25530"
    },
    {
      "id": 27569,
      "district_id": 355,
      "name": "ALACAYAR MAH",
      "area": "NARMAN",
      "postal_code": "25530"
    },
    {
      "id": 27570,
      "district_id": 355,
      "name": "ARAKÖY MAH",
      "area": "NARMAN",
      "postal_code": "25530"
    },
    {
      "id": 27571,
      "district_id": 355,
      "name": "AŞAĞIYAYLA MAH",
      "area": "NARMAN",
      "postal_code": "25530"
    },
    {
      "id": 27572,
      "district_id": 355,
      "name": "BAŞKALE MAH",
      "area": "NARMAN",
      "postal_code": "25530"
    },
    {
      "id": 27573,
      "district_id": 355,
      "name": "BEYLER MAH",
      "area": "NARMAN",
      "postal_code": "25530"
    },
    {
      "id": 27574,
      "district_id": 355,
      "name": "BOĞAKALE MAH",
      "area": "NARMAN",
      "postal_code": "25530"
    },
    {
      "id": 27575,
      "district_id": 355,
      "name": "CAMİİKEBİR MAH",
      "area": "NARMAN",
      "postal_code": "25530"
    },
    {
      "id": 27576,
      "district_id": 355,
      "name": "CAMİİSAĞIR MAH",
      "area": "NARMAN",
      "postal_code": "25530"
    },
    {
      "id": 27577,
      "district_id": 355,
      "name": "ÇAMLIYAYLA MAH",
      "area": "NARMAN",
      "postal_code": "25530"
    },
    {
      "id": 27578,
      "district_id": 355,
      "name": "ÇİMENLİ MAH",
      "area": "NARMAN",
      "postal_code": "25530"
    },
    {
      "id": 27579,
      "district_id": 355,
      "name": "DAĞYOLU MAH",
      "area": "NARMAN",
      "postal_code": "25530"
    },
    {
      "id": 27580,
      "district_id": 355,
      "name": "DEMİRDAĞ MAH",
      "area": "NARMAN",
      "postal_code": "25530"
    },
    {
      "id": 27581,
      "district_id": 355,
      "name": "ERGAZİ MAH",
      "area": "NARMAN",
      "postal_code": "25530"
    },
    {
      "id": 27582,
      "district_id": 355,
      "name": "GÖKDAĞ MAH",
      "area": "NARMAN",
      "postal_code": "25530"
    },
    {
      "id": 27583,
      "district_id": 355,
      "name": "GÖLLÜ MAH",
      "area": "NARMAN",
      "postal_code": "25530"
    },
    {
      "id": 27584,
      "district_id": 355,
      "name": "GÜLLÜDAĞ MAH",
      "area": "NARMAN",
      "postal_code": "25530"
    },
    {
      "id": 27585,
      "district_id": 355,
      "name": "GÜVENLİK MAH",
      "area": "NARMAN",
      "postal_code": "25530"
    },
    {
      "id": 27586,
      "district_id": 355,
      "name": "KAMIŞÖZÜ MAH",
      "area": "NARMAN",
      "postal_code": "25530"
    },
    {
      "id": 27587,
      "district_id": 355,
      "name": "KARADAĞ MAH",
      "area": "NARMAN",
      "postal_code": "25530"
    },
    {
      "id": 27588,
      "district_id": 355,
      "name": "KARAPINAR MAH",
      "area": "NARMAN",
      "postal_code": "25530"
    },
    {
      "id": 27589,
      "district_id": 355,
      "name": "KİLİMLİ MAH",
      "area": "NARMAN",
      "postal_code": "25530"
    },
    {
      "id": 27590,
      "district_id": 355,
      "name": "KIŞLAKÖY MAH",
      "area": "NARMAN",
      "postal_code": "25530"
    },
    {
      "id": 27591,
      "district_id": 355,
      "name": "KOÇKAYA MAH",
      "area": "NARMAN",
      "postal_code": "25530"
    },
    {
      "id": 27592,
      "district_id": 355,
      "name": "KOYUNÖREN MAH",
      "area": "NARMAN",
      "postal_code": "25530"
    },
    {
      "id": 27593,
      "district_id": 355,
      "name": "KURUÇALI MAH",
      "area": "NARMAN",
      "postal_code": "25530"
    },
    {
      "id": 27594,
      "district_id": 355,
      "name": "MAHMUTÇAVUŞ MAH",
      "area": "NARMAN",
      "postal_code": "25530"
    },
    {
      "id": 27595,
      "district_id": 355,
      "name": "MERCİMEKLİ MAH",
      "area": "NARMAN",
      "postal_code": "25530"
    },
    {
      "id": 27596,
      "district_id": 355,
      "name": "OTLUTEPE MAH",
      "area": "NARMAN",
      "postal_code": "25530"
    },
    {
      "id": 27597,
      "district_id": 355,
      "name": "PINARYOLU MAH",
      "area": "NARMAN",
      "postal_code": "25530"
    },
    {
      "id": 27598,
      "district_id": 355,
      "name": "SAMİKALE MAH",
      "area": "NARMAN",
      "postal_code": "25530"
    },
    {
      "id": 27599,
      "district_id": 355,
      "name": "SAPANLI MAH",
      "area": "NARMAN",
      "postal_code": "25530"
    },
    {
      "id": 27600,
      "district_id": 355,
      "name": "SAVAŞÇILAR MAH",
      "area": "NARMAN",
      "postal_code": "25530"
    },
    {
      "id": 27601,
      "district_id": 355,
      "name": "ŞEHİTLER MAH",
      "area": "NARMAN",
      "postal_code": "25530"
    },
    {
      "id": 27602,
      "district_id": 355,
      "name": "ŞEKERLİ MAH",
      "area": "NARMAN",
      "postal_code": "25530"
    },
    {
      "id": 27603,
      "district_id": 355,
      "name": "SERİNSU MAH",
      "area": "NARMAN",
      "postal_code": "25530"
    },
    {
      "id": 27604,
      "district_id": 355,
      "name": "SEYYİD ALİ BABA MAH",
      "area": "NARMAN",
      "postal_code": "25530"
    },
    {
      "id": 27605,
      "district_id": 355,
      "name": "SÜLÜKLÜ MAH",
      "area": "NARMAN",
      "postal_code": "25530"
    },
    {
      "id": 27606,
      "district_id": 355,
      "name": "SÜTPINAR MAH",
      "area": "NARMAN",
      "postal_code": "25530"
    },
    {
      "id": 27607,
      "district_id": 355,
      "name": "TAŞBURUN MAH",
      "area": "NARMAN",
      "postal_code": "25530"
    },
    {
      "id": 27608,
      "district_id": 355,
      "name": "TELLİ MAH",
      "area": "NARMAN",
      "postal_code": "25530"
    },
    {
      "id": 27609,
      "district_id": 355,
      "name": "TOYGARLI MAH",
      "area": "NARMAN",
      "postal_code": "25530"
    },
    {
      "id": 27610,
      "district_id": 355,
      "name": "TUZLA MAH",
      "area": "NARMAN",
      "postal_code": "25530"
    },
    {
      "id": 27611,
      "district_id": 355,
      "name": "YANIKTAŞ MAH",
      "area": "NARMAN",
      "postal_code": "25530"
    },
    {
      "id": 27612,
      "district_id": 355,
      "name": "YOLDERE MAH",
      "area": "NARMAN",
      "postal_code": "25530"
    },
    {
      "id": 27613,
      "district_id": 355,
      "name": "YUKARIYAYLA MAH",
      "area": "NARMAN",
      "postal_code": "25530"
    },
    {
      "id": 27614,
      "district_id": 356,
      "name": "ALATARLA MAH",
      "area": "OLTU",
      "postal_code": "25400"
    },
    {
      "id": 27615,
      "district_id": 356,
      "name": "ARITAŞ MAH",
      "area": "OLTU",
      "postal_code": "25400"
    },
    {
      "id": 27616,
      "district_id": 356,
      "name": "AŞAĞIÇAMLI MAH",
      "area": "OLTU",
      "postal_code": "25400"
    },
    {
      "id": 27617,
      "district_id": 356,
      "name": "AŞAĞIKUMLU MAH",
      "area": "OLTU",
      "postal_code": "25400"
    },
    {
      "id": 27618,
      "district_id": 356,
      "name": "ASLANPAŞA MAH",
      "area": "OLTU",
      "postal_code": "25400"
    },
    {
      "id": 27619,
      "district_id": 356,
      "name": "AYVALI MAH",
      "area": "OLTU",
      "postal_code": "25400"
    },
    {
      "id": 27620,
      "district_id": 356,
      "name": "AYYILDIZ MAH",
      "area": "OLTU",
      "postal_code": "25400"
    },
    {
      "id": 27621,
      "district_id": 356,
      "name": "BAHÇECİK MAH",
      "area": "OLTU",
      "postal_code": "25400"
    },
    {
      "id": 27622,
      "district_id": 356,
      "name": "BAHÇELİKIŞLA MAH",
      "area": "OLTU",
      "postal_code": "25400"
    },
    {
      "id": 27623,
      "district_id": 356,
      "name": "BALLICA MAH",
      "area": "OLTU",
      "postal_code": "25400"
    },
    {
      "id": 27624,
      "district_id": 356,
      "name": "BAŞAKLI MAH",
      "area": "OLTU",
      "postal_code": "25400"
    },
    {
      "id": 27625,
      "district_id": 356,
      "name": "BAŞBAĞLAR MAH",
      "area": "OLTU",
      "postal_code": "25400"
    },
    {
      "id": 27626,
      "district_id": 356,
      "name": "ÇAMLIBEL MAH",
      "area": "OLTU",
      "postal_code": "25400"
    },
    {
      "id": 27627,
      "district_id": 356,
      "name": "ÇANAKPINAR MAH",
      "area": "OLTU",
      "postal_code": "25400"
    },
    {
      "id": 27628,
      "district_id": 356,
      "name": "ÇATAK MAH",
      "area": "OLTU",
      "postal_code": "25400"
    },
    {
      "id": 27629,
      "district_id": 356,
      "name": "ÇATALSÖĞÜT MAH",
      "area": "OLTU",
      "postal_code": "25400"
    },
    {
      "id": 27630,
      "district_id": 356,
      "name": "ÇAYÜSTÜ MAH",
      "area": "OLTU",
      "postal_code": "25400"
    },
    {
      "id": 27631,
      "district_id": 356,
      "name": "ÇENGELLİ MAH",
      "area": "OLTU",
      "postal_code": "25400"
    },
    {
      "id": 27632,
      "district_id": 356,
      "name": "CUMHURİYET MAH",
      "area": "OLTU",
      "postal_code": "25400"
    },
    {
      "id": 27633,
      "district_id": 356,
      "name": "DAĞDİBİ MAH",
      "area": "OLTU",
      "postal_code": "25400"
    },
    {
      "id": 27634,
      "district_id": 356,
      "name": "DAMARLITAŞ MAH",
      "area": "OLTU",
      "postal_code": "25400"
    },
    {
      "id": 27635,
      "district_id": 356,
      "name": "DEMİRTAŞ MAH",
      "area": "OLTU",
      "postal_code": "25400"
    },
    {
      "id": 27636,
      "district_id": 356,
      "name": "DEREBAŞI MAH",
      "area": "OLTU",
      "postal_code": "25400"
    },
    {
      "id": 27637,
      "district_id": 356,
      "name": "DOKUZDEĞİRMEN MAH",
      "area": "OLTU",
      "postal_code": "25400"
    },
    {
      "id": 27638,
      "district_id": 356,
      "name": "DURALAR MAH",
      "area": "OLTU",
      "postal_code": "25400"
    },
    {
      "id": 27639,
      "district_id": 356,
      "name": "ELMADÜZÜ MAH",
      "area": "OLTU",
      "postal_code": "25400"
    },
    {
      "id": 27640,
      "district_id": 356,
      "name": "ERDOĞMUŞ MAH",
      "area": "OLTU",
      "postal_code": "25400"
    },
    {
      "id": 27641,
      "district_id": 356,
      "name": "ESENYAMAÇ MAH",
      "area": "OLTU",
      "postal_code": "25400"
    },
    {
      "id": 27642,
      "district_id": 356,
      "name": "GÖKÇEDERE MAH",
      "area": "OLTU",
      "postal_code": "25400"
    },
    {
      "id": 27643,
      "district_id": 356,
      "name": "GÜNLÜCE MAH",
      "area": "OLTU",
      "postal_code": "25400"
    },
    {
      "id": 27644,
      "district_id": 356,
      "name": "GÜRYAPRAK MAH",
      "area": "OLTU",
      "postal_code": "25400"
    },
    {
      "id": 27645,
      "district_id": 356,
      "name": "GÜZELSU MAH",
      "area": "OLTU",
      "postal_code": "25400"
    },
    {
      "id": 27646,
      "district_id": 356,
      "name": "HALİTPAŞA MAH",
      "area": "OLTU",
      "postal_code": "25400"
    },
    {
      "id": 27647,
      "district_id": 356,
      "name": "İĞDELİ MAH",
      "area": "OLTU",
      "postal_code": "25400"
    },
    {
      "id": 27648,
      "district_id": 356,
      "name": "İNANMIŞ MAH",
      "area": "OLTU",
      "postal_code": "25400"
    },
    {
      "id": 27649,
      "district_id": 356,
      "name": "İNCİ MAH",
      "area": "OLTU",
      "postal_code": "25400"
    },
    {
      "id": 27650,
      "district_id": 356,
      "name": "İPEKÇAYIRI MAH",
      "area": "OLTU",
      "postal_code": "25400"
    },
    {
      "id": 27651,
      "district_id": 356,
      "name": "İRİAĞAÇ MAH",
      "area": "OLTU",
      "postal_code": "25400"
    },
    {
      "id": 27652,
      "district_id": 356,
      "name": "KALEBOĞAZI MAH",
      "area": "OLTU",
      "postal_code": "25400"
    },
    {
      "id": 27653,
      "district_id": 356,
      "name": "KARABEKİR MAH",
      "area": "OLTU",
      "postal_code": "25400"
    },
    {
      "id": 27654,
      "district_id": 356,
      "name": "KARATAŞ MAH",
      "area": "OLTU",
      "postal_code": "25400"
    },
    {
      "id": 27655,
      "district_id": 356,
      "name": "KAYAALTI MAH",
      "area": "OLTU",
      "postal_code": "25400"
    },
    {
      "id": 27656,
      "district_id": 356,
      "name": "KEMERKAYA MAH",
      "area": "OLTU",
      "postal_code": "25400"
    },
    {
      "id": 27657,
      "district_id": 356,
      "name": "KONUKSEVEN MAH",
      "area": "OLTU",
      "postal_code": "25400"
    },
    {
      "id": 27658,
      "district_id": 356,
      "name": "KÜÇÜKORUCUK MAH",
      "area": "OLTU",
      "postal_code": "25400"
    },
    {
      "id": 27659,
      "district_id": 356,
      "name": "NÜĞÜRCÜK MAH",
      "area": "OLTU",
      "postal_code": "25400"
    },
    {
      "id": 27660,
      "district_id": 356,
      "name": "OBAYAYLA MAH",
      "area": "OLTU",
      "postal_code": "25400"
    },
    {
      "id": 27661,
      "district_id": 356,
      "name": "ORUCUK MAH",
      "area": "OLTU",
      "postal_code": "25400"
    },
    {
      "id": 27662,
      "district_id": 356,
      "name": "ÖZDERE MAH",
      "area": "OLTU",
      "postal_code": "25400"
    },
    {
      "id": 27663,
      "district_id": 356,
      "name": "SAĞLICAK MAH",
      "area": "OLTU",
      "postal_code": "25400"
    },
    {
      "id": 27664,
      "district_id": 356,
      "name": "SARISAZ MAH",
      "area": "OLTU",
      "postal_code": "25400"
    },
    {
      "id": 27665,
      "district_id": 356,
      "name": "ŞEHİTLER MAH",
      "area": "OLTU",
      "postal_code": "25400"
    },
    {
      "id": 27666,
      "district_id": 356,
      "name": "ŞENDURAK MAH",
      "area": "OLTU",
      "postal_code": "25400"
    },
    {
      "id": 27667,
      "district_id": 356,
      "name": "SUBATUK MAH",
      "area": "OLTU",
      "postal_code": "25400"
    },
    {
      "id": 27668,
      "district_id": 356,
      "name": "SÜLEYMANLI MAH",
      "area": "OLTU",
      "postal_code": "25400"
    },
    {
      "id": 27669,
      "district_id": 356,
      "name": "SÜLÜNKAYA MAH",
      "area": "OLTU",
      "postal_code": "25400"
    },
    {
      "id": 27670,
      "district_id": 356,
      "name": "TEKELİ MAH",
      "area": "OLTU",
      "postal_code": "25400"
    },
    {
      "id": 27671,
      "district_id": 356,
      "name": "TOKLU MAH",
      "area": "OLTU",
      "postal_code": "25400"
    },
    {
      "id": 27672,
      "district_id": 356,
      "name": "TOPKAYNAK MAH",
      "area": "OLTU",
      "postal_code": "25400"
    },
    {
      "id": 27673,
      "district_id": 356,
      "name": "TOPRAKKALE MAH",
      "area": "OLTU",
      "postal_code": "25400"
    },
    {
      "id": 27674,
      "district_id": 356,
      "name": "TUTLU MAH",
      "area": "OLTU",
      "postal_code": "25400"
    },
    {
      "id": 27675,
      "district_id": 356,
      "name": "TUTMAÇ MAH",
      "area": "OLTU",
      "postal_code": "25400"
    },
    {
      "id": 27676,
      "district_id": 356,
      "name": "TUZLA MAH",
      "area": "OLTU",
      "postal_code": "25400"
    },
    {
      "id": 27677,
      "district_id": 356,
      "name": "ÜNLÜKAYA MAH",
      "area": "OLTU",
      "postal_code": "25400"
    },
    {
      "id": 27678,
      "district_id": 356,
      "name": "VİŞNELİ MAH",
      "area": "OLTU",
      "postal_code": "25400"
    },
    {
      "id": 27679,
      "district_id": 356,
      "name": "YARBAŞI MAH",
      "area": "OLTU",
      "postal_code": "25400"
    },
    {
      "id": 27680,
      "district_id": 356,
      "name": "YASİN HAŞİMOĞLU MAH",
      "area": "OLTU",
      "postal_code": "25400"
    },
    {
      "id": 27681,
      "district_id": 356,
      "name": "YAYLAÇAYIR MAH",
      "area": "OLTU",
      "postal_code": "25400"
    },
    {
      "id": 27682,
      "district_id": 356,
      "name": "YOLBOYU MAH",
      "area": "OLTU",
      "postal_code": "25400"
    },
    {
      "id": 27683,
      "district_id": 356,
      "name": "YUKARIÇAMLI MAH",
      "area": "OLTU",
      "postal_code": "25400"
    },
    {
      "id": 27684,
      "district_id": 356,
      "name": "YUKARIKUMLU MAH",
      "area": "OLTU",
      "postal_code": "25400"
    },
    {
      "id": 27685,
      "district_id": 356,
      "name": "YUSUF ZİYABEY MAH",
      "area": "OLTU",
      "postal_code": "25400"
    },
    {
      "id": 27686,
      "district_id": 357,
      "name": "AKBAYIR MAH",
      "area": "OLUR",
      "postal_code": "25650"
    },
    {
      "id": 27687,
      "district_id": 357,
      "name": "AKTEPE MAH",
      "area": "OLUR",
      "postal_code": "25650"
    },
    {
      "id": 27688,
      "district_id": 357,
      "name": "ALTUNKAYA MAH",
      "area": "OLUR",
      "postal_code": "25650"
    },
    {
      "id": 27689,
      "district_id": 357,
      "name": "AŞAĞIÇAYIRLI MAH",
      "area": "OLUR",
      "postal_code": "25650"
    },
    {
      "id": 27690,
      "district_id": 357,
      "name": "AŞAĞIKARACASU MAH",
      "area": "OLUR",
      "postal_code": "25650"
    },
    {
      "id": 27691,
      "district_id": 357,
      "name": "ATLI MAH",
      "area": "OLUR",
      "postal_code": "25650"
    },
    {
      "id": 27692,
      "district_id": 357,
      "name": "BEĞENDİK MAH",
      "area": "OLUR",
      "postal_code": "25650"
    },
    {
      "id": 27693,
      "district_id": 357,
      "name": "BEŞKAYA MAH",
      "area": "OLUR",
      "postal_code": "25650"
    },
    {
      "id": 27694,
      "district_id": 357,
      "name": "BOĞAZGÖREN MAH",
      "area": "OLUR",
      "postal_code": "25650"
    },
    {
      "id": 27695,
      "district_id": 357,
      "name": "BOZDOĞAN MAH",
      "area": "OLUR",
      "postal_code": "25650"
    },
    {
      "id": 27696,
      "district_id": 357,
      "name": "ÇATAKSU MAH",
      "area": "OLUR",
      "postal_code": "25650"
    },
    {
      "id": 27697,
      "district_id": 357,
      "name": "COŞKUNLAR MAH",
      "area": "OLUR",
      "postal_code": "25650"
    },
    {
      "id": 27698,
      "district_id": 357,
      "name": "EĞLEK MAH",
      "area": "OLUR",
      "postal_code": "25650"
    },
    {
      "id": 27699,
      "district_id": 357,
      "name": "EKİNLİK MAH",
      "area": "OLUR",
      "postal_code": "25650"
    },
    {
      "id": 27700,
      "district_id": 357,
      "name": "FİLİZLİ MAH",
      "area": "OLUR",
      "postal_code": "25650"
    },
    {
      "id": 27701,
      "district_id": 357,
      "name": "GÜNGÖRÜNDÜ MAH",
      "area": "OLUR",
      "postal_code": "25650"
    },
    {
      "id": 27702,
      "district_id": 357,
      "name": "HÜKKAM MAH",
      "area": "OLUR",
      "postal_code": "25650"
    },
    {
      "id": 27703,
      "district_id": 357,
      "name": "ILIKAYNAK MAH",
      "area": "OLUR",
      "postal_code": "25650"
    },
    {
      "id": 27704,
      "district_id": 357,
      "name": "KABAN MAH",
      "area": "OLUR",
      "postal_code": "25650"
    },
    {
      "id": 27705,
      "district_id": 357,
      "name": "KALEDİBİ MAH",
      "area": "OLUR",
      "postal_code": "25650"
    },
    {
      "id": 27706,
      "district_id": 357,
      "name": "KARAKOÇLAR MAH",
      "area": "OLUR",
      "postal_code": "25650"
    },
    {
      "id": 27707,
      "district_id": 357,
      "name": "KEÇİLİ MAH",
      "area": "OLUR",
      "postal_code": "25650"
    },
    {
      "id": 27708,
      "district_id": 357,
      "name": "KEKİKLİ MAH",
      "area": "OLUR",
      "postal_code": "25650"
    },
    {
      "id": 27709,
      "district_id": 357,
      "name": "KÖPRÜBAŞI MAH",
      "area": "OLUR",
      "postal_code": "25650"
    },
    {
      "id": 27710,
      "district_id": 357,
      "name": "MERKEZ MAH",
      "area": "OLUR",
      "postal_code": "25650"
    },
    {
      "id": 27711,
      "district_id": 357,
      "name": "MERKEZ YEŞİLBAĞLAR MAH",
      "area": "OLUR",
      "postal_code": "25650"
    },
    {
      "id": 27712,
      "district_id": 357,
      "name": "OĞUZKENT MAH",
      "area": "OLUR",
      "postal_code": "25650"
    },
    {
      "id": 27713,
      "district_id": 357,
      "name": "OLGUN MAH",
      "area": "OLUR",
      "postal_code": "25650"
    },
    {
      "id": 27714,
      "district_id": 357,
      "name": "OLURDERE MAH",
      "area": "OLUR",
      "postal_code": "25650"
    },
    {
      "id": 27715,
      "district_id": 357,
      "name": "ORMANAĞZI MAH",
      "area": "OLUR",
      "postal_code": "25650"
    },
    {
      "id": 27716,
      "district_id": 357,
      "name": "ŞALPAZARI MAH",
      "area": "OLUR",
      "postal_code": "25650"
    },
    {
      "id": 27717,
      "district_id": 357,
      "name": "SARIBAŞAK MAH",
      "area": "OLUR",
      "postal_code": "25650"
    },
    {
      "id": 27718,
      "district_id": 357,
      "name": "SOĞUKGÖZE MAH",
      "area": "OLUR",
      "postal_code": "25650"
    },
    {
      "id": 27719,
      "district_id": 357,
      "name": "SÜNGÜBAYIR MAH",
      "area": "OLUR",
      "postal_code": "25650"
    },
    {
      "id": 27720,
      "district_id": 357,
      "name": "TAŞGEÇİT MAH",
      "area": "OLUR",
      "postal_code": "25650"
    },
    {
      "id": 27721,
      "district_id": 357,
      "name": "ÜRÜNLÜ MAH",
      "area": "OLUR",
      "postal_code": "25650"
    },
    {
      "id": 27722,
      "district_id": 357,
      "name": "UZUNHARMAN MAH",
      "area": "OLUR",
      "postal_code": "25650"
    },
    {
      "id": 27723,
      "district_id": 357,
      "name": "YAYLABAŞI MAH",
      "area": "OLUR",
      "postal_code": "25650"
    },
    {
      "id": 27724,
      "district_id": 357,
      "name": "YEŞİLBAĞLAR MAH",
      "area": "OLUR",
      "postal_code": "25650"
    },
    {
      "id": 27725,
      "district_id": 357,
      "name": "YILDIZKAYA MAH",
      "area": "OLUR",
      "postal_code": "25650"
    },
    {
      "id": 27726,
      "district_id": 357,
      "name": "YOLGÖZLER MAH",
      "area": "OLUR",
      "postal_code": "25650"
    },
    {
      "id": 27727,
      "district_id": 357,
      "name": "YUKARIÇAYIRLI MAH",
      "area": "OLUR",
      "postal_code": "25650"
    },
    {
      "id": 27728,
      "district_id": 357,
      "name": "YUKARIKARACASU MAH",
      "area": "OLUR",
      "postal_code": "25650"
    },
    {
      "id": 27729,
      "district_id": 358,
      "name": "ABDURRAHMAN GAZİ MAH",
      "area": "PALANDÖKEN",
      "postal_code": "25080"
    },
    {
      "id": 27730,
      "district_id": 358,
      "name": "ADNAN MENDERES MAH",
      "area": "PALANDÖKEN",
      "postal_code": "25080"
    },
    {
      "id": 27731,
      "district_id": 358,
      "name": "ALİ BEZİRGAN MAH",
      "area": "PALANDÖKEN",
      "postal_code": "25080"
    },
    {
      "id": 27732,
      "district_id": 358,
      "name": "AZİZİYE MAH",
      "area": "PALANDÖKEN",
      "postal_code": "25080"
    },
    {
      "id": 27733,
      "district_id": 358,
      "name": "BÖREKLİ MAH",
      "area": "YILDIZKENT",
      "postal_code": "25070"
    },
    {
      "id": 27734,
      "district_id": 358,
      "name": "ÇEPERLİ MAH",
      "area": "YILDIZKENT",
      "postal_code": "25070"
    },
    {
      "id": 27735,
      "district_id": 358,
      "name": "DEREBOĞAZI MAH",
      "area": "PALANDÖKEN",
      "postal_code": "25080"
    },
    {
      "id": 27736,
      "district_id": 358,
      "name": "GÜLLÜ MAH",
      "area": "YILDIZKENT",
      "postal_code": "25070"
    },
    {
      "id": 27737,
      "district_id": 358,
      "name": "GÜZELYURT MAH",
      "area": "PALANDÖKEN",
      "postal_code": "25080"
    },
    {
      "id": 27738,
      "district_id": 358,
      "name": "HANCIĞAZ MAH",
      "area": "YILDIZKENT",
      "postal_code": "25070"
    },
    {
      "id": 27739,
      "district_id": 358,
      "name": "HÜSEYİN AVNİ ULAŞ MAH",
      "area": "PALANDÖKEN",
      "postal_code": "25080"
    },
    {
      "id": 27740,
      "district_id": 358,
      "name": "KONAKLI MAH",
      "area": "YILDIZKENT",
      "postal_code": "25070"
    },
    {
      "id": 27741,
      "district_id": 358,
      "name": "KÜMBET MAH",
      "area": "YILDIZKENT",
      "postal_code": "25070"
    },
    {
      "id": 27742,
      "district_id": 358,
      "name": "MÜFTÜ SOLAKZADE MAH",
      "area": "YILDIZKENT",
      "postal_code": "25070"
    },
    {
      "id": 27743,
      "district_id": 358,
      "name": "NENE HATUN MAH",
      "area": "PALANDÖKEN",
      "postal_code": "25080"
    },
    {
      "id": 27744,
      "district_id": 358,
      "name": "ŞEHİTLER MAH",
      "area": "YILDIZKENT",
      "postal_code": "25070"
    },
    {
      "id": 27745,
      "district_id": 358,
      "name": "SIĞIRLI MAH",
      "area": "YILDIZKENT",
      "postal_code": "25070"
    },
    {
      "id": 27746,
      "district_id": 358,
      "name": "TAŞLIGÜNEY MAH",
      "area": "YILDIZKENT",
      "postal_code": "25070"
    },
    {
      "id": 27747,
      "district_id": 358,
      "name": "TEKKEDERESİ MAH",
      "area": "PALANDÖKEN",
      "postal_code": "25080"
    },
    {
      "id": 27748,
      "district_id": 358,
      "name": "TEPEKÖY MAH",
      "area": "YILDIZKENT",
      "postal_code": "25070"
    },
    {
      "id": 27749,
      "district_id": 358,
      "name": "TOPARLAK MAH",
      "area": "YILDIZKENT",
      "postal_code": "25070"
    },
    {
      "id": 27750,
      "district_id": 358,
      "name": "UZUN AHMET MAH",
      "area": "PALANDÖKEN",
      "postal_code": "25080"
    },
    {
      "id": 27751,
      "district_id": 358,
      "name": "YAĞMURCUK MAH",
      "area": "YILDIZKENT",
      "postal_code": "25070"
    },
    {
      "id": 27752,
      "district_id": 358,
      "name": "YIKILGAN MAH",
      "area": "PALANDÖKEN",
      "postal_code": "25080"
    },
    {
      "id": 27753,
      "district_id": 358,
      "name": "YUKARIYENİCE MAH",
      "area": "PALANDÖKEN",
      "postal_code": "25080"
    },
    {
      "id": 27754,
      "district_id": 358,
      "name": "YUNUSEMRE MAH",
      "area": "PALANDÖKEN",
      "postal_code": "25080"
    },
    {
      "id": 27755,
      "district_id": 359,
      "name": "ACI MAH",
      "area": "PASİNLER",
      "postal_code": "25300"
    },
    {
      "id": 27756,
      "district_id": 359,
      "name": "AĞAÇMİNARE MAH",
      "area": "PASİNLER",
      "postal_code": "25300"
    },
    {
      "id": 27757,
      "district_id": 359,
      "name": "AĞCALAR MAH",
      "area": "PASİNLER",
      "postal_code": "25300"
    },
    {
      "id": 27758,
      "district_id": 359,
      "name": "ALTINBAŞAK MAH",
      "area": "PASİNLER",
      "postal_code": "25300"
    },
    {
      "id": 27759,
      "district_id": 359,
      "name": "ALVAR MAH",
      "area": "PASİNLER",
      "postal_code": "25300"
    },
    {
      "id": 27760,
      "district_id": 359,
      "name": "ARDIÇLI MAH",
      "area": "PASİNLER",
      "postal_code": "25300"
    },
    {
      "id": 27761,
      "district_id": 359,
      "name": "AŞITLAR MAH",
      "area": "PASİNLER",
      "postal_code": "25300"
    },
    {
      "id": 27762,
      "district_id": 359,
      "name": "BAHÇELİEVLER MAH",
      "area": "PASİNLER",
      "postal_code": "25300"
    },
    {
      "id": 27763,
      "district_id": 359,
      "name": "BALDIZI MAH",
      "area": "PASİNLER",
      "postal_code": "25300"
    },
    {
      "id": 27764,
      "district_id": 359,
      "name": "BAŞÖREN MAH",
      "area": "PASİNLER",
      "postal_code": "25300"
    },
    {
      "id": 27765,
      "district_id": 359,
      "name": "BULKASIM MAH",
      "area": "PASİNLER",
      "postal_code": "25300"
    },
    {
      "id": 27766,
      "district_id": 359,
      "name": "BÜYÜKDERE MAH",
      "area": "PASİNLER",
      "postal_code": "25300"
    },
    {
      "id": 27767,
      "district_id": 359,
      "name": "BÜYÜKTÜY MAH",
      "area": "PASİNLER",
      "postal_code": "25300"
    },
    {
      "id": 27768,
      "district_id": 359,
      "name": "ÇAKIRTAŞ MAH",
      "area": "PASİNLER",
      "postal_code": "25300"
    },
    {
      "id": 27769,
      "district_id": 359,
      "name": "ÇALIYAZI MAH",
      "area": "PASİNLER",
      "postal_code": "25300"
    },
    {
      "id": 27770,
      "district_id": 359,
      "name": "CAMİKEBİR MAH",
      "area": "PASİNLER",
      "postal_code": "25300"
    },
    {
      "id": 27771,
      "district_id": 359,
      "name": "ÇAMLICA MAH",
      "area": "PASİNLER",
      "postal_code": "25300"
    },
    {
      "id": 27772,
      "district_id": 359,
      "name": "ÇİÇEKLİ MAH",
      "area": "PASİNLER",
      "postal_code": "25300"
    },
    {
      "id": 27773,
      "district_id": 359,
      "name": "ÇÖĞENDER MAH",
      "area": "PASİNLER",
      "postal_code": "25300"
    },
    {
      "id": 27774,
      "district_id": 359,
      "name": "DEMİRDÖVEN MAH",
      "area": "PASİNLER",
      "postal_code": "25300"
    },
    {
      "id": 27775,
      "district_id": 359,
      "name": "EMİRŞEYH MAH",
      "area": "PASİNLER",
      "postal_code": "25300"
    },
    {
      "id": 27776,
      "district_id": 359,
      "name": "EPSEMCE MAH",
      "area": "PASİNLER",
      "postal_code": "25300"
    },
    {
      "id": 27777,
      "district_id": 359,
      "name": "ERZURUMKAPI MAH",
      "area": "PASİNLER",
      "postal_code": "25300"
    },
    {
      "id": 27778,
      "district_id": 359,
      "name": "ESENDERE MAH",
      "area": "PASİNLER",
      "postal_code": "25300"
    },
    {
      "id": 27779,
      "district_id": 359,
      "name": "GERDEKKAYA MAH",
      "area": "PASİNLER",
      "postal_code": "25300"
    },
    {
      "id": 27780,
      "district_id": 359,
      "name": "GÖLCİĞEZ MAH",
      "area": "PASİNLER",
      "postal_code": "25300"
    },
    {
      "id": 27781,
      "district_id": 359,
      "name": "HANAHMET MAH",
      "area": "PASİNLER",
      "postal_code": "25300"
    },
    {
      "id": 27782,
      "district_id": 359,
      "name": "HASANDEDE MAH",
      "area": "PASİNLER",
      "postal_code": "25300"
    },
    {
      "id": 27783,
      "district_id": 359,
      "name": "KAPLICALAR MAH",
      "area": "PASİNLER",
      "postal_code": "25300"
    },
    {
      "id": 27784,
      "district_id": 359,
      "name": "KARAKALE MAH",
      "area": "PASİNLER",
      "postal_code": "25300"
    },
    {
      "id": 27785,
      "district_id": 359,
      "name": "KARAVELET MAH",
      "area": "PASİNLER",
      "postal_code": "25300"
    },
    {
      "id": 27786,
      "district_id": 359,
      "name": "KASIMPAŞA MAH",
      "area": "PASİNLER",
      "postal_code": "25300"
    },
    {
      "id": 27787,
      "district_id": 359,
      "name": "KAVUŞTURAN MAH",
      "area": "PASİNLER",
      "postal_code": "25300"
    },
    {
      "id": 27788,
      "district_id": 359,
      "name": "KETHUDA MAH",
      "area": "PASİNLER",
      "postal_code": "25300"
    },
    {
      "id": 27789,
      "district_id": 359,
      "name": "KEVENLİK MAH",
      "area": "PASİNLER",
      "postal_code": "25300"
    },
    {
      "id": 27790,
      "district_id": 359,
      "name": "KIZILÖREN MAH",
      "area": "PASİNLER",
      "postal_code": "25300"
    },
    {
      "id": 27791,
      "district_id": 359,
      "name": "KOTANDÜZÜ MAH",
      "area": "PASİNLER",
      "postal_code": "25300"
    },
    {
      "id": 27792,
      "district_id": 359,
      "name": "KÜÇÜKTÜY MAH",
      "area": "PASİNLER",
      "postal_code": "25300"
    },
    {
      "id": 27793,
      "district_id": 359,
      "name": "KURBANÇAYIR MAH",
      "area": "PASİNLER",
      "postal_code": "25300"
    },
    {
      "id": 27794,
      "district_id": 359,
      "name": "KURTULUŞ MAH",
      "area": "PASİNLER",
      "postal_code": "25300"
    },
    {
      "id": 27795,
      "district_id": 359,
      "name": "OTLUKKAPI MAH",
      "area": "PASİNLER",
      "postal_code": "25300"
    },
    {
      "id": 27796,
      "district_id": 359,
      "name": "OVAKÖY MAH",
      "area": "PASİNLER",
      "postal_code": "25300"
    },
    {
      "id": 27797,
      "district_id": 359,
      "name": "ÖVENLER MAH",
      "area": "PASİNLER",
      "postal_code": "25300"
    },
    {
      "id": 27798,
      "district_id": 359,
      "name": "PAŞABEY MAH",
      "area": "PASİNLER",
      "postal_code": "25300"
    },
    {
      "id": 27799,
      "district_id": 359,
      "name": "PELİTLİ MAH",
      "area": "PASİNLER",
      "postal_code": "25300"
    },
    {
      "id": 27800,
      "district_id": 359,
      "name": "PORSUK MAH",
      "area": "PASİNLER",
      "postal_code": "25300"
    },
    {
      "id": 27801,
      "district_id": 359,
      "name": "PUSUDERE MAH",
      "area": "PASİNLER",
      "postal_code": "25300"
    },
    {
      "id": 27802,
      "district_id": 359,
      "name": "REŞADİYE MAH",
      "area": "PASİNLER",
      "postal_code": "25300"
    },
    {
      "id": 27803,
      "district_id": 359,
      "name": "SAKSI MAH",
      "area": "PASİNLER",
      "postal_code": "25300"
    },
    {
      "id": 27804,
      "district_id": 359,
      "name": "ŞEHİT BURAK KARAKOÇ MAH",
      "area": "PASİNLER",
      "postal_code": "25300"
    },
    {
      "id": 27805,
      "district_id": 359,
      "name": "SERÇEBOĞAZI MAH",
      "area": "PASİNLER",
      "postal_code": "25300"
    },
    {
      "id": 27806,
      "district_id": 359,
      "name": "SİVAS MAH",
      "area": "PASİNLER",
      "postal_code": "25300"
    },
    {
      "id": 27807,
      "district_id": 359,
      "name": "SUNAK MAH",
      "area": "PASİNLER",
      "postal_code": "25300"
    },
    {
      "id": 27808,
      "district_id": 359,
      "name": "TAŞAĞIL MAH",
      "area": "PASİNLER",
      "postal_code": "25300"
    },
    {
      "id": 27809,
      "district_id": 359,
      "name": "TAŞKAYNAK MAH",
      "area": "PASİNLER",
      "postal_code": "25300"
    },
    {
      "id": 27810,
      "district_id": 359,
      "name": "TAŞLIGÜNEY MAH",
      "area": "PASİNLER",
      "postal_code": "25300"
    },
    {
      "id": 27811,
      "district_id": 359,
      "name": "TAŞLIYURT MAH",
      "area": "PASİNLER",
      "postal_code": "25300"
    },
    {
      "id": 27812,
      "district_id": 359,
      "name": "TEPECİK MAH",
      "area": "PASİNLER",
      "postal_code": "25300"
    },
    {
      "id": 27813,
      "district_id": 359,
      "name": "TİMAR MAH",
      "area": "PASİNLER",
      "postal_code": "25300"
    },
    {
      "id": 27814,
      "district_id": 359,
      "name": "ÜĞÜMÜ MAH",
      "area": "PASİNLER",
      "postal_code": "25300"
    },
    {
      "id": 27815,
      "district_id": 359,
      "name": "UZUNARK MAH",
      "area": "PASİNLER",
      "postal_code": "25300"
    },
    {
      "id": 27816,
      "district_id": 359,
      "name": "YAMAÇ MAH",
      "area": "PASİNLER",
      "postal_code": "25300"
    },
    {
      "id": 27817,
      "district_id": 359,
      "name": "YASTIKTEPE MAH",
      "area": "PASİNLER",
      "postal_code": "25300"
    },
    {
      "id": 27818,
      "district_id": 359,
      "name": "YAVUZLU MAH",
      "area": "PASİNLER",
      "postal_code": "25300"
    },
    {
      "id": 27819,
      "district_id": 359,
      "name": "YAYLA MAH",
      "area": "PASİNLER",
      "postal_code": "25300"
    },
    {
      "id": 27820,
      "district_id": 359,
      "name": "YAYLADAĞ MAH",
      "area": "PASİNLER",
      "postal_code": "25300"
    },
    {
      "id": 27821,
      "district_id": 359,
      "name": "YENİ MAH",
      "area": "PASİNLER",
      "postal_code": "25300"
    },
    {
      "id": 27822,
      "district_id": 359,
      "name": "YENİKÖY MAH",
      "area": "PASİNLER",
      "postal_code": "25300"
    },
    {
      "id": 27823,
      "district_id": 359,
      "name": "YİĞİTPINARI MAH",
      "area": "PASİNLER",
      "postal_code": "25300"
    },
    {
      "id": 27824,
      "district_id": 359,
      "name": "YİĞİTTAŞI MAH",
      "area": "PASİNLER",
      "postal_code": "25300"
    },
    {
      "id": 27825,
      "district_id": 359,
      "name": "YUKARIÇAKMAK MAH",
      "area": "PASİNLER",
      "postal_code": "25300"
    },
    {
      "id": 27826,
      "district_id": 359,
      "name": "YUKARIDANİŞMENT MAH",
      "area": "PASİNLER",
      "postal_code": "25300"
    },
    {
      "id": 27827,
      "district_id": 360,
      "name": "21 HAZİRAN MAH",
      "area": "PAZARYOLU",
      "postal_code": "25930"
    },
    {
      "id": 27828,
      "district_id": 360,
      "name": "AKBULUT MAH",
      "area": "PAZARYOLU",
      "postal_code": "25930"
    },
    {
      "id": 27829,
      "district_id": 360,
      "name": "ALIÇLI MAH",
      "area": "PAZARYOLU",
      "postal_code": "25930"
    },
    {
      "id": 27830,
      "district_id": 360,
      "name": "AMBARALAN MAH",
      "area": "PAZARYOLU",
      "postal_code": "25930"
    },
    {
      "id": 27831,
      "district_id": 360,
      "name": "AYÇUKURU MAH",
      "area": "PAZARYOLU",
      "postal_code": "25930"
    },
    {
      "id": 27832,
      "district_id": 360,
      "name": "BAYINDIR MAH",
      "area": "PAZARYOLU",
      "postal_code": "25930"
    },
    {
      "id": 27833,
      "district_id": 360,
      "name": "BURÇAKLI MAH",
      "area": "PAZARYOLU",
      "postal_code": "25930"
    },
    {
      "id": 27834,
      "district_id": 360,
      "name": "BÜYÜKDERE MAH",
      "area": "PAZARYOLU",
      "postal_code": "25930"
    },
    {
      "id": 27835,
      "district_id": 360,
      "name": "ÇATAKBAHÇE MAH",
      "area": "PAZARYOLU",
      "postal_code": "25930"
    },
    {
      "id": 27836,
      "district_id": 360,
      "name": "ÇAYDERE MAH",
      "area": "PAZARYOLU",
      "postal_code": "25930"
    },
    {
      "id": 27837,
      "district_id": 360,
      "name": "CENNETPINARI MAH",
      "area": "PAZARYOLU",
      "postal_code": "25930"
    },
    {
      "id": 27838,
      "district_id": 360,
      "name": "CEVİZLİDERE MAH",
      "area": "PAZARYOLU",
      "postal_code": "25930"
    },
    {
      "id": 27839,
      "district_id": 360,
      "name": "ÇİFTEPINAR MAH",
      "area": "PAZARYOLU",
      "postal_code": "25930"
    },
    {
      "id": 27840,
      "district_id": 360,
      "name": "DELİKTAŞ MAH",
      "area": "PAZARYOLU",
      "postal_code": "25930"
    },
    {
      "id": 27841,
      "district_id": 360,
      "name": "DEMİRGÖZE MAH",
      "area": "PAZARYOLU",
      "postal_code": "25930"
    },
    {
      "id": 27842,
      "district_id": 360,
      "name": "DİKMETAŞ MAH",
      "area": "PAZARYOLU",
      "postal_code": "25930"
    },
    {
      "id": 27843,
      "district_id": 360,
      "name": "ESENYURT MAH",
      "area": "PAZARYOLU",
      "postal_code": "25930"
    },
    {
      "id": 27844,
      "district_id": 360,
      "name": "GÖLYANI MAH",
      "area": "PAZARYOLU",
      "postal_code": "25930"
    },
    {
      "id": 27845,
      "district_id": 360,
      "name": "GÖZTEPE MAH",
      "area": "PAZARYOLU",
      "postal_code": "25930"
    },
    {
      "id": 27846,
      "district_id": 360,
      "name": "GÜLÇİMEN MAH",
      "area": "PAZARYOLU",
      "postal_code": "25930"
    },
    {
      "id": 27847,
      "district_id": 360,
      "name": "GÜNEYSU MAH",
      "area": "PAZARYOLU",
      "postal_code": "25930"
    },
    {
      "id": 27848,
      "district_id": 360,
      "name": "HACILAR MAH",
      "area": "PAZARYOLU",
      "postal_code": "25930"
    },
    {
      "id": 27849,
      "district_id": 360,
      "name": "KARAKOÇ MAH",
      "area": "PAZARYOLU",
      "postal_code": "25930"
    },
    {
      "id": 27850,
      "district_id": 360,
      "name": "KARATAŞ MAH",
      "area": "PAZARYOLU",
      "postal_code": "25930"
    },
    {
      "id": 27851,
      "district_id": 360,
      "name": "KILIÇÇI MAH",
      "area": "PAZARYOLU",
      "postal_code": "25930"
    },
    {
      "id": 27852,
      "district_id": 360,
      "name": "KONAKYERİ MAH",
      "area": "PAZARYOLU",
      "postal_code": "25930"
    },
    {
      "id": 27853,
      "district_id": 360,
      "name": "KORKUTKÖY MAH",
      "area": "PAZARYOLU",
      "postal_code": "25930"
    },
    {
      "id": 27854,
      "district_id": 360,
      "name": "KÖŞEYOLU MAH",
      "area": "PAZARYOLU",
      "postal_code": "25930"
    },
    {
      "id": 27855,
      "district_id": 360,
      "name": "KOZLU MAH",
      "area": "PAZARYOLU",
      "postal_code": "25930"
    },
    {
      "id": 27856,
      "district_id": 360,
      "name": "KUMAŞKAYA MAH",
      "area": "PAZARYOLU",
      "postal_code": "25930"
    },
    {
      "id": 27857,
      "district_id": 360,
      "name": "KÜMBETTEPE MAH",
      "area": "PAZARYOLU",
      "postal_code": "25930"
    },
    {
      "id": 27858,
      "district_id": 360,
      "name": "KUYMAKLI MAH",
      "area": "PAZARYOLU",
      "postal_code": "25930"
    },
    {
      "id": 27859,
      "district_id": 360,
      "name": "LALELİ MAH",
      "area": "PAZARYOLU",
      "postal_code": "25930"
    },
    {
      "id": 27860,
      "district_id": 360,
      "name": "MERKEZ MAH",
      "area": "PAZARYOLU",
      "postal_code": "25930"
    },
    {
      "id": 27861,
      "district_id": 360,
      "name": "MEŞEBAŞI MAH",
      "area": "PAZARYOLU",
      "postal_code": "25930"
    },
    {
      "id": 27862,
      "district_id": 360,
      "name": "PAMUKLUDAĞ MAH",
      "area": "PAZARYOLU",
      "postal_code": "25930"
    },
    {
      "id": 27863,
      "district_id": 360,
      "name": "SADAKA MAH",
      "area": "PAZARYOLU",
      "postal_code": "25930"
    },
    {
      "id": 27864,
      "district_id": 360,
      "name": "ŞEHİTLİK MAH",
      "area": "PAZARYOLU",
      "postal_code": "25930"
    },
    {
      "id": 27865,
      "district_id": 360,
      "name": "SERGENKAYA MAH",
      "area": "PAZARYOLU",
      "postal_code": "25930"
    },
    {
      "id": 27866,
      "district_id": 360,
      "name": "SÜLEYMANBAĞI MAH",
      "area": "PAZARYOLU",
      "postal_code": "25930"
    },
    {
      "id": 27867,
      "district_id": 360,
      "name": "YAYLALI MAH",
      "area": "PAZARYOLU",
      "postal_code": "25930"
    },
    {
      "id": 27868,
      "district_id": 360,
      "name": "YAYLAÖZÜ MAH",
      "area": "PAZARYOLU",
      "postal_code": "25930"
    },
    {
      "id": 27869,
      "district_id": 360,
      "name": "YENİ MAH",
      "area": "PAZARYOLU",
      "postal_code": "25930"
    },
    {
      "id": 27870,
      "district_id": 360,
      "name": "YİĞİTBAŞI MAH",
      "area": "PAZARYOLU",
      "postal_code": "25930"
    },
    {
      "id": 27871,
      "district_id": 361,
      "name": "AKŞAR MAH",
      "area": "ŞENKAYA",
      "postal_code": "25360"
    },
    {
      "id": 27872,
      "district_id": 361,
      "name": "AKTAŞ MAH",
      "area": "ŞENKAYA",
      "postal_code": "25360"
    },
    {
      "id": 27873,
      "district_id": 361,
      "name": "ALICIK MAH",
      "area": "ŞENKAYA",
      "postal_code": "25360"
    },
    {
      "id": 27874,
      "district_id": 361,
      "name": "AŞAĞI MAH",
      "area": "ŞENKAYA",
      "postal_code": "25360"
    },
    {
      "id": 27875,
      "district_id": 361,
      "name": "AŞAĞIBAKRAÇLI MAH",
      "area": "ŞENKAYA",
      "postal_code": "25360"
    },
    {
      "id": 27876,
      "district_id": 361,
      "name": "ATYOLU MAH",
      "area": "ŞENKAYA",
      "postal_code": "25360"
    },
    {
      "id": 27877,
      "district_id": 361,
      "name": "AYDOĞDU MAH",
      "area": "ŞENKAYA",
      "postal_code": "25360"
    },
    {
      "id": 27878,
      "district_id": 361,
      "name": "BALKAYA MAH",
      "area": "ŞENKAYA",
      "postal_code": "25360"
    },
    {
      "id": 27879,
      "district_id": 361,
      "name": "BEREKETLİ MAH",
      "area": "ŞENKAYA",
      "postal_code": "25360"
    },
    {
      "id": 27880,
      "district_id": 361,
      "name": "BEŞPINARLAR MAH",
      "area": "ŞENKAYA",
      "postal_code": "25360"
    },
    {
      "id": 27881,
      "district_id": 361,
      "name": "BEYKAYNAK MAH",
      "area": "ŞENKAYA",
      "postal_code": "25360"
    },
    {
      "id": 27882,
      "district_id": 361,
      "name": "ÇAMLIALAN MAH",
      "area": "ŞENKAYA",
      "postal_code": "25360"
    },
    {
      "id": 27883,
      "district_id": 361,
      "name": "ÇATALELMA MAH",
      "area": "ŞENKAYA",
      "postal_code": "25360"
    },
    {
      "id": 27884,
      "district_id": 361,
      "name": "DEĞİRMENLİDERE MAH",
      "area": "ŞENKAYA",
      "postal_code": "25360"
    },
    {
      "id": 27885,
      "district_id": 361,
      "name": "DELİKTAŞ MAH",
      "area": "ŞENKAYA",
      "postal_code": "25360"
    },
    {
      "id": 27886,
      "district_id": 361,
      "name": "DOĞANKÖY MAH",
      "area": "ŞENKAYA",
      "postal_code": "25360"
    },
    {
      "id": 27887,
      "district_id": 361,
      "name": "DOKUZELMA MAH",
      "area": "ŞENKAYA",
      "postal_code": "25360"
    },
    {
      "id": 27888,
      "district_id": 361,
      "name": "DOLUNAY MAH",
      "area": "ŞENKAYA",
      "postal_code": "25360"
    },
    {
      "id": 27889,
      "district_id": 361,
      "name": "DÖRTYOL MAH",
      "area": "ŞENKAYA",
      "postal_code": "25360"
    },
    {
      "id": 27890,
      "district_id": 361,
      "name": "ESENCE MAH",
      "area": "ŞENKAYA",
      "postal_code": "25360"
    },
    {
      "id": 27891,
      "district_id": 361,
      "name": "ESENYURT MAH",
      "area": "ŞENKAYA",
      "postal_code": "25360"
    },
    {
      "id": 27892,
      "district_id": 361,
      "name": "EVBAKAN MAH",
      "area": "ŞENKAYA",
      "postal_code": "25360"
    },
    {
      "id": 27893,
      "district_id": 361,
      "name": "GAZİLER MAH",
      "area": "ŞENKAYA",
      "postal_code": "25360"
    },
    {
      "id": 27894,
      "district_id": 361,
      "name": "GEZENEK MAH",
      "area": "ŞENKAYA",
      "postal_code": "25360"
    },
    {
      "id": 27895,
      "district_id": 361,
      "name": "GÖLLET MAH",
      "area": "ŞENKAYA",
      "postal_code": "25360"
    },
    {
      "id": 27896,
      "district_id": 361,
      "name": "GÖREŞKEN MAH",
      "area": "ŞENKAYA",
      "postal_code": "25360"
    },
    {
      "id": 27897,
      "district_id": 361,
      "name": "GÖZALAN MAH",
      "area": "ŞENKAYA",
      "postal_code": "25360"
    },
    {
      "id": 27898,
      "district_id": 361,
      "name": "GÖZEBAŞI MAH",
      "area": "ŞENKAYA",
      "postal_code": "25360"
    },
    {
      "id": 27899,
      "district_id": 361,
      "name": "GÜLVEREN MAH",
      "area": "ŞENKAYA",
      "postal_code": "25360"
    },
    {
      "id": 27900,
      "district_id": 361,
      "name": "HOŞKÖY MAH",
      "area": "ŞENKAYA",
      "postal_code": "25360"
    },
    {
      "id": 27901,
      "district_id": 361,
      "name": "İÇMESU MAH",
      "area": "ŞENKAYA",
      "postal_code": "25360"
    },
    {
      "id": 27902,
      "district_id": 361,
      "name": "İĞDELİ MAH",
      "area": "ŞENKAYA",
      "postal_code": "25360"
    },
    {
      "id": 27903,
      "district_id": 361,
      "name": "İKİZPINAR MAH",
      "area": "ŞENKAYA",
      "postal_code": "25360"
    },
    {
      "id": 27904,
      "district_id": 361,
      "name": "İNCEÇAY MAH",
      "area": "ŞENKAYA",
      "postal_code": "25360"
    },
    {
      "id": 27905,
      "district_id": 361,
      "name": "KAYALISU MAH",
      "area": "ŞENKAYA",
      "postal_code": "25360"
    },
    {
      "id": 27906,
      "district_id": 361,
      "name": "KAYNAK MAH",
      "area": "ŞENKAYA",
      "postal_code": "25360"
    },
    {
      "id": 27907,
      "district_id": 361,
      "name": "KİREÇLİ MAH",
      "area": "ŞENKAYA",
      "postal_code": "25360"
    },
    {
      "id": 27908,
      "district_id": 361,
      "name": "KÖROĞLU MAH",
      "area": "ŞENKAYA",
      "postal_code": "25360"
    },
    {
      "id": 27909,
      "district_id": 361,
      "name": "KÖŞKKÖY MAH",
      "area": "ŞENKAYA",
      "postal_code": "25360"
    },
    {
      "id": 27910,
      "district_id": 361,
      "name": "KÜRKÇÜ MAH",
      "area": "ŞENKAYA",
      "postal_code": "25360"
    },
    {
      "id": 27911,
      "district_id": 361,
      "name": "NİŞANTAŞI MAH",
      "area": "ŞENKAYA",
      "postal_code": "25360"
    },
    {
      "id": 27912,
      "district_id": 361,
      "name": "ORMANLI MAH",
      "area": "ŞENKAYA",
      "postal_code": "25360"
    },
    {
      "id": 27913,
      "district_id": 361,
      "name": "OYUKTAŞ MAH",
      "area": "ŞENKAYA",
      "postal_code": "25360"
    },
    {
      "id": 27914,
      "district_id": 361,
      "name": "ÖZYURT MAH",
      "area": "ŞENKAYA",
      "postal_code": "25360"
    },
    {
      "id": 27915,
      "district_id": 361,
      "name": "PAŞALI MAH",
      "area": "ŞENKAYA",
      "postal_code": "25360"
    },
    {
      "id": 27916,
      "district_id": 361,
      "name": "PENEK MAH",
      "area": "ŞENKAYA",
      "postal_code": "25360"
    },
    {
      "id": 27917,
      "district_id": 361,
      "name": "SARIKAYALAR MAH",
      "area": "ŞENKAYA",
      "postal_code": "25360"
    },
    {
      "id": 27918,
      "district_id": 361,
      "name": "SARIYAR MAH",
      "area": "ŞENKAYA",
      "postal_code": "25360"
    },
    {
      "id": 27919,
      "district_id": 361,
      "name": "ŞENPINAR MAH",
      "area": "ŞENKAYA",
      "postal_code": "25360"
    },
    {
      "id": 27920,
      "district_id": 361,
      "name": "SINDIRAN MAH",
      "area": "ŞENKAYA",
      "postal_code": "25360"
    },
    {
      "id": 27921,
      "district_id": 361,
      "name": "SÖĞÜTLER MAH",
      "area": "ŞENKAYA",
      "postal_code": "25360"
    },
    {
      "id": 27922,
      "district_id": 361,
      "name": "SUSUZ MAH",
      "area": "ŞENKAYA",
      "postal_code": "25360"
    },
    {
      "id": 27923,
      "district_id": 361,
      "name": "TAHTKÖY MAH",
      "area": "ŞENKAYA",
      "postal_code": "25360"
    },
    {
      "id": 27924,
      "district_id": 361,
      "name": "TAZEKÖY MAH",
      "area": "ŞENKAYA",
      "postal_code": "25360"
    },
    {
      "id": 27925,
      "district_id": 361,
      "name": "TEKETAŞ MAH",
      "area": "ŞENKAYA",
      "postal_code": "25360"
    },
    {
      "id": 27926,
      "district_id": 361,
      "name": "TİMURKIŞLA MAH",
      "area": "ŞENKAYA",
      "postal_code": "25360"
    },
    {
      "id": 27927,
      "district_id": 361,
      "name": "TURNALI MAH",
      "area": "ŞENKAYA",
      "postal_code": "25360"
    },
    {
      "id": 27928,
      "district_id": 361,
      "name": "TÜTENOCAK MAH",
      "area": "ŞENKAYA",
      "postal_code": "25360"
    },
    {
      "id": 27929,
      "district_id": 361,
      "name": "UĞURLU MAH",
      "area": "ŞENKAYA",
      "postal_code": "25360"
    },
    {
      "id": 27930,
      "district_id": 361,
      "name": "YANIKKAVAL MAH",
      "area": "ŞENKAYA",
      "postal_code": "25360"
    },
    {
      "id": 27931,
      "district_id": 361,
      "name": "YAYMEŞE MAH",
      "area": "ŞENKAYA",
      "postal_code": "25360"
    },
    {
      "id": 27932,
      "district_id": 361,
      "name": "YAZILI MAH",
      "area": "ŞENKAYA",
      "postal_code": "25360"
    },
    {
      "id": 27933,
      "district_id": 361,
      "name": "YELKIRAN MAH",
      "area": "ŞENKAYA",
      "postal_code": "25360"
    },
    {
      "id": 27934,
      "district_id": 361,
      "name": "YEŞİLDEMET MAH",
      "area": "ŞENKAYA",
      "postal_code": "25360"
    },
    {
      "id": 27935,
      "district_id": 361,
      "name": "YEŞİLKAYA MAH",
      "area": "ŞENKAYA",
      "postal_code": "25360"
    },
    {
      "id": 27936,
      "district_id": 361,
      "name": "YOĞURTÇULAR MAH",
      "area": "ŞENKAYA",
      "postal_code": "25360"
    },
    {
      "id": 27937,
      "district_id": 361,
      "name": "YUKARI MAH",
      "area": "ŞENKAYA",
      "postal_code": "25360"
    },
    {
      "id": 27938,
      "district_id": 361,
      "name": "YUKARIBAKRAÇLI MAH",
      "area": "ŞENKAYA",
      "postal_code": "25360"
    },
    {
      "id": 27939,
      "district_id": 361,
      "name": "YÜNÖREN MAH",
      "area": "ŞENKAYA",
      "postal_code": "25360"
    },
    {
      "id": 27940,
      "district_id": 361,
      "name": "YÜREKLİ MAH",
      "area": "ŞENKAYA",
      "postal_code": "25360"
    },
    {
      "id": 27941,
      "district_id": 361,
      "name": "ZÜMRÜT MAH",
      "area": "ŞENKAYA",
      "postal_code": "25360"
    },
    {
      "id": 27942,
      "district_id": 362,
      "name": "AĞCAKOCA MAH",
      "area": "TEKMAN",
      "postal_code": "25560"
    },
    {
      "id": 27943,
      "district_id": 362,
      "name": "AKDAĞ MAH",
      "area": "TEKMAN",
      "postal_code": "25560"
    },
    {
      "id": 27944,
      "district_id": 362,
      "name": "AKDAMAR MAH",
      "area": "TEKMAN",
      "postal_code": "25560"
    },
    {
      "id": 27945,
      "district_id": 362,
      "name": "AKPINAR MAH",
      "area": "TEKMAN",
      "postal_code": "25560"
    },
    {
      "id": 27946,
      "district_id": 362,
      "name": "ALABAYIR MAH",
      "area": "TEKMAN",
      "postal_code": "25560"
    },
    {
      "id": 27947,
      "district_id": 362,
      "name": "AŞAĞIHANBEYİ MAH",
      "area": "TEKMAN",
      "postal_code": "25560"
    },
    {
      "id": 27948,
      "district_id": 362,
      "name": "AŞAĞITEPECİK MAH",
      "area": "TEKMAN",
      "postal_code": "25560"
    },
    {
      "id": 27949,
      "district_id": 362,
      "name": "AYDINLI MAH",
      "area": "TEKMAN",
      "postal_code": "25560"
    },
    {
      "id": 27950,
      "district_id": 362,
      "name": "AYDINLIK MAH",
      "area": "TEKMAN",
      "postal_code": "25560"
    },
    {
      "id": 27951,
      "district_id": 362,
      "name": "BEŞDERE MAH",
      "area": "TEKMAN",
      "postal_code": "25560"
    },
    {
      "id": 27952,
      "district_id": 362,
      "name": "BEYKÖY MAH",
      "area": "TEKMAN",
      "postal_code": "25560"
    },
    {
      "id": 27953,
      "district_id": 362,
      "name": "ÇAĞLAR MAH",
      "area": "TEKMAN",
      "postal_code": "25560"
    },
    {
      "id": 27954,
      "district_id": 362,
      "name": "ÇATAK MAH",
      "area": "TEKMAN",
      "postal_code": "25560"
    },
    {
      "id": 27955,
      "district_id": 362,
      "name": "ÇATKALE MAH",
      "area": "TEKMAN",
      "postal_code": "25560"
    },
    {
      "id": 27956,
      "district_id": 362,
      "name": "ÇAYIRDAĞI MAH",
      "area": "TEKMAN",
      "postal_code": "25560"
    },
    {
      "id": 27957,
      "district_id": 362,
      "name": "ÇEVİRME MAH",
      "area": "TEKMAN",
      "postal_code": "25560"
    },
    {
      "id": 27958,
      "district_id": 362,
      "name": "ÇİÇEKDAĞI MAH",
      "area": "TEKMAN",
      "postal_code": "25560"
    },
    {
      "id": 27959,
      "district_id": 362,
      "name": "CİHAN MAH",
      "area": "TEKMAN",
      "postal_code": "25560"
    },
    {
      "id": 27960,
      "district_id": 362,
      "name": "ÇUKURYAYLA MAH",
      "area": "TEKMAN",
      "postal_code": "25560"
    },
    {
      "id": 27961,
      "district_id": 362,
      "name": "DALSÖĞÜT MAH",
      "area": "TEKMAN",
      "postal_code": "25560"
    },
    {
      "id": 27962,
      "district_id": 362,
      "name": "DELİLER MAH",
      "area": "TEKMAN",
      "postal_code": "25560"
    },
    {
      "id": 27963,
      "district_id": 362,
      "name": "DENGİZ MAH",
      "area": "TEKMAN",
      "postal_code": "25560"
    },
    {
      "id": 27964,
      "district_id": 362,
      "name": "DÜZYURT MAH",
      "area": "TEKMAN",
      "postal_code": "25560"
    },
    {
      "id": 27965,
      "district_id": 362,
      "name": "ERENCE MAH",
      "area": "TEKMAN",
      "postal_code": "25560"
    },
    {
      "id": 27966,
      "district_id": 362,
      "name": "GEÇİTKÖY MAH",
      "area": "TEKMAN",
      "postal_code": "25560"
    },
    {
      "id": 27967,
      "district_id": 362,
      "name": "GÖKOĞLAN MAH",
      "area": "TEKMAN",
      "postal_code": "25560"
    },
    {
      "id": 27968,
      "district_id": 362,
      "name": "GÖZLÜCE MAH",
      "area": "TEKMAN",
      "postal_code": "25560"
    },
    {
      "id": 27969,
      "district_id": 362,
      "name": "GÜLVEREN MAH",
      "area": "TEKMAN",
      "postal_code": "25560"
    },
    {
      "id": 27970,
      "district_id": 362,
      "name": "GÜMÜŞLÜK MAH",
      "area": "TEKMAN",
      "postal_code": "25560"
    },
    {
      "id": 27971,
      "district_id": 362,
      "name": "GÜNDAMI MAH",
      "area": "TEKMAN",
      "postal_code": "25560"
    },
    {
      "id": 27972,
      "district_id": 362,
      "name": "GÜNEŞLİ MAH",
      "area": "TEKMAN",
      "postal_code": "25560"
    },
    {
      "id": 27973,
      "district_id": 362,
      "name": "GÜRGÜR MAH",
      "area": "TEKMAN",
      "postal_code": "25560"
    },
    {
      "id": 27974,
      "district_id": 362,
      "name": "GÜZELDERE MAH",
      "area": "TEKMAN",
      "postal_code": "25560"
    },
    {
      "id": 27975,
      "district_id": 362,
      "name": "HACIÖMER MAH",
      "area": "TEKMAN",
      "postal_code": "25560"
    },
    {
      "id": 27976,
      "district_id": 362,
      "name": "HAMZALAR MAH",
      "area": "TEKMAN",
      "postal_code": "25560"
    },
    {
      "id": 27977,
      "district_id": 362,
      "name": "HÜRRİYET MAH",
      "area": "TEKMAN",
      "postal_code": "25560"
    },
    {
      "id": 27978,
      "district_id": 362,
      "name": "HÜSEYİNAĞA MAH",
      "area": "TEKMAN",
      "postal_code": "25560"
    },
    {
      "id": 27979,
      "district_id": 362,
      "name": "ILIGÖZE MAH",
      "area": "TEKMAN",
      "postal_code": "25560"
    },
    {
      "id": 27980,
      "district_id": 362,
      "name": "İNCESU MAH",
      "area": "TEKMAN",
      "postal_code": "25560"
    },
    {
      "id": 27981,
      "district_id": 362,
      "name": "IŞIKLAR MAH",
      "area": "TEKMAN",
      "postal_code": "25560"
    },
    {
      "id": 27982,
      "district_id": 362,
      "name": "İSMETPAŞA MAH",
      "area": "TEKMAN",
      "postal_code": "25560"
    },
    {
      "id": 27983,
      "district_id": 362,
      "name": "KALAYCI MAH",
      "area": "TEKMAN",
      "postal_code": "25560"
    },
    {
      "id": 27984,
      "district_id": 362,
      "name": "KARAPINAR MAH",
      "area": "TEKMAN",
      "postal_code": "25560"
    },
    {
      "id": 27985,
      "district_id": 362,
      "name": "KARATAŞ MAH",
      "area": "TEKMAN",
      "postal_code": "25560"
    },
    {
      "id": 27986,
      "district_id": 362,
      "name": "KARATEPE MAH",
      "area": "TEKMAN",
      "postal_code": "25560"
    },
    {
      "id": 27987,
      "district_id": 362,
      "name": "KARLICA MAH",
      "area": "TEKMAN",
      "postal_code": "25560"
    },
    {
      "id": 27988,
      "district_id": 362,
      "name": "KATRANLI MAH",
      "area": "TEKMAN",
      "postal_code": "25560"
    },
    {
      "id": 27989,
      "district_id": 362,
      "name": "KAYABOĞAZ MAH",
      "area": "TEKMAN",
      "postal_code": "25560"
    },
    {
      "id": 27990,
      "district_id": 362,
      "name": "KAZANCIK MAH",
      "area": "TEKMAN",
      "postal_code": "25560"
    },
    {
      "id": 27991,
      "district_id": 362,
      "name": "KIRIKAN MAH",
      "area": "TEKMAN",
      "postal_code": "25560"
    },
    {
      "id": 27992,
      "district_id": 362,
      "name": "KOÇYAYLA MAH",
      "area": "TEKMAN",
      "postal_code": "25560"
    },
    {
      "id": 27993,
      "district_id": 362,
      "name": "KÖRSU MAH",
      "area": "TEKMAN",
      "postal_code": "25560"
    },
    {
      "id": 27994,
      "district_id": 362,
      "name": "KÜLLÜ MAH",
      "area": "TEKMAN",
      "postal_code": "25560"
    },
    {
      "id": 27995,
      "district_id": 362,
      "name": "KURUCA MAH",
      "area": "TEKMAN",
      "postal_code": "25560"
    },
    {
      "id": 27996,
      "district_id": 362,
      "name": "MESCİTLİ MAH",
      "area": "TEKMAN",
      "postal_code": "25560"
    },
    {
      "id": 27997,
      "district_id": 362,
      "name": "MOLLAMEHMET MAH",
      "area": "TEKMAN",
      "postal_code": "25560"
    },
    {
      "id": 27998,
      "district_id": 362,
      "name": "ŞAKŞAK MAH",
      "area": "TEKMAN",
      "postal_code": "25560"
    },
    {
      "id": 27999,
      "district_id": 362,
      "name": "SUSUZ MAH",
      "area": "TEKMAN",
      "postal_code": "25560"
    },
    {
      "id": 28000,
      "district_id": 362,
      "name": "TAŞKESEN MAH",
      "area": "TEKMAN",
      "postal_code": "25560"
    },
    {
      "id": 28001,
      "district_id": 362,
      "name": "TOPTEPE MAH",
      "area": "TEKMAN",
      "postal_code": "25560"
    },
    {
      "id": 28002,
      "district_id": 362,
      "name": "TURNAGÖL MAH",
      "area": "TEKMAN",
      "postal_code": "25560"
    },
    {
      "id": 28003,
      "district_id": 362,
      "name": "VATAN MAH",
      "area": "TEKMAN",
      "postal_code": "25560"
    },
    {
      "id": 28004,
      "district_id": 362,
      "name": "YALINCA MAH",
      "area": "TEKMAN",
      "postal_code": "25560"
    },
    {
      "id": 28005,
      "district_id": 362,
      "name": "YERKÖY MAH",
      "area": "TEKMAN",
      "postal_code": "25560"
    },
    {
      "id": 28006,
      "district_id": 362,
      "name": "YEŞİLÖREN MAH",
      "area": "TEKMAN",
      "postal_code": "25560"
    },
    {
      "id": 28007,
      "district_id": 362,
      "name": "YİĞİTLER MAH",
      "area": "TEKMAN",
      "postal_code": "25560"
    },
    {
      "id": 28008,
      "district_id": 362,
      "name": "YONCALI MAH",
      "area": "TEKMAN",
      "postal_code": "25560"
    },
    {
      "id": 28009,
      "district_id": 362,
      "name": "YÜCEPINAR MAH",
      "area": "TEKMAN",
      "postal_code": "25560"
    },
    {
      "id": 28010,
      "district_id": 362,
      "name": "YUKARIHANBEYİ MAH",
      "area": "TEKMAN",
      "postal_code": "25560"
    },
    {
      "id": 28011,
      "district_id": 362,
      "name": "YUKARITEPECİK MAH",
      "area": "TEKMAN",
      "postal_code": "25560"
    },
    {
      "id": 28012,
      "district_id": 362,
      "name": "YUVAKLI MAH",
      "area": "TEKMAN",
      "postal_code": "25560"
    },
    {
      "id": 28013,
      "district_id": 363,
      "name": "AKBABA MAH",
      "area": "TORTUM",
      "postal_code": "25430"
    },
    {
      "id": 28014,
      "district_id": 363,
      "name": "AKSU MAH",
      "area": "TORTUM",
      "postal_code": "25430"
    },
    {
      "id": 28015,
      "district_id": 363,
      "name": "AKTAŞ MAH",
      "area": "TORTUM",
      "postal_code": "25430"
    },
    {
      "id": 28016,
      "district_id": 363,
      "name": "ALAPINAR MAH",
      "area": "TORTUM",
      "postal_code": "25430"
    },
    {
      "id": 28017,
      "district_id": 363,
      "name": "ALPARSLAN MAH",
      "area": "TORTUM",
      "postal_code": "25430"
    },
    {
      "id": 28018,
      "district_id": 363,
      "name": "ARILI MAH",
      "area": "TORTUM",
      "postal_code": "25430"
    },
    {
      "id": 28019,
      "district_id": 363,
      "name": "AŞAĞI SERDARLI MAH",
      "area": "TORTUM",
      "postal_code": "25430"
    },
    {
      "id": 28020,
      "district_id": 363,
      "name": "BAĞBAŞI MAH",
      "area": "TORTUM",
      "postal_code": "25430"
    },
    {
      "id": 28021,
      "district_id": 363,
      "name": "BAHÇELİ MAH",
      "area": "TORTUM",
      "postal_code": "25430"
    },
    {
      "id": 28022,
      "district_id": 363,
      "name": "BALLI MAH",
      "area": "TORTUM",
      "postal_code": "25430"
    },
    {
      "id": 28023,
      "district_id": 363,
      "name": "ÇAKILLI MAH",
      "area": "TORTUM",
      "postal_code": "25430"
    },
    {
      "id": 28024,
      "district_id": 363,
      "name": "ÇAMLICA MAH",
      "area": "TORTUM",
      "postal_code": "25430"
    },
    {
      "id": 28025,
      "district_id": 363,
      "name": "ÇARDAKLI MAH",
      "area": "TORTUM",
      "postal_code": "25430"
    },
    {
      "id": 28026,
      "district_id": 363,
      "name": "ÇATALDERE MAH",
      "area": "TORTUM",
      "postal_code": "25430"
    },
    {
      "id": 28027,
      "district_id": 363,
      "name": "ÇAYLICA MAH",
      "area": "TORTUM",
      "postal_code": "25430"
    },
    {
      "id": 28028,
      "district_id": 363,
      "name": "ÇİFTLİK MAH",
      "area": "TORTUM",
      "postal_code": "25430"
    },
    {
      "id": 28029,
      "district_id": 363,
      "name": "CİHANLI MAH",
      "area": "TORTUM",
      "postal_code": "25430"
    },
    {
      "id": 28030,
      "district_id": 363,
      "name": "ÇİVİLİKAYA MAH",
      "area": "TORTUM",
      "postal_code": "25430"
    },
    {
      "id": 28031,
      "district_id": 363,
      "name": "DEMİRCİLER MAH",
      "area": "TORTUM",
      "postal_code": "25430"
    },
    {
      "id": 28032,
      "district_id": 363,
      "name": "DEREKAPI MAH",
      "area": "TORTUM",
      "postal_code": "25430"
    },
    {
      "id": 28033,
      "district_id": 363,
      "name": "DERİNPINAR MAH",
      "area": "TORTUM",
      "postal_code": "25430"
    },
    {
      "id": 28034,
      "district_id": 363,
      "name": "DİKMEN MAH",
      "area": "TORTUM",
      "postal_code": "25430"
    },
    {
      "id": 28035,
      "district_id": 363,
      "name": "DORUKLU MAH",
      "area": "TORTUM",
      "postal_code": "25430"
    },
    {
      "id": 28036,
      "district_id": 363,
      "name": "ESENDURAK MAH",
      "area": "TORTUM",
      "postal_code": "25430"
    },
    {
      "id": 28037,
      "district_id": 363,
      "name": "GÖKDERE MAH",
      "area": "TORTUM",
      "postal_code": "25430"
    },
    {
      "id": 28038,
      "district_id": 363,
      "name": "HAMİDİYE MAH",
      "area": "TORTUM",
      "postal_code": "25430"
    },
    {
      "id": 28039,
      "district_id": 363,
      "name": "İNCEDERE MAH",
      "area": "TORTUM",
      "postal_code": "25430"
    },
    {
      "id": 28040,
      "district_id": 363,
      "name": "KALEBOYNU MAH",
      "area": "TORTUM",
      "postal_code": "25430"
    },
    {
      "id": 28041,
      "district_id": 363,
      "name": "KALEDİBİ MAH",
      "area": "TORTUM",
      "postal_code": "25430"
    },
    {
      "id": 28042,
      "district_id": 363,
      "name": "KAPIKAYA MAH",
      "area": "TORTUM",
      "postal_code": "25430"
    },
    {
      "id": 28043,
      "district_id": 363,
      "name": "KARLI MAH",
      "area": "TORTUM",
      "postal_code": "25430"
    },
    {
      "id": 28044,
      "district_id": 363,
      "name": "KAZANDERE MAH",
      "area": "TORTUM",
      "postal_code": "25430"
    },
    {
      "id": 28045,
      "district_id": 363,
      "name": "KEMERKAYA MAH",
      "area": "TORTUM",
      "postal_code": "25430"
    },
    {
      "id": 28046,
      "district_id": 363,
      "name": "KİREÇLİ MAH",
      "area": "TORTUM",
      "postal_code": "25430"
    },
    {
      "id": 28047,
      "district_id": 363,
      "name": "KIRMALI MAH",
      "area": "TORTUM",
      "postal_code": "25430"
    },
    {
      "id": 28048,
      "district_id": 363,
      "name": "KONAK MAH",
      "area": "TORTUM",
      "postal_code": "25430"
    },
    {
      "id": 28049,
      "district_id": 363,
      "name": "MEYDANLAR MAH",
      "area": "TORTUM",
      "postal_code": "25430"
    },
    {
      "id": 28050,
      "district_id": 363,
      "name": "PEHLİVANLI MAH",
      "area": "TORTUM",
      "postal_code": "25430"
    },
    {
      "id": 28051,
      "district_id": 363,
      "name": "PEYNİRLİ MAH",
      "area": "TORTUM",
      "postal_code": "25430"
    },
    {
      "id": 28052,
      "district_id": 363,
      "name": "ŞENYURT MAH",
      "area": "TORTUM",
      "postal_code": "25430"
    },
    {
      "id": 28053,
      "district_id": 363,
      "name": "SERDARLI MAH",
      "area": "TORTUM",
      "postal_code": "25430"
    },
    {
      "id": 28054,
      "district_id": 363,
      "name": "SÖĞÜTLÜ MAH",
      "area": "TORTUM",
      "postal_code": "25430"
    },
    {
      "id": 28055,
      "district_id": 363,
      "name": "SUYATAĞI MAH",
      "area": "TORTUM",
      "postal_code": "25430"
    },
    {
      "id": 28056,
      "district_id": 363,
      "name": "TAŞBAŞI MAH",
      "area": "TORTUM",
      "postal_code": "25430"
    },
    {
      "id": 28057,
      "district_id": 363,
      "name": "TAŞOLUK MAH",
      "area": "TORTUM",
      "postal_code": "25430"
    },
    {
      "id": 28058,
      "district_id": 363,
      "name": "TATLISU MAH",
      "area": "TORTUM",
      "postal_code": "25430"
    },
    {
      "id": 28059,
      "district_id": 363,
      "name": "TİPİLİ MAH",
      "area": "TORTUM",
      "postal_code": "25430"
    },
    {
      "id": 28060,
      "district_id": 363,
      "name": "TORTUMKALE MAH",
      "area": "TORTUM",
      "postal_code": "25430"
    },
    {
      "id": 28061,
      "district_id": 363,
      "name": "UZUNKAVAK MAH",
      "area": "TORTUM",
      "postal_code": "25430"
    },
    {
      "id": 28062,
      "district_id": 363,
      "name": "VİŞNELİ MAH",
      "area": "TORTUM",
      "postal_code": "25430"
    },
    {
      "id": 28063,
      "district_id": 363,
      "name": "YAĞCILAR MAH",
      "area": "TORTUM",
      "postal_code": "25430"
    },
    {
      "id": 28064,
      "district_id": 363,
      "name": "YAMANKAYA MAH",
      "area": "TORTUM",
      "postal_code": "25430"
    },
    {
      "id": 28065,
      "district_id": 363,
      "name": "YAVUZ SULTAN SELİM MAH",
      "area": "TORTUM",
      "postal_code": "25430"
    },
    {
      "id": 28066,
      "district_id": 363,
      "name": "YAZYURDU MAH",
      "area": "TORTUM",
      "postal_code": "25430"
    },
    {
      "id": 28067,
      "district_id": 363,
      "name": "YELLİTEPE MAH",
      "area": "TORTUM",
      "postal_code": "25430"
    },
    {
      "id": 28068,
      "district_id": 363,
      "name": "YUKARISİVRİ MAH",
      "area": "TORTUM",
      "postal_code": "25430"
    },
    {
      "id": 28069,
      "district_id": 363,
      "name": "YUMAKLI MAH",
      "area": "TORTUM",
      "postal_code": "25430"
    },
    {
      "id": 28070,
      "district_id": 363,
      "name": "ZİYARETLİ MAH",
      "area": "TORTUM",
      "postal_code": "25430"
    },
    {
      "id": 28071,
      "district_id": 364,
      "name": "ALTINÇANAK MAH",
      "area": "UZUNDERE",
      "postal_code": "25440"
    },
    {
      "id": 28072,
      "district_id": 364,
      "name": "BALIKLI MAH",
      "area": "UZUNDERE",
      "postal_code": "25440"
    },
    {
      "id": 28073,
      "district_id": 364,
      "name": "ÇAĞLAYAN MAH",
      "area": "UZUNDERE",
      "postal_code": "25440"
    },
    {
      "id": 28074,
      "district_id": 364,
      "name": "ÇAMLIYAMAÇ MAH",
      "area": "UZUNDERE",
      "postal_code": "25440"
    },
    {
      "id": 28075,
      "district_id": 364,
      "name": "ÇAYBAŞI MAH",
      "area": "UZUNDERE",
      "postal_code": "25440"
    },
    {
      "id": 28076,
      "district_id": 364,
      "name": "CEVİZLİ MAH",
      "area": "UZUNDERE",
      "postal_code": "25440"
    },
    {
      "id": 28077,
      "district_id": 364,
      "name": "CÖMERTLER MAH",
      "area": "UZUNDERE",
      "postal_code": "25440"
    },
    {
      "id": 28078,
      "district_id": 364,
      "name": "DİKYAR MAH",
      "area": "UZUNDERE",
      "postal_code": "25440"
    },
    {
      "id": 28079,
      "district_id": 364,
      "name": "ERİKLİ MAH",
      "area": "UZUNDERE",
      "postal_code": "25440"
    },
    {
      "id": 28080,
      "district_id": 364,
      "name": "GÖLBAŞI MAH",
      "area": "UZUNDERE",
      "postal_code": "25440"
    },
    {
      "id": 28081,
      "district_id": 364,
      "name": "KİRAZLI MAH",
      "area": "UZUNDERE",
      "postal_code": "25440"
    },
    {
      "id": 28082,
      "district_id": 364,
      "name": "MERKEZ MAH",
      "area": "UZUNDERE",
      "postal_code": "25440"
    },
    {
      "id": 28083,
      "district_id": 364,
      "name": "MURATEFENDİ MAH",
      "area": "UZUNDERE",
      "postal_code": "25440"
    },
    {
      "id": 28084,
      "district_id": 364,
      "name": "SAPACA MAH",
      "area": "UZUNDERE",
      "postal_code": "25440"
    },
    {
      "id": 28085,
      "district_id": 364,
      "name": "SEYİTEFENDİ MAH",
      "area": "UZUNDERE",
      "postal_code": "25440"
    },
    {
      "id": 28086,
      "district_id": 364,
      "name": "ULUBAĞ MAH",
      "area": "UZUNDERE",
      "postal_code": "25440"
    },
    {
      "id": 28087,
      "district_id": 364,
      "name": "UZUNDERE MAH",
      "area": "UZUNDERE",
      "postal_code": "25440"
    },
    {
      "id": 28088,
      "district_id": 364,
      "name": "YAYLA MAH",
      "area": "UZUNDERE",
      "postal_code": "25440"
    },
    {
      "id": 28089,
      "district_id": 365,
      "name": "AKDAĞ MAH",
      "area": "YAKUTİYE",
      "postal_code": "25100"
    },
    {
      "id": 28090,
      "district_id": 365,
      "name": "AKTOPRAK MAH",
      "area": "TERMİNAL",
      "postal_code": "25050"
    },
    {
      "id": 28091,
      "district_id": 365,
      "name": "ALTINBULAK MAH",
      "area": "TERMİNAL",
      "postal_code": "25050"
    },
    {
      "id": 28092,
      "district_id": 365,
      "name": "ALTINTEPE MAH",
      "area": "TERMİNAL",
      "postal_code": "25050"
    },
    {
      "id": 28093,
      "district_id": 365,
      "name": "ARIBAHÇE MAH",
      "area": "YAKUTİYE",
      "postal_code": "25100"
    },
    {
      "id": 28094,
      "district_id": 365,
      "name": "ÇAYIRCA MAH",
      "area": "YAKUTİYE",
      "postal_code": "25100"
    },
    {
      "id": 28095,
      "district_id": 365,
      "name": "ÇAYIRTEPE MAH",
      "area": "YAKUTİYE",
      "postal_code": "25100"
    },
    {
      "id": 28096,
      "district_id": 365,
      "name": "ÇİFTLİK MAH",
      "area": "TERMİNAL",
      "postal_code": "25050"
    },
    {
      "id": 28097,
      "district_id": 365,
      "name": "DADAŞKÖY MAH",
      "area": "YAKUTİYE",
      "postal_code": "25100"
    },
    {
      "id": 28098,
      "district_id": 365,
      "name": "DEĞİRMENLER MAH",
      "area": "TERMİNAL",
      "postal_code": "25050"
    },
    {
      "id": 28099,
      "district_id": 365,
      "name": "DUMLU MAH",
      "area": "YAKUTİYE",
      "postal_code": "25100"
    },
    {
      "id": 28100,
      "district_id": 365,
      "name": "GÖKÇEYAMAÇ MAH",
      "area": "YAKUTİYE",
      "postal_code": "25100"
    },
    {
      "id": 28101,
      "district_id": 365,
      "name": "GÜLPINAR MAH",
      "area": "TERMİNAL",
      "postal_code": "25050"
    },
    {
      "id": 28102,
      "district_id": 365,
      "name": "GÜNGÖRMEZ MAH",
      "area": "YAKUTİYE",
      "postal_code": "25100"
    },
    {
      "id": 28103,
      "district_id": 365,
      "name": "GÜZELOVA MAH",
      "area": "TERMİNAL",
      "postal_code": "25050"
    },
    {
      "id": 28104,
      "district_id": 365,
      "name": "GÜZELYAYLA MAH",
      "area": "YAKUTİYE",
      "postal_code": "25100"
    },
    {
      "id": 28105,
      "district_id": 365,
      "name": "İBRAHİM HAKKI MAH",
      "area": "YAKUTİYE",
      "postal_code": "25100"
    },
    {
      "id": 28106,
      "district_id": 365,
      "name": "KARAGÖBEK MAH",
      "area": "YAKUTİYE",
      "postal_code": "25100"
    },
    {
      "id": 28107,
      "district_id": 365,
      "name": "KARASU MAH",
      "area": "TERMİNAL",
      "postal_code": "25050"
    },
    {
      "id": 28108,
      "district_id": 365,
      "name": "KAZIM KARABEKİR PAŞA MAH",
      "area": "YAKUTİYE",
      "postal_code": "25100"
    },
    {
      "id": 28109,
      "district_id": 365,
      "name": "KIRKGÖZE MAH",
      "area": "YAKUTİYE",
      "postal_code": "25100"
    },
    {
      "id": 28110,
      "district_id": 365,
      "name": "KIRMIZITAŞ MAH",
      "area": "TERMİNAL",
      "postal_code": "25050"
    },
    {
      "id": 28111,
      "district_id": 365,
      "name": "KÖSE MEHMET MAH",
      "area": "YAKUTİYE",
      "postal_code": "25100"
    },
    {
      "id": 28112,
      "district_id": 365,
      "name": "KÖŞKKÖY MAH",
      "area": "YAKUTİYE",
      "postal_code": "25100"
    },
    {
      "id": 28113,
      "district_id": 365,
      "name": "KURTULUŞ MAH",
      "area": "YAKUTİYE",
      "postal_code": "25100"
    },
    {
      "id": 28114,
      "district_id": 365,
      "name": "LALAPAŞA MAH",
      "area": "YAKUTİYE",
      "postal_code": "25100"
    },
    {
      "id": 28115,
      "district_id": 365,
      "name": "MÜLK MAH",
      "area": "YAKUTİYE",
      "postal_code": "25100"
    },
    {
      "id": 28116,
      "district_id": 365,
      "name": "MURATGELDİ MAH",
      "area": "TERMİNAL",
      "postal_code": "25050"
    },
    {
      "id": 28117,
      "district_id": 365,
      "name": "MURATPAŞA MAH",
      "area": "YAKUTİYE",
      "postal_code": "25100"
    },
    {
      "id": 28118,
      "district_id": 365,
      "name": "ÖMER NASUHİ BİLMEN MAH",
      "area": "YAKUTİYE",
      "postal_code": "25100"
    },
    {
      "id": 28119,
      "district_id": 365,
      "name": "ORTA DÜZÜ MAH",
      "area": "YAKUTİYE",
      "postal_code": "25100"
    },
    {
      "id": 28120,
      "district_id": 365,
      "name": "RABİA ANA MAH",
      "area": "YAKUTİYE",
      "postal_code": "25100"
    },
    {
      "id": 28121,
      "district_id": 365,
      "name": "ŞENYURT MAH",
      "area": "YAKUTİYE",
      "postal_code": "25100"
    },
    {
      "id": 28122,
      "district_id": 365,
      "name": "SOĞUKÇERMİK MAH",
      "area": "YAKUTİYE",
      "postal_code": "25100"
    },
    {
      "id": 28123,
      "district_id": 365,
      "name": "SÖĞÜTYANI MAH",
      "area": "YAKUTİYE",
      "postal_code": "25100"
    },
    {
      "id": 28124,
      "district_id": 365,
      "name": "ŞÜKRÜPAŞA MAH",
      "area": "MUMCU",
      "postal_code": "25200"
    },
    {
      "id": 28125,
      "district_id": 365,
      "name": "UMUDUM MAH",
      "area": "YAKUTİYE",
      "postal_code": "25100"
    },
    {
      "id": 28126,
      "district_id": 365,
      "name": "ÜNİVERSİTE MAH",
      "area": "TERMİNAL",
      "postal_code": "25050"
    },
    {
      "id": 28127,
      "district_id": 365,
      "name": "UZUNYAYLA MAH",
      "area": "YAKUTİYE",
      "postal_code": "25100"
    },
    {
      "id": 28128,
      "district_id": 365,
      "name": "YAZI PINARI MAH",
      "area": "YAKUTİYE",
      "postal_code": "25100"
    },
    {
      "id": 28129,
      "district_id": 365,
      "name": "YERLİ SU MAH",
      "area": "YAKUTİYE",
      "postal_code": "25100"
    },
    {
      "id": 28130,
      "district_id": 365,
      "name": "YEŞİLDERE MAH",
      "area": "YAKUTİYE",
      "postal_code": "25100"
    },
    {
      "id": 28131,
      "district_id": 365,
      "name": "YEŞİLOVA MAH",
      "area": "YAKUTİYE",
      "postal_code": "25100"
    },
    {
      "id": 28132,
      "district_id": 365,
      "name": "YEŞİLYAYLA MAH",
      "area": "TERMİNAL",
      "postal_code": "25050"
    }
  ]
}