{
  "neighborhoods": [
    {
      "id": 28133,
      "district_id": 366,
      "name": "AĞAÇHİSAR MAH",
      "area": "ALPU",
      "postal_code": "26850"
    },
    {
      "id": 28134,
      "district_id": 366,
      "name": "AKTEPE MAH",
      "area": "ALPU",
      "postal_code": "26850"
    },
    {
      "id": 28135,
      "district_id": 366,
      "name": "ALAPINAR MAH",
      "area": "ALPU",
      "postal_code": "26850"
    },
    {
      "id": 28136,
      "district_id": 366,
      "name": "ARIKAYA MAH",
      "area": "ALPU",
      "postal_code": "26850"
    },
    {
      "id": 28137,
      "district_id": 366,
      "name": "BAHÇECİK MAH",
      "area": "ALPU",
      "postal_code": "26850"
    },
    {
      "id": 28138,
      "district_id": 366,
      "name": "BAŞÖREN MAH",
      "area": "ALPU",
      "postal_code": "26850"
    },
    {
      "id": 28139,
      "district_id": 366,
      "name": "BELKESE MAH",
      "area": "ALPU",
      "postal_code": "26850"
    },
    {
      "id": 28140,
      "district_id": 366,
      "name": "BOZAN MAH",
      "area": "ALPU",
      "postal_code": "26850"
    },
    {
      "id": 28141,
      "district_id": 366,
      "name": "BÜĞDÜZ MAH",
      "area": "ALPU",
      "postal_code": "26850"
    },
    {
      "id": 28142,
      "district_id": 366,
      "name": "ÇARDAKBAŞI MAH",
      "area": "ALPU",
      "postal_code": "26850"
    },
    {
      "id": 28143,
      "district_id": 366,
      "name": "ÇERKEZ ÇUKURHİSAR MAH",
      "area": "ALPU",
      "postal_code": "26850"
    },
    {
      "id": 28144,
      "district_id": 366,
      "name": "DEREKÖY MAH",
      "area": "ALPU",
      "postal_code": "26850"
    },
    {
      "id": 28145,
      "district_id": 366,
      "name": "ESENCE MAH",
      "area": "ALPU",
      "postal_code": "26850"
    },
    {
      "id": 28146,
      "district_id": 366,
      "name": "FATİH MAH",
      "area": "ALPU",
      "postal_code": "26850"
    },
    {
      "id": 28147,
      "district_id": 366,
      "name": "FEVZİ PAŞA MAH",
      "area": "ALPU",
      "postal_code": "26850"
    },
    {
      "id": 28148,
      "district_id": 366,
      "name": "FEVZİYE MAH",
      "area": "ALPU",
      "postal_code": "26850"
    },
    {
      "id": 28149,
      "district_id": 366,
      "name": "GÖKÇEKAYA MAH",
      "area": "ALPU",
      "postal_code": "26850"
    },
    {
      "id": 28150,
      "district_id": 366,
      "name": "GÖKÇEOĞLU MAH",
      "area": "ALPU",
      "postal_code": "26850"
    },
    {
      "id": 28151,
      "district_id": 366,
      "name": "GÜROLUK MAH",
      "area": "ALPU",
      "postal_code": "26850"
    },
    {
      "id": 28152,
      "district_id": 366,
      "name": "IŞIKÖREN MAH",
      "area": "ALPU",
      "postal_code": "26850"
    },
    {
      "id": 28153,
      "district_id": 366,
      "name": "KARACAÖREN MAH",
      "area": "ALPU",
      "postal_code": "26850"
    },
    {
      "id": 28154,
      "district_id": 366,
      "name": "KARAKAMIŞ MAH",
      "area": "ALPU",
      "postal_code": "26850"
    },
    {
      "id": 28155,
      "district_id": 366,
      "name": "KEMALPAŞA MAH",
      "area": "ALPU",
      "postal_code": "26850"
    },
    {
      "id": 28156,
      "district_id": 366,
      "name": "KOŞMAT MAH",
      "area": "ALPU",
      "postal_code": "26850"
    },
    {
      "id": 28157,
      "district_id": 366,
      "name": "MAMURE MAH",
      "area": "ALPU",
      "postal_code": "26850"
    },
    {
      "id": 28158,
      "district_id": 366,
      "name": "OSMANİYE MAH",
      "area": "ALPU",
      "postal_code": "26850"
    },
    {
      "id": 28159,
      "district_id": 366,
      "name": "ÖZDENK MAH",
      "area": "ALPU",
      "postal_code": "26850"
    },
    {
      "id": 28160,
      "district_id": 366,
      "name": "SAKARIKARACAÖREN MAH",
      "area": "ALPU",
      "postal_code": "26850"
    },
    {
      "id": 28161,
      "district_id": 366,
      "name": "SARIKAVAK MAH",
      "area": "ALPU",
      "postal_code": "26850"
    },
    {
      "id": 28162,
      "district_id": 366,
      "name": "SÖĞÜTÇÜK MAH",
      "area": "ALPU",
      "postal_code": "26850"
    },
    {
      "id": 28163,
      "district_id": 366,
      "name": "UYUZHAMAMKÖYÜ MAH",
      "area": "ALPU",
      "postal_code": "26850"
    },
    {
      "id": 28164,
      "district_id": 366,
      "name": "YEŞİLDON MAH",
      "area": "ALPU",
      "postal_code": "26850"
    },
    {
      "id": 28165,
      "district_id": 366,
      "name": "YUNUSEMRE MAH",
      "area": "ALPU",
      "postal_code": "26850"
    },
    {
      "id": 28166,
      "district_id": 367,
      "name": "AKKÖPRÜ MAH",
      "area": "BEYLİKOVA",
      "postal_code": "26750"
    },
    {
      "id": 28167,
      "district_id": 367,
      "name": "AŞAĞIDUDAŞ MAH",
      "area": "BEYLİKOVA",
      "postal_code": "26750"
    },
    {
      "id": 28168,
      "district_id": 367,
      "name": "AŞAĞIİĞDEAĞACI MAH",
      "area": "BEYLİKOVA",
      "postal_code": "26750"
    },
    {
      "id": 28169,
      "district_id": 367,
      "name": "ATA MAH",
      "area": "BEYLİKOVA",
      "postal_code": "26750"
    },
    {
      "id": 28170,
      "district_id": 367,
      "name": "DOĞANOĞLU MAH",
      "area": "BEYLİKOVA",
      "postal_code": "26750"
    },
    {
      "id": 28171,
      "district_id": 367,
      "name": "DOĞRAY MAH",
      "area": "BEYLİKOVA",
      "postal_code": "26750"
    },
    {
      "id": 28172,
      "district_id": 367,
      "name": "EMİRCİK MAH",
      "area": "BEYLİKOVA",
      "postal_code": "26750"
    },
    {
      "id": 28173,
      "district_id": 367,
      "name": "GÖKÇEAYVA MAH",
      "area": "BEYLİKOVA",
      "postal_code": "26750"
    },
    {
      "id": 28174,
      "district_id": 367,
      "name": "HALİLBAĞI MAH",
      "area": "BEYLİKOVA",
      "postal_code": "26750"
    },
    {
      "id": 28175,
      "district_id": 367,
      "name": "İKİPINAR MAH",
      "area": "BEYLİKOVA",
      "postal_code": "26750"
    },
    {
      "id": 28176,
      "district_id": 367,
      "name": "İMİKLER MAH",
      "area": "BEYLİKOVA",
      "postal_code": "26750"
    },
    {
      "id": 28177,
      "district_id": 367,
      "name": "KIZILCAÖREN MAH",
      "area": "BEYLİKOVA",
      "postal_code": "26750"
    },
    {
      "id": 28178,
      "district_id": 367,
      "name": "KÖPRÜBAŞI MAH",
      "area": "BEYLİKOVA",
      "postal_code": "26750"
    },
    {
      "id": 28179,
      "district_id": 367,
      "name": "KÖPRÜBAŞI OSB MAH",
      "area": "BEYLİKOVA",
      "postal_code": "26750"
    },
    {
      "id": 28180,
      "district_id": 367,
      "name": "OKÇU MAH",
      "area": "BEYLİKOVA",
      "postal_code": "26750"
    },
    {
      "id": 28181,
      "district_id": 367,
      "name": "PARSIBEY MAH",
      "area": "BEYLİKOVA",
      "postal_code": "26750"
    },
    {
      "id": 28182,
      "district_id": 367,
      "name": "RAHMİYE MAH",
      "area": "BEYLİKOVA",
      "postal_code": "26750"
    },
    {
      "id": 28183,
      "district_id": 367,
      "name": "SÜLEYMANİYE MAH",
      "area": "BEYLİKOVA",
      "postal_code": "26750"
    },
    {
      "id": 28184,
      "district_id": 367,
      "name": "SULTANİYE MAH",
      "area": "BEYLİKOVA",
      "postal_code": "26750"
    },
    {
      "id": 28185,
      "district_id": 367,
      "name": "UZUNBURUN MAH",
      "area": "BEYLİKOVA",
      "postal_code": "26750"
    },
    {
      "id": 28186,
      "district_id": 367,
      "name": "YALINLI MAH",
      "area": "BEYLİKOVA",
      "postal_code": "26750"
    },
    {
      "id": 28187,
      "district_id": 367,
      "name": "YENİ MAH",
      "area": "BEYLİKOVA",
      "postal_code": "26750"
    },
    {
      "id": 28188,
      "district_id": 367,
      "name": "YENİYURT MAH",
      "area": "BEYLİKOVA",
      "postal_code": "26750"
    },
    {
      "id": 28189,
      "district_id": 367,
      "name": "YUKARIDUDAŞ MAH",
      "area": "BEYLİKOVA",
      "postal_code": "26750"
    },
    {
      "id": 28190,
      "district_id": 367,
      "name": "YUKARIİĞDEAĞACI MAH",
      "area": "BEYLİKOVA",
      "postal_code": "26750"
    },
    {
      "id": 28191,
      "district_id": 367,
      "name": "YUNUS EMRE MAH",
      "area": "BEYLİKOVA",
      "postal_code": "26750"
    },
    {
      "id": 28192,
      "district_id": 368,
      "name": "ABBASHALİMPAŞA MAH",
      "area": "ÇİFTELER",
      "postal_code": "26700"
    },
    {
      "id": 28193,
      "district_id": 368,
      "name": "ADALAR MAH",
      "area": "ÇİFTELER",
      "postal_code": "26700"
    },
    {
      "id": 28194,
      "district_id": 368,
      "name": "ALİKAN MAH",
      "area": "ÇİFTELER",
      "postal_code": "26700"
    },
    {
      "id": 28195,
      "district_id": 368,
      "name": "ARSLANLI MAH",
      "area": "ÇİFTELER",
      "postal_code": "26700"
    },
    {
      "id": 28196,
      "district_id": 368,
      "name": "BAŞKURT MAH",
      "area": "ÇİFTELER",
      "postal_code": "26700"
    },
    {
      "id": 28197,
      "district_id": 368,
      "name": "BELPINAR MAH",
      "area": "ÇİFTELER",
      "postal_code": "26700"
    },
    {
      "id": 28198,
      "district_id": 368,
      "name": "ÇATMAPINAR MAH",
      "area": "ÇİFTELER",
      "postal_code": "26700"
    },
    {
      "id": 28199,
      "district_id": 368,
      "name": "ÇİFTÇİ MAH",
      "area": "ÇİFTELER",
      "postal_code": "26700"
    },
    {
      "id": 28200,
      "district_id": 368,
      "name": "DİKİLİKAYA MAH",
      "area": "ÇİFTELER",
      "postal_code": "26700"
    },
    {
      "id": 28201,
      "district_id": 368,
      "name": "DİKMEN MAH",
      "area": "ÇİFTELER",
      "postal_code": "26700"
    },
    {
      "id": 28202,
      "district_id": 368,
      "name": "DOĞANAY MAH",
      "area": "ÇİFTELER",
      "postal_code": "26700"
    },
    {
      "id": 28203,
      "district_id": 368,
      "name": "EMİNEKİN MAH",
      "area": "ÇİFTELER",
      "postal_code": "26700"
    },
    {
      "id": 28204,
      "district_id": 368,
      "name": "ERBAP MAH",
      "area": "ÇİFTELER",
      "postal_code": "26700"
    },
    {
      "id": 28205,
      "district_id": 368,
      "name": "HAYRİYE MAH",
      "area": "ÇİFTELER",
      "postal_code": "26700"
    },
    {
      "id": 28206,
      "district_id": 368,
      "name": "ILICABAŞI MAH",
      "area": "ÇİFTELER",
      "postal_code": "26700"
    },
    {
      "id": 28207,
      "district_id": 368,
      "name": "KADIKUYUSU MAH",
      "area": "ÇİFTELER",
      "postal_code": "26700"
    },
    {
      "id": 28208,
      "district_id": 368,
      "name": "KÖRHASAN MAH",
      "area": "ÇİFTELER",
      "postal_code": "26700"
    },
    {
      "id": 28209,
      "district_id": 368,
      "name": "ORHANİYE MAH",
      "area": "ÇİFTELER",
      "postal_code": "26700"
    },
    {
      "id": 28210,
      "district_id": 368,
      "name": "ORTAKÖY MAH",
      "area": "ÇİFTELER",
      "postal_code": "26700"
    },
    {
      "id": 28211,
      "district_id": 368,
      "name": "OSMANİYE MAH",
      "area": "ÇİFTELER",
      "postal_code": "26700"
    },
    {
      "id": 28212,
      "district_id": 368,
      "name": "SADIROĞLU MAH",
      "area": "ÇİFTELER",
      "postal_code": "26700"
    },
    {
      "id": 28213,
      "district_id": 368,
      "name": "SAİTHALİMPAŞA MAH",
      "area": "ÇİFTELER",
      "postal_code": "26700"
    },
    {
      "id": 28214,
      "district_id": 368,
      "name": "SAKARYA MAH",
      "area": "ÇİFTELER",
      "postal_code": "26700"
    },
    {
      "id": 28215,
      "district_id": 368,
      "name": "SARIKAVAK MAH",
      "area": "ÇİFTELER",
      "postal_code": "26700"
    },
    {
      "id": 28216,
      "district_id": 368,
      "name": "YENİ MAH",
      "area": "ÇİFTELER",
      "postal_code": "26700"
    },
    {
      "id": 28217,
      "district_id": 368,
      "name": "YENİDOĞAN MAH",
      "area": "ÇİFTELER",
      "postal_code": "26700"
    },
    {
      "id": 28218,
      "district_id": 368,
      "name": "YILDIZÖREN MAH",
      "area": "ÇİFTELER",
      "postal_code": "26700"
    },
    {
      "id": 28219,
      "district_id": 368,
      "name": "ZAFERHAMİT MAH",
      "area": "ÇİFTELER",
      "postal_code": "26700"
    },
    {
      "id": 28220,
      "district_id": 369,
      "name": "ATLAS MAH",
      "area": "GÜNYÜZÜ",
      "postal_code": "26630"
    },
    {
      "id": 28221,
      "district_id": 369,
      "name": "AYVALI MAH",
      "area": "GÜNYÜZÜ",
      "postal_code": "26630"
    },
    {
      "id": 28222,
      "district_id": 369,
      "name": "BEDİL MAH",
      "area": "GÜNYÜZÜ",
      "postal_code": "26630"
    },
    {
      "id": 28223,
      "district_id": 369,
      "name": "BEYYAYLA MAH",
      "area": "GÜNYÜZÜ",
      "postal_code": "26630"
    },
    {
      "id": 28224,
      "district_id": 369,
      "name": "ÇAKMAK MAH",
      "area": "GÜNYÜZÜ",
      "postal_code": "26630"
    },
    {
      "id": 28225,
      "district_id": 369,
      "name": "ÇARDAKÖZÜ MAH",
      "area": "GÜNYÜZÜ",
      "postal_code": "26630"
    },
    {
      "id": 28226,
      "district_id": 369,
      "name": "DOĞRAY MAH",
      "area": "GÜNYÜZÜ",
      "postal_code": "26630"
    },
    {
      "id": 28227,
      "district_id": 369,
      "name": "FATİH MAH",
      "area": "GÜNYÜZÜ",
      "postal_code": "26630"
    },
    {
      "id": 28228,
      "district_id": 369,
      "name": "GECEK MAH",
      "area": "GÜNYÜZÜ",
      "postal_code": "26630"
    },
    {
      "id": 28229,
      "district_id": 369,
      "name": "GÜMÜŞKONAK MAH",
      "area": "GÜNYÜZÜ",
      "postal_code": "26630"
    },
    {
      "id": 28230,
      "district_id": 369,
      "name": "KAVACIK MAH",
      "area": "GÜNYÜZÜ",
      "postal_code": "26630"
    },
    {
      "id": 28231,
      "district_id": 369,
      "name": "KAVUNCU MAH",
      "area": "GÜNYÜZÜ",
      "postal_code": "26630"
    },
    {
      "id": 28232,
      "district_id": 369,
      "name": "KAYAKENT MAH",
      "area": "GÜNYÜZÜ",
      "postal_code": "26630"
    },
    {
      "id": 28233,
      "district_id": 369,
      "name": "KUZÖREN MAH",
      "area": "GÜNYÜZÜ",
      "postal_code": "26630"
    },
    {
      "id": 28234,
      "district_id": 369,
      "name": "MERCAN MAH",
      "area": "GÜNYÜZÜ",
      "postal_code": "26630"
    },
    {
      "id": 28235,
      "district_id": 369,
      "name": "ÖZLER MAH",
      "area": "GÜNYÜZÜ",
      "postal_code": "26630"
    },
    {
      "id": 28236,
      "district_id": 369,
      "name": "SÜMER MAH",
      "area": "GÜNYÜZÜ",
      "postal_code": "26630"
    },
    {
      "id": 28237,
      "district_id": 369,
      "name": "TUTLU MAH",
      "area": "GÜNYÜZÜ",
      "postal_code": "26630"
    },
    {
      "id": 28238,
      "district_id": 369,
      "name": "YAĞRI MAH",
      "area": "GÜNYÜZÜ",
      "postal_code": "26630"
    },
    {
      "id": 28239,
      "district_id": 369,
      "name": "YAZIR MAH",
      "area": "GÜNYÜZÜ",
      "postal_code": "26630"
    },
    {
      "id": 28240,
      "district_id": 369,
      "name": "YENİKENT MAH",
      "area": "GÜNYÜZÜ",
      "postal_code": "26630"
    },
    {
      "id": 28241,
      "district_id": 369,
      "name": "YEŞİLYAKA MAH",
      "area": "GÜNYÜZÜ",
      "postal_code": "26630"
    },
    {
      "id": 28242,
      "district_id": 370,
      "name": "AĞLARCA MAH",
      "area": "HAN",
      "postal_code": "26710"
    },
    {
      "id": 28243,
      "district_id": 370,
      "name": "AKDERE MAH",
      "area": "HAN",
      "postal_code": "26710"
    },
    {
      "id": 28244,
      "district_id": 370,
      "name": "AKHİSAR MAH",
      "area": "HAN",
      "postal_code": "26710"
    },
    {
      "id": 28245,
      "district_id": 370,
      "name": "BAŞARA MAH",
      "area": "HAN",
      "postal_code": "26710"
    },
    {
      "id": 28246,
      "district_id": 370,
      "name": "ERTEN MAH",
      "area": "HAN",
      "postal_code": "26710"
    },
    {
      "id": 28247,
      "district_id": 370,
      "name": "GÖKÇEKUYU MAH",
      "area": "HAN",
      "postal_code": "26710"
    },
    {
      "id": 28248,
      "district_id": 370,
      "name": "GÖKÇEYAYLA MAH",
      "area": "HAN",
      "postal_code": "26710"
    },
    {
      "id": 28249,
      "district_id": 370,
      "name": "HACILAR MAH",
      "area": "HAN",
      "postal_code": "26710"
    },
    {
      "id": 28250,
      "district_id": 370,
      "name": "HANKARAAĞAÇ MAH",
      "area": "HAN",
      "postal_code": "26710"
    },
    {
      "id": 28251,
      "district_id": 370,
      "name": "HÜSREVPAŞA MAH",
      "area": "HAN",
      "postal_code": "26710"
    },
    {
      "id": 28252,
      "district_id": 370,
      "name": "İSKANKUYU MAH",
      "area": "HAN",
      "postal_code": "26710"
    },
    {
      "id": 28253,
      "district_id": 370,
      "name": "KAYI MAH",
      "area": "HAN",
      "postal_code": "26710"
    },
    {
      "id": 28254,
      "district_id": 370,
      "name": "PEÇENE MAH",
      "area": "HAN",
      "postal_code": "26710"
    },
    {
      "id": 28255,
      "district_id": 370,
      "name": "TEPEKÖY MAH",
      "area": "HAN",
      "postal_code": "26710"
    },
    {
      "id": 28256,
      "district_id": 370,
      "name": "YAZILI MAH",
      "area": "HAN",
      "postal_code": "26710"
    },
    {
      "id": 28257,
      "district_id": 371,
      "name": "AŞAĞIKUZFINDIK MAH",
      "area": "İNÖNÜ",
      "postal_code": "26670"
    },
    {
      "id": 28258,
      "district_id": 371,
      "name": "ÇARŞI MAH",
      "area": "İNÖNÜ",
      "postal_code": "26670"
    },
    {
      "id": 28259,
      "district_id": 371,
      "name": "DEREYALAK MAH",
      "area": "İNÖNÜ",
      "postal_code": "26670"
    },
    {
      "id": 28260,
      "district_id": 371,
      "name": "DUTLUCA MAH",
      "area": "İNÖNÜ",
      "postal_code": "26670"
    },
    {
      "id": 28261,
      "district_id": 371,
      "name": "ERENKÖY MAH",
      "area": "İNÖNÜ",
      "postal_code": "26670"
    },
    {
      "id": 28262,
      "district_id": 371,
      "name": "ESNEMEZ MAH",
      "area": "İNÖNÜ",
      "postal_code": "26670"
    },
    {
      "id": 28263,
      "district_id": 371,
      "name": "İSMETPAŞA MAH",
      "area": "İNÖNÜ",
      "postal_code": "26670"
    },
    {
      "id": 28264,
      "district_id": 371,
      "name": "KÜMBET MAH",
      "area": "İNÖNÜ",
      "postal_code": "26670"
    },
    {
      "id": 28265,
      "district_id": 371,
      "name": "KÜMBETAKPINAR MAH",
      "area": "İNÖNÜ",
      "postal_code": "26670"
    },
    {
      "id": 28266,
      "district_id": 371,
      "name": "KÜMBETYENİKÖY MAH",
      "area": "İNÖNÜ",
      "postal_code": "26670"
    },
    {
      "id": 28267,
      "district_id": 371,
      "name": "OKLUBALI MAH",
      "area": "İNÖNÜ",
      "postal_code": "26670"
    },
    {
      "id": 28268,
      "district_id": 371,
      "name": "ORTA MAH",
      "area": "İNÖNÜ",
      "postal_code": "26670"
    },
    {
      "id": 28269,
      "district_id": 371,
      "name": "SEYİTALİKÖYÜ MAH",
      "area": "İNÖNÜ",
      "postal_code": "26670"
    },
    {
      "id": 28270,
      "district_id": 371,
      "name": "YENİCE MAH",
      "area": "İNÖNÜ",
      "postal_code": "26670"
    },
    {
      "id": 28271,
      "district_id": 371,
      "name": "YUKARIKUZFINDIK MAH",
      "area": "İNÖNÜ",
      "postal_code": "26670"
    },
    {
      "id": 28272,
      "district_id": 371,
      "name": "YÜRÜKYAYLA MAH",
      "area": "İNÖNÜ",
      "postal_code": "26670"
    },
    {
      "id": 28273,
      "district_id": 372,
      "name": "AKYURT MAH",
      "area": "MAHMUDİYE",
      "postal_code": "26800"
    },
    {
      "id": 28274,
      "district_id": 372,
      "name": "BALÇIKHİSAR MAH",
      "area": "MAHMUDİYE",
      "postal_code": "26800"
    },
    {
      "id": 28275,
      "district_id": 372,
      "name": "ÇAL MAH",
      "area": "MAHMUDİYE",
      "postal_code": "26800"
    },
    {
      "id": 28276,
      "district_id": 372,
      "name": "DOĞANCA MAH",
      "area": "MAHMUDİYE",
      "postal_code": "26800"
    },
    {
      "id": 28277,
      "district_id": 372,
      "name": "FAHRİYE MAH",
      "area": "MAHMUDİYE",
      "postal_code": "26800"
    },
    {
      "id": 28278,
      "district_id": 372,
      "name": "GÜLLÜCE MAH",
      "area": "MAHMUDİYE",
      "postal_code": "26800"
    },
    {
      "id": 28279,
      "district_id": 372,
      "name": "HAMİDİYE MAH",
      "area": "MAHMUDİYE",
      "postal_code": "26800"
    },
    {
      "id": 28280,
      "district_id": 372,
      "name": "IŞIKLAR MAH",
      "area": "MAHMUDİYE",
      "postal_code": "26800"
    },
    {
      "id": 28281,
      "district_id": 372,
      "name": "İSMETPAŞA MAH",
      "area": "MAHMUDİYE",
      "postal_code": "26800"
    },
    {
      "id": 28282,
      "district_id": 372,
      "name": "KAYMAZYAYLA MAH",
      "area": "MAHMUDİYE",
      "postal_code": "26800"
    },
    {
      "id": 28283,
      "district_id": 372,
      "name": "MESUDİYE MAH",
      "area": "MAHMUDİYE",
      "postal_code": "26800"
    },
    {
      "id": 28284,
      "district_id": 372,
      "name": "ORTA MAH",
      "area": "MAHMUDİYE",
      "postal_code": "26800"
    },
    {
      "id": 28285,
      "district_id": 372,
      "name": "ŞEREFİYE MAH",
      "area": "MAHMUDİYE",
      "postal_code": "26800"
    },
    {
      "id": 28286,
      "district_id": 372,
      "name": "TOKATHAN MAH",
      "area": "MAHMUDİYE",
      "postal_code": "26800"
    },
    {
      "id": 28287,
      "district_id": 372,
      "name": "TOPKAYA MAH",
      "area": "MAHMUDİYE",
      "postal_code": "26800"
    },
    {
      "id": 28288,
      "district_id": 372,
      "name": "TÜRKMENMECİDİYE MAH",
      "area": "MAHMUDİYE",
      "postal_code": "26800"
    },
    {
      "id": 28289,
      "district_id": 372,
      "name": "YENİ MAH",
      "area": "MAHMUDİYE",
      "postal_code": "26800"
    },
    {
      "id": 28290,
      "district_id": 372,
      "name": "YENİKÖY MAH",
      "area": "MAHMUDİYE",
      "postal_code": "26800"
    },
    {
      "id": 28291,
      "district_id": 372,
      "name": "YEŞİLYURT MAH",
      "area": "MAHMUDİYE",
      "postal_code": "26800"
    },
    {
      "id": 28292,
      "district_id": 373,
      "name": "ALPAGUT MAH",
      "area": "MİHALGAZİ",
      "postal_code": "26880"
    },
    {
      "id": 28293,
      "district_id": 373,
      "name": "BOZANİÇ MAH",
      "area": "MİHALGAZİ",
      "postal_code": "26880"
    },
    {
      "id": 28294,
      "district_id": 373,
      "name": "CUMHURİYET MAH",
      "area": "MİHALGAZİ",
      "postal_code": "26880"
    },
    {
      "id": 28295,
      "district_id": 373,
      "name": "DEMİRCİLER MAH",
      "area": "MİHALGAZİ",
      "postal_code": "26880"
    },
    {
      "id": 28296,
      "district_id": 373,
      "name": "DOKUZ MAYIS MAH",
      "area": "MİHALGAZİ",
      "postal_code": "26880"
    },
    {
      "id": 28297,
      "district_id": 373,
      "name": "HÜRRİYET MAH",
      "area": "MİHALGAZİ",
      "postal_code": "26880"
    },
    {
      "id": 28298,
      "district_id": 373,
      "name": "İSTİKLAL MAH",
      "area": "MİHALGAZİ",
      "postal_code": "26880"
    },
    {
      "id": 28299,
      "district_id": 373,
      "name": "KARAOĞLAN MAH",
      "area": "MİHALGAZİ",
      "postal_code": "26880"
    },
    {
      "id": 28300,
      "district_id": 373,
      "name": "SAKARIILICA MAH",
      "area": "MİHALGAZİ",
      "postal_code": "26880"
    },
    {
      "id": 28301,
      "district_id": 374,
      "name": "ADAHİSAR MAH",
      "area": "DİNEK",
      "postal_code": "26940"
    },
    {
      "id": 28302,
      "district_id": 374,
      "name": "AHUR MAH",
      "area": "DİNEK",
      "postal_code": "26940"
    },
    {
      "id": 28303,
      "district_id": 374,
      "name": "AHURÖZÜ MAH",
      "area": "DİNEK",
      "postal_code": "26940"
    },
    {
      "id": 28304,
      "district_id": 374,
      "name": "AKÇAÖREN MAH",
      "area": "DİNEK",
      "postal_code": "26940"
    },
    {
      "id": 28305,
      "district_id": 374,
      "name": "AYDINLAR MAH",
      "area": "DİNEK",
      "postal_code": "26940"
    },
    {
      "id": 28306,
      "district_id": 374,
      "name": "BAHTİYAR MAH",
      "area": "DİNEK",
      "postal_code": "26940"
    },
    {
      "id": 28307,
      "district_id": 374,
      "name": "BELEN MAH",
      "area": "DİNEK",
      "postal_code": "26940"
    },
    {
      "id": 28308,
      "district_id": 374,
      "name": "BEY MAH",
      "area": "DİNEK",
      "postal_code": "26940"
    },
    {
      "id": 28309,
      "district_id": 374,
      "name": "ÇALÇI MAH",
      "area": "DİNEK",
      "postal_code": "26940"
    },
    {
      "id": 28310,
      "district_id": 374,
      "name": "ÇALKAYA MAH",
      "area": "DİNEK",
      "postal_code": "26940"
    },
    {
      "id": 28311,
      "district_id": 374,
      "name": "CAMİKEBİR MAH",
      "area": "DİNEK",
      "postal_code": "26940"
    },
    {
      "id": 28312,
      "district_id": 374,
      "name": "ÇARDAK MAH",
      "area": "DİNEK",
      "postal_code": "26940"
    },
    {
      "id": 28313,
      "district_id": 374,
      "name": "ÇUKURÖREN MAH",
      "area": "DİNEK",
      "postal_code": "26940"
    },
    {
      "id": 28314,
      "district_id": 374,
      "name": "DAĞCI MAH",
      "area": "DİNEK",
      "postal_code": "26940"
    },
    {
      "id": 28315,
      "district_id": 374,
      "name": "DİKÖZÜ MAH",
      "area": "DİNEK",
      "postal_code": "26940"
    },
    {
      "id": 28316,
      "district_id": 374,
      "name": "DİNEK MAH",
      "area": "DİNEK",
      "postal_code": "26940"
    },
    {
      "id": 28317,
      "district_id": 374,
      "name": "DÜMREK MAH",
      "area": "DİNEK",
      "postal_code": "26940"
    },
    {
      "id": 28318,
      "district_id": 374,
      "name": "GÖZELER MAH",
      "area": "DİNEK",
      "postal_code": "26940"
    },
    {
      "id": 28319,
      "district_id": 374,
      "name": "GÜCE MAH",
      "area": "DİNEK",
      "postal_code": "26940"
    },
    {
      "id": 28320,
      "district_id": 374,
      "name": "GÜREŞ MAH",
      "area": "DİNEK",
      "postal_code": "26940"
    },
    {
      "id": 28321,
      "district_id": 374,
      "name": "GÜRLEYİK MAH",
      "area": "DİNEK",
      "postal_code": "26940"
    },
    {
      "id": 28322,
      "district_id": 374,
      "name": "HAMİDİYE MAH",
      "area": "DİNEK",
      "postal_code": "26940"
    },
    {
      "id": 28323,
      "district_id": 374,
      "name": "İĞDECİK MAH",
      "area": "DİNEK",
      "postal_code": "26940"
    },
    {
      "id": 28324,
      "district_id": 374,
      "name": "İKİZAFER MAH",
      "area": "DİNEK",
      "postal_code": "26940"
    },
    {
      "id": 28325,
      "district_id": 374,
      "name": "ILICALAR MAH",
      "area": "DİNEK",
      "postal_code": "26940"
    },
    {
      "id": 28326,
      "district_id": 374,
      "name": "KARAÇAM MAH",
      "area": "DİNEK",
      "postal_code": "26940"
    },
    {
      "id": 28327,
      "district_id": 374,
      "name": "KARAGEYİKLİ MAH",
      "area": "DİNEK",
      "postal_code": "26940"
    },
    {
      "id": 28328,
      "district_id": 374,
      "name": "KAVAK MAH",
      "area": "DİNEK",
      "postal_code": "26940"
    },
    {
      "id": 28329,
      "district_id": 374,
      "name": "KAYI MAH",
      "area": "DİNEK",
      "postal_code": "26940"
    },
    {
      "id": 28330,
      "district_id": 374,
      "name": "KIZILBÖRÜKLÜ MAH",
      "area": "DİNEK",
      "postal_code": "26940"
    },
    {
      "id": 28331,
      "district_id": 374,
      "name": "KORUCU MAH",
      "area": "DİNEK",
      "postal_code": "26940"
    },
    {
      "id": 28332,
      "district_id": 374,
      "name": "KOYUNAĞILI MAH",
      "area": "DİNEK",
      "postal_code": "26940"
    },
    {
      "id": 28333,
      "district_id": 374,
      "name": "KOZLU MAH",
      "area": "DİNEK",
      "postal_code": "26940"
    },
    {
      "id": 28334,
      "district_id": 374,
      "name": "LÜTFİYE MAH",
      "area": "DİNEK",
      "postal_code": "26940"
    },
    {
      "id": 28335,
      "district_id": 374,
      "name": "MAHMUTHİSAR MAH",
      "area": "DİNEK",
      "postal_code": "26940"
    },
    {
      "id": 28336,
      "district_id": 374,
      "name": "MEDRESE MAH",
      "area": "DİNEK",
      "postal_code": "26940"
    },
    {
      "id": 28337,
      "district_id": 374,
      "name": "NARLI MAH",
      "area": "DİNEK",
      "postal_code": "26940"
    },
    {
      "id": 28338,
      "district_id": 374,
      "name": "OBRUK MAH",
      "area": "DİNEK",
      "postal_code": "26940"
    },
    {
      "id": 28339,
      "district_id": 374,
      "name": "ÖMER MAH",
      "area": "DİNEK",
      "postal_code": "26940"
    },
    {
      "id": 28340,
      "district_id": 374,
      "name": "OTLUK MAH",
      "area": "DİNEK",
      "postal_code": "26940"
    },
    {
      "id": 28341,
      "district_id": 374,
      "name": "SARAY MAH",
      "area": "DİNEK",
      "postal_code": "26940"
    },
    {
      "id": 28342,
      "district_id": 374,
      "name": "SAZAK MAH",
      "area": "DİNEK",
      "postal_code": "26940"
    },
    {
      "id": 28343,
      "district_id": 374,
      "name": "SEKİ MAH",
      "area": "DİNEK",
      "postal_code": "26940"
    },
    {
      "id": 28344,
      "district_id": 374,
      "name": "SEKİÖREN MAH",
      "area": "DİNEK",
      "postal_code": "26940"
    },
    {
      "id": 28345,
      "district_id": 374,
      "name": "SORKUN MAH",
      "area": "DİNEK",
      "postal_code": "26940"
    },
    {
      "id": 28346,
      "district_id": 374,
      "name": "SÜLELER MAH",
      "area": "DİNEK",
      "postal_code": "26940"
    },
    {
      "id": 28347,
      "district_id": 374,
      "name": "TATARCIK MAH",
      "area": "DİNEK",
      "postal_code": "26940"
    },
    {
      "id": 28348,
      "district_id": 374,
      "name": "ÜÇBAŞLI MAH",
      "area": "DİNEK",
      "postal_code": "26940"
    },
    {
      "id": 28349,
      "district_id": 374,
      "name": "UŞAKBÜKÜ MAH",
      "area": "DİNEK",
      "postal_code": "26940"
    },
    {
      "id": 28350,
      "district_id": 374,
      "name": "YALIMKAYA MAH",
      "area": "DİNEK",
      "postal_code": "26940"
    },
    {
      "id": 28351,
      "district_id": 374,
      "name": "YAYLA MAH",
      "area": "DİNEK",
      "postal_code": "26940"
    },
    {
      "id": 28352,
      "district_id": 374,
      "name": "YEŞİLYURT MAH",
      "area": "DİNEK",
      "postal_code": "26940"
    },
    {
      "id": 28353,
      "district_id": 374,
      "name": "YUNUSEMRE MAH",
      "area": "DİNEK",
      "postal_code": "26940"
    },
    {
      "id": 28354,
      "district_id": 376,
      "name": "BEYKÖY MAH",
      "area": "SARICAKAYA",
      "postal_code": "26870"
    },
    {
      "id": 28355,
      "district_id": 376,
      "name": "BEYYAYLA MAH",
      "area": "SARICAKAYA",
      "postal_code": "26870"
    },
    {
      "id": 28356,
      "district_id": 376,
      "name": "BİLAL HABEŞİ MAH",
      "area": "SARICAKAYA",
      "postal_code": "26870"
    },
    {
      "id": 28357,
      "district_id": 376,
      "name": "CAMİKEBİR MAH",
      "area": "SARICAKAYA",
      "postal_code": "26870"
    },
    {
      "id": 28358,
      "district_id": 376,
      "name": "DAĞKÜPLÜ MAH",
      "area": "SARICAKAYA",
      "postal_code": "26870"
    },
    {
      "id": 28359,
      "district_id": 376,
      "name": "DÜZKÖY MAH",
      "area": "SARICAKAYA",
      "postal_code": "26870"
    },
    {
      "id": 28360,
      "district_id": 376,
      "name": "FATİH MAH",
      "area": "SARICAKAYA",
      "postal_code": "26870"
    },
    {
      "id": 28361,
      "district_id": 376,
      "name": "GÜNEY MAH",
      "area": "SARICAKAYA",
      "postal_code": "26870"
    },
    {
      "id": 28362,
      "district_id": 376,
      "name": "İĞDİR MAH",
      "area": "SARICAKAYA",
      "postal_code": "26870"
    },
    {
      "id": 28363,
      "district_id": 376,
      "name": "KAPIKAYA MAH",
      "area": "SARICAKAYA",
      "postal_code": "26870"
    },
    {
      "id": 28364,
      "district_id": 376,
      "name": "LAÇİN MAH",
      "area": "SARICAKAYA",
      "postal_code": "26870"
    },
    {
      "id": 28365,
      "district_id": 376,
      "name": "MAYISLAR MAH",
      "area": "SARICAKAYA",
      "postal_code": "26870"
    },
    {
      "id": 28366,
      "district_id": 376,
      "name": "SARIKAYA MAH",
      "area": "SARICAKAYA",
      "postal_code": "26870"
    },
    {
      "id": 28367,
      "district_id": 376,
      "name": "YENİ MAH",
      "area": "SARICAKAYA",
      "postal_code": "26870"
    },
    {
      "id": 28368,
      "district_id": 377,
      "name": "AKİN MAH",
      "area": "SEYİTGAZİ",
      "postal_code": "26950"
    },
    {
      "id": 28369,
      "district_id": 377,
      "name": "AKSAKLI MAH",
      "area": "SEYİTGAZİ",
      "postal_code": "26950"
    },
    {
      "id": 28370,
      "district_id": 377,
      "name": "AŞAĞISÖĞÜT MAH",
      "area": "SEYİTGAZİ",
      "postal_code": "26950"
    },
    {
      "id": 28371,
      "district_id": 377,
      "name": "ASLANBEYLİ MAH",
      "area": "SEYİTGAZİ",
      "postal_code": "26950"
    },
    {
      "id": 28372,
      "district_id": 377,
      "name": "AYVALI MAH",
      "area": "SEYİTGAZİ",
      "postal_code": "26950"
    },
    {
      "id": 28373,
      "district_id": 377,
      "name": "BARDAKÇI MAH",
      "area": "SEYİTGAZİ",
      "postal_code": "26950"
    },
    {
      "id": 28374,
      "district_id": 377,
      "name": "BEŞSARAY MAH",
      "area": "SEYİTGAZİ",
      "postal_code": "26950"
    },
    {
      "id": 28375,
      "district_id": 377,
      "name": "BEYKIŞLA MAH",
      "area": "SEYİTGAZİ",
      "postal_code": "26950"
    },
    {
      "id": 28376,
      "district_id": 377,
      "name": "BÜYÜKDERE MAH",
      "area": "SEYİTGAZİ",
      "postal_code": "26950"
    },
    {
      "id": 28377,
      "district_id": 377,
      "name": "BÜYÜKYAYLA MAH",
      "area": "SEYİTGAZİ",
      "postal_code": "26950"
    },
    {
      "id": 28378,
      "district_id": 377,
      "name": "ÇATÖREN MAH",
      "area": "SEYİTGAZİ",
      "postal_code": "26950"
    },
    {
      "id": 28379,
      "district_id": 377,
      "name": "CEVİZLİ MAH",
      "area": "SEYİTGAZİ",
      "postal_code": "26950"
    },
    {
      "id": 28380,
      "district_id": 377,
      "name": "ÇUKURAĞIL MAH",
      "area": "SEYİTGAZİ",
      "postal_code": "26950"
    },
    {
      "id": 28381,
      "district_id": 377,
      "name": "ÇUKURCA MAH",
      "area": "SEYİTGAZİ",
      "postal_code": "26950"
    },
    {
      "id": 28382,
      "district_id": 377,
      "name": "ÇÜRÜTTÜM MAH",
      "area": "SEYİTGAZİ",
      "postal_code": "26950"
    },
    {
      "id": 28383,
      "district_id": 377,
      "name": "DEĞİŞÖREN MAH",
      "area": "SEYİTGAZİ",
      "postal_code": "26950"
    },
    {
      "id": 28384,
      "district_id": 377,
      "name": "DEREBENEK MAH",
      "area": "SEYİTGAZİ",
      "postal_code": "26950"
    },
    {
      "id": 28385,
      "district_id": 377,
      "name": "DOĞANÇAYIR MAH",
      "area": "SEYİTGAZİ",
      "postal_code": "26950"
    },
    {
      "id": 28386,
      "district_id": 377,
      "name": "FETHİYE MAH",
      "area": "SEYİTGAZİ",
      "postal_code": "26950"
    },
    {
      "id": 28387,
      "district_id": 377,
      "name": "GEMİÇ MAH",
      "area": "SEYİTGAZİ",
      "postal_code": "26950"
    },
    {
      "id": 28388,
      "district_id": 377,
      "name": "GÖCENOLUK MAH",
      "area": "SEYİTGAZİ",
      "postal_code": "26950"
    },
    {
      "id": 28389,
      "district_id": 377,
      "name": "GÖKBAHÇE MAH",
      "area": "SEYİTGAZİ",
      "postal_code": "26950"
    },
    {
      "id": 28390,
      "district_id": 377,
      "name": "GÖKÇEGÜNEY MAH",
      "area": "SEYİTGAZİ",
      "postal_code": "26950"
    },
    {
      "id": 28391,
      "district_id": 377,
      "name": "GÖKNEBİ MAH",
      "area": "SEYİTGAZİ",
      "postal_code": "26950"
    },
    {
      "id": 28392,
      "district_id": 377,
      "name": "GÜMÜŞBEL MAH",
      "area": "SEYİTGAZİ",
      "postal_code": "26950"
    },
    {
      "id": 28393,
      "district_id": 377,
      "name": "İDRİSYAYLA MAH",
      "area": "SEYİTGAZİ",
      "postal_code": "26950"
    },
    {
      "id": 28394,
      "district_id": 377,
      "name": "İKİÇEŞME MAH",
      "area": "SEYİTGAZİ",
      "postal_code": "26950"
    },
    {
      "id": 28395,
      "district_id": 377,
      "name": "İKİZOLUK MAH",
      "area": "SEYİTGAZİ",
      "postal_code": "26950"
    },
    {
      "id": 28396,
      "district_id": 377,
      "name": "KARACALIK MAH",
      "area": "SEYİTGAZİ",
      "postal_code": "26950"
    },
    {
      "id": 28397,
      "district_id": 377,
      "name": "KARAÖREN MAH",
      "area": "SEYİTGAZİ",
      "postal_code": "26950"
    },
    {
      "id": 28398,
      "district_id": 377,
      "name": "KESENLER MAH",
      "area": "SEYİTGAZİ",
      "postal_code": "26950"
    },
    {
      "id": 28399,
      "district_id": 377,
      "name": "KIRKA MAH",
      "area": "SEYİTGAZİ",
      "postal_code": "26950"
    },
    {
      "id": 28400,
      "district_id": 377,
      "name": "KÜMBET MAH",
      "area": "SEYİTGAZİ",
      "postal_code": "26950"
    },
    {
      "id": 28401,
      "district_id": 377,
      "name": "NUMANOLUK MAH",
      "area": "SEYİTGAZİ",
      "postal_code": "26950"
    },
    {
      "id": 28402,
      "district_id": 377,
      "name": "ÖRENCİK MAH",
      "area": "SEYİTGAZİ",
      "postal_code": "26950"
    },
    {
      "id": 28403,
      "district_id": 377,
      "name": "OYNAŞ MAH",
      "area": "SEYİTGAZİ",
      "postal_code": "26950"
    },
    {
      "id": 28404,
      "district_id": 377,
      "name": "SALİHLER MAH",
      "area": "SEYİTGAZİ",
      "postal_code": "26950"
    },
    {
      "id": 28405,
      "district_id": 377,
      "name": "SANCAR MAH",
      "area": "SEYİTGAZİ",
      "postal_code": "26950"
    },
    {
      "id": 28406,
      "district_id": 377,
      "name": "SANDIKÖZÜ MAH",
      "area": "SEYİTGAZİ",
      "postal_code": "26950"
    },
    {
      "id": 28407,
      "district_id": 377,
      "name": "SARAYÖREN MAH",
      "area": "SEYİTGAZİ",
      "postal_code": "26950"
    },
    {
      "id": 28408,
      "district_id": 377,
      "name": "SARICAİLYAS MAH",
      "area": "SEYİTGAZİ",
      "postal_code": "26950"
    },
    {
      "id": 28409,
      "district_id": 377,
      "name": "ŞÜKRANLI MAH",
      "area": "SEYİTGAZİ",
      "postal_code": "26950"
    },
    {
      "id": 28410,
      "district_id": 377,
      "name": "TAŞLIKKÖY MAH",
      "area": "SEYİTGAZİ",
      "postal_code": "26950"
    },
    {
      "id": 28411,
      "district_id": 377,
      "name": "ÜÇSARAY MAH",
      "area": "SEYİTGAZİ",
      "postal_code": "26950"
    },
    {
      "id": 28412,
      "district_id": 377,
      "name": "YAPILDAK MAH",
      "area": "SEYİTGAZİ",
      "postal_code": "26950"
    },
    {
      "id": 28413,
      "district_id": 377,
      "name": "YARBASAN MAH",
      "area": "SEYİTGAZİ",
      "postal_code": "26950"
    },
    {
      "id": 28414,
      "district_id": 377,
      "name": "YAZIDERE MAH",
      "area": "SEYİTGAZİ",
      "postal_code": "26950"
    },
    {
      "id": 28415,
      "district_id": 377,
      "name": "YENİKENT MAH",
      "area": "SEYİTGAZİ",
      "postal_code": "26950"
    },
    {
      "id": 28416,
      "district_id": 377,
      "name": "YEŞİLTEPE MAH",
      "area": "SEYİTGAZİ",
      "postal_code": "26950"
    },
    {
      "id": 28417,
      "district_id": 377,
      "name": "YUKARISÖĞÜT MAH",
      "area": "SEYİTGAZİ",
      "postal_code": "26950"
    },
    {
      "id": 28418,
      "district_id": 377,
      "name": "YUNUS MAH",
      "area": "SEYİTGAZİ",
      "postal_code": "26950"
    },
    {
      "id": 28419,
      "district_id": 378,
      "name": "AHİLER MAH",
      "area": "SİVRİHİSAR",
      "postal_code": "26600"
    },
    {
      "id": 28420,
      "district_id": 378,
      "name": "AKTAŞ MAH",
      "area": "SİVRİHİSAR",
      "postal_code": "26600"
    },
    {
      "id": 28421,
      "district_id": 378,
      "name": "AŞAĞIKEPEN MAH",
      "area": "SİVRİHİSAR",
      "postal_code": "26600"
    },
    {
      "id": 28422,
      "district_id": 378,
      "name": "AYDINLI MAH",
      "area": "SİVRİHİSAR",
      "postal_code": "26600"
    },
    {
      "id": 28423,
      "district_id": 378,
      "name": "BABADAT MAH",
      "area": "SİVRİHİSAR",
      "postal_code": "26600"
    },
    {
      "id": 28424,
      "district_id": 378,
      "name": "BAHÇECİK MAH",
      "area": "SİVRİHİSAR",
      "postal_code": "26600"
    },
    {
      "id": 28425,
      "district_id": 378,
      "name": "BALLIHİSAR MAH",
      "area": "SİVRİHİSAR",
      "postal_code": "26600"
    },
    {
      "id": 28426,
      "district_id": 378,
      "name": "BENLİKUYU MAH",
      "area": "SİVRİHİSAR",
      "postal_code": "26600"
    },
    {
      "id": 28427,
      "district_id": 378,
      "name": "BENLİYAVER MAH",
      "area": "SİVRİHİSAR",
      "postal_code": "26600"
    },
    {
      "id": 28428,
      "district_id": 378,
      "name": "BEYYAZI MAH",
      "area": "SİVRİHİSAR",
      "postal_code": "26600"
    },
    {
      "id": 28429,
      "district_id": 378,
      "name": "BİÇER MAH",
      "area": "SİVRİHİSAR",
      "postal_code": "26600"
    },
    {
      "id": 28430,
      "district_id": 378,
      "name": "BÖĞÜRTLEN MAH",
      "area": "SİVRİHİSAR",
      "postal_code": "26600"
    },
    {
      "id": 28431,
      "district_id": 378,
      "name": "BUHARA MAH",
      "area": "SİVRİHİSAR",
      "postal_code": "26600"
    },
    {
      "id": 28432,
      "district_id": 378,
      "name": "BUZLUCA MAH",
      "area": "SİVRİHİSAR",
      "postal_code": "26600"
    },
    {
      "id": 28433,
      "district_id": 378,
      "name": "CAMİKEBİR MAH",
      "area": "SİVRİHİSAR",
      "postal_code": "26600"
    },
    {
      "id": 28434,
      "district_id": 378,
      "name": "ÇANDIR MAH",
      "area": "SİVRİHİSAR",
      "postal_code": "26600"
    },
    {
      "id": 28435,
      "district_id": 378,
      "name": "ÇAYKOZ MAH",
      "area": "SİVRİHİSAR",
      "postal_code": "26600"
    },
    {
      "id": 28436,
      "district_id": 378,
      "name": "CUMHURİYET MAH",
      "area": "SİVRİHİSAR",
      "postal_code": "26600"
    },
    {
      "id": 28437,
      "district_id": 378,
      "name": "DEMİRCİ MAH",
      "area": "SİVRİHİSAR",
      "postal_code": "26600"
    },
    {
      "id": 28438,
      "district_id": 378,
      "name": "DEMİRCİKÖY MAH",
      "area": "SİVRİHİSAR",
      "postal_code": "26600"
    },
    {
      "id": 28439,
      "district_id": 378,
      "name": "DİNEK MAH",
      "area": "SİVRİHİSAR",
      "postal_code": "26600"
    },
    {
      "id": 28440,
      "district_id": 378,
      "name": "DUMLUCA MAH",
      "area": "SİVRİHİSAR",
      "postal_code": "26600"
    },
    {
      "id": 28441,
      "district_id": 378,
      "name": "DÜMREK MAH",
      "area": "SİVRİHİSAR",
      "postal_code": "26600"
    },
    {
      "id": 28442,
      "district_id": 378,
      "name": "ELCİK MAH",
      "area": "SİVRİHİSAR",
      "postal_code": "26600"
    },
    {
      "id": 28443,
      "district_id": 378,
      "name": "ELMALI MAH",
      "area": "SİVRİHİSAR",
      "postal_code": "26600"
    },
    {
      "id": 28444,
      "district_id": 378,
      "name": "ERTUĞRULKÖY MAH",
      "area": "SİVRİHİSAR",
      "postal_code": "26600"
    },
    {
      "id": 28445,
      "district_id": 378,
      "name": "GEDİK MAH",
      "area": "SİVRİHİSAR",
      "postal_code": "26600"
    },
    {
      "id": 28446,
      "district_id": 378,
      "name": "GERENLİ MAH",
      "area": "SİVRİHİSAR",
      "postal_code": "26600"
    },
    {
      "id": 28447,
      "district_id": 378,
      "name": "GÖKTEPE MAH",
      "area": "SİVRİHİSAR",
      "postal_code": "26600"
    },
    {
      "id": 28448,
      "district_id": 378,
      "name": "GÜLÇAYIR MAH",
      "area": "SİVRİHİSAR",
      "postal_code": "26600"
    },
    {
      "id": 28449,
      "district_id": 378,
      "name": "GÜVEMLİ MAH",
      "area": "SİVRİHİSAR",
      "postal_code": "26600"
    },
    {
      "id": 28450,
      "district_id": 378,
      "name": "HAMAMKARAHİSAR MAH",
      "area": "SİVRİHİSAR",
      "postal_code": "26600"
    },
    {
      "id": 28451,
      "district_id": 378,
      "name": "HIZIRBEY MAH",
      "area": "SİVRİHİSAR",
      "postal_code": "26600"
    },
    {
      "id": 28452,
      "district_id": 378,
      "name": "HÜDAVENDİGAR MAH",
      "area": "SİVRİHİSAR",
      "postal_code": "26600"
    },
    {
      "id": 28453,
      "district_id": 378,
      "name": "İBİKSEYDİ MAH",
      "area": "SİVRİHİSAR",
      "postal_code": "26600"
    },
    {
      "id": 28454,
      "district_id": 378,
      "name": "İĞDECİK MAH",
      "area": "SİVRİHİSAR",
      "postal_code": "26600"
    },
    {
      "id": 28455,
      "district_id": 378,
      "name": "İLÖREN MAH",
      "area": "SİVRİHİSAR",
      "postal_code": "26600"
    },
    {
      "id": 28456,
      "district_id": 378,
      "name": "İLYASPAŞA MAH",
      "area": "SİVRİHİSAR",
      "postal_code": "26600"
    },
    {
      "id": 28457,
      "district_id": 378,
      "name": "İSTİKLALBAĞI MAH",
      "area": "SİVRİHİSAR",
      "postal_code": "26600"
    },
    {
      "id": 28458,
      "district_id": 378,
      "name": "KADINCIK MAH",
      "area": "SİVRİHİSAR",
      "postal_code": "26600"
    },
    {
      "id": 28459,
      "district_id": 378,
      "name": "KALDIRIMKÖY MAH",
      "area": "SİVRİHİSAR",
      "postal_code": "26600"
    },
    {
      "id": 28460,
      "district_id": 378,
      "name": "KARABAŞLI MAH",
      "area": "SİVRİHİSAR",
      "postal_code": "26600"
    },
    {
      "id": 28461,
      "district_id": 378,
      "name": "KARABURHAN MAH",
      "area": "SİVRİHİSAR",
      "postal_code": "26600"
    },
    {
      "id": 28462,
      "district_id": 378,
      "name": "KARACAKAYA MAH",
      "area": "SİVRİHİSAR",
      "postal_code": "26600"
    },
    {
      "id": 28463,
      "district_id": 378,
      "name": "KARACALAR MAH",
      "area": "SİVRİHİSAR",
      "postal_code": "26600"
    },
    {
      "id": 28464,
      "district_id": 378,
      "name": "KARACAÖREN MAH",
      "area": "SİVRİHİSAR",
      "postal_code": "26600"
    },
    {
      "id": 28465,
      "district_id": 378,
      "name": "KARACAÖRENYAYLASI MAH",
      "area": "SİVRİHİSAR",
      "postal_code": "26600"
    },
    {
      "id": 28466,
      "district_id": 378,
      "name": "KARADAT MAH",
      "area": "SİVRİHİSAR",
      "postal_code": "26600"
    },
    {
      "id": 28467,
      "district_id": 378,
      "name": "KARAKAYA MAH",
      "area": "SİVRİHİSAR",
      "postal_code": "26600"
    },
    {
      "id": 28468,
      "district_id": 378,
      "name": "KARKIN MAH",
      "area": "SİVRİHİSAR",
      "postal_code": "26600"
    },
    {
      "id": 28469,
      "district_id": 378,
      "name": "KAYMAZ MAH",
      "area": "SİVRİHİSAR",
      "postal_code": "26600"
    },
    {
      "id": 28470,
      "district_id": 378,
      "name": "KERTEK MAH",
      "area": "SİVRİHİSAR",
      "postal_code": "26600"
    },
    {
      "id": 28471,
      "district_id": 378,
      "name": "KILIÇ MAH",
      "area": "SİVRİHİSAR",
      "postal_code": "26600"
    },
    {
      "id": 28472,
      "district_id": 378,
      "name": "KINIK MAH",
      "area": "SİVRİHİSAR",
      "postal_code": "26600"
    },
    {
      "id": 28473,
      "district_id": 378,
      "name": "KOÇAŞ MAH",
      "area": "SİVRİHİSAR",
      "postal_code": "26600"
    },
    {
      "id": 28474,
      "district_id": 378,
      "name": "KOLTAN MAH",
      "area": "SİVRİHİSAR",
      "postal_code": "26600"
    },
    {
      "id": 28475,
      "district_id": 378,
      "name": "KUBBELİ MAH",
      "area": "SİVRİHİSAR",
      "postal_code": "26600"
    },
    {
      "id": 28476,
      "district_id": 378,
      "name": "KURŞUNLU MAH",
      "area": "SİVRİHİSAR",
      "postal_code": "26600"
    },
    {
      "id": 28477,
      "district_id": 378,
      "name": "KURTŞEYH MAH",
      "area": "SİVRİHİSAR",
      "postal_code": "26600"
    },
    {
      "id": 28478,
      "district_id": 378,
      "name": "MEMİK MAH",
      "area": "SİVRİHİSAR",
      "postal_code": "26600"
    },
    {
      "id": 28479,
      "district_id": 378,
      "name": "MÜLKKÖY MAH",
      "area": "SİVRİHİSAR",
      "postal_code": "26600"
    },
    {
      "id": 28480,
      "district_id": 378,
      "name": "NASRETTİN HOCA MAH",
      "area": "SİVRİHİSAR",
      "postal_code": "26600"
    },
    {
      "id": 28481,
      "district_id": 378,
      "name": "OĞLAKÇI MAH",
      "area": "SİVRİHİSAR",
      "postal_code": "26600"
    },
    {
      "id": 28482,
      "district_id": 378,
      "name": "ORTAKLAR MAH",
      "area": "SİVRİHİSAR",
      "postal_code": "26600"
    },
    {
      "id": 28483,
      "district_id": 378,
      "name": "PAŞAKADIN MAH",
      "area": "SİVRİHİSAR",
      "postal_code": "26600"
    },
    {
      "id": 28484,
      "district_id": 378,
      "name": "SADIKBAĞI MAH",
      "area": "SİVRİHİSAR",
      "postal_code": "26600"
    },
    {
      "id": 28485,
      "district_id": 378,
      "name": "SARIKAVAK MAH",
      "area": "SİVRİHİSAR",
      "postal_code": "26600"
    },
    {
      "id": 28486,
      "district_id": 378,
      "name": "SELİMİYE MAH",
      "area": "SİVRİHİSAR",
      "postal_code": "26600"
    },
    {
      "id": 28487,
      "district_id": 378,
      "name": "SIĞIRCIK MAH",
      "area": "SİVRİHİSAR",
      "postal_code": "26600"
    },
    {
      "id": 28488,
      "district_id": 378,
      "name": "TEKÖREN MAH",
      "area": "SİVRİHİSAR",
      "postal_code": "26600"
    },
    {
      "id": 28489,
      "district_id": 378,
      "name": "YAVERÖREN MAH",
      "area": "SİVRİHİSAR",
      "postal_code": "26600"
    },
    {
      "id": 28490,
      "district_id": 378,
      "name": "YENİCE MAH",
      "area": "SİVRİHİSAR",
      "postal_code": "26600"
    },
    {
      "id": 28491,
      "district_id": 378,
      "name": "YENİDOĞAN MAH",
      "area": "SİVRİHİSAR",
      "postal_code": "26600"
    },
    {
      "id": 28492,
      "district_id": 378,
      "name": "YENİKÖY MAH",
      "area": "SİVRİHİSAR",
      "postal_code": "26600"
    },
    {
      "id": 28493,
      "district_id": 378,
      "name": "YEŞİLKÖY MAH",
      "area": "SİVRİHİSAR",
      "postal_code": "26600"
    },
    {
      "id": 28494,
      "district_id": 378,
      "name": "YUKARIKEPEN MAH",
      "area": "SİVRİHİSAR",
      "postal_code": "26600"
    },
    {
      "id": 28495,
      "district_id": 378,
      "name": "YUNUSEMRE MAH",
      "area": "SİVRİHİSAR",
      "postal_code": "26600"
    },
    {
      "id": 28496,
      "district_id": 378,
      "name": "ZEYKÖYÜ MAH",
      "area": "SİVRİHİSAR",
      "postal_code": "26600"
    },
    {
      "id": 28497,
      "district_id": 379,
      "name": "AHILAR MAH",
      "area": "TEPEBAŞIKÖY",
      "postal_code": "26005"
    },
    {
      "id": 28498,
      "district_id": 379,
      "name": "ALINCA MAH",
      "area": "YEŞİLTEPE",
      "postal_code": "26210"
    },
    {
      "id": 28499,
      "district_id": 379,
      "name": "AŞAĞI SÖĞÜTÖNÜ MAH",
      "area": "YEŞİLTEPE",
      "postal_code": "26210"
    },
    {
      "id": 28500,
      "district_id": 379,
      "name": "AŞAĞIKARTAL MAH",
      "area": "ÇUKURHİSAR",
      "postal_code": "26563"
    },
    {
      "id": 28501,
      "district_id": 379,
      "name": "ATALAN MAH",
      "area": "TEPEBAŞIKÖY",
      "postal_code": "26005"
    },
    {
      "id": 28502,
      "district_id": 379,
      "name": "ATALANTEKKE MAH",
      "area": "TEPEBAŞIKÖY",
      "postal_code": "26005"
    },
    {
      "id": 28503,
      "district_id": 379,
      "name": "AVLAMIŞ MAH",
      "area": "TEPEBAŞIKÖY",
      "postal_code": "26005"
    },
    {
      "id": 28504,
      "district_id": 379,
      "name": "BAHÇELİEVLER MAH",
      "area": "BAHÇELİEVLER",
      "postal_code": "26170"
    },
    {
      "id": 28505,
      "district_id": 379,
      "name": "BATIKENT MAH",
      "area": "ÇAMLICA",
      "postal_code": "26180"
    },
    {
      "id": 28506,
      "district_id": 379,
      "name": "BEHÇETİYE MAH",
      "area": "TEPEBAŞIKÖY",
      "postal_code": "26005"
    },
    {
      "id": 28507,
      "district_id": 379,
      "name": "BEKTAŞPINARI MAH",
      "area": "TEPEBAŞIKÖY",
      "postal_code": "26005"
    },
    {
      "id": 28508,
      "district_id": 379,
      "name": "BEYAZALTIN MAH",
      "area": "TEPEBAŞIKÖY",
      "postal_code": "26005"
    },
    {
      "id": 28509,
      "district_id": 379,
      "name": "BOYACIOĞLU MAH",
      "area": "ÇUKURHİSAR",
      "postal_code": "26563"
    },
    {
      "id": 28510,
      "district_id": 379,
      "name": "BOZDAĞ MAH",
      "area": "TEPEBAŞIKÖY",
      "postal_code": "26005"
    },
    {
      "id": 28511,
      "district_id": 379,
      "name": "BULDUKPINAR MAH",
      "area": "TEPEBAŞIKÖY",
      "postal_code": "26005"
    },
    {
      "id": 28512,
      "district_id": 379,
      "name": "ÇALKARA MAH",
      "area": "TEPEBAŞIKÖY",
      "postal_code": "26005"
    },
    {
      "id": 28513,
      "district_id": 379,
      "name": "ÇAMLICA MAH",
      "area": "ÇAMLICA",
      "postal_code": "26180"
    },
    {
      "id": 28514,
      "district_id": 379,
      "name": "ÇANAKKIRAN MAH",
      "area": "TEPEBAŞIKÖY",
      "postal_code": "26005"
    },
    {
      "id": 28515,
      "district_id": 379,
      "name": "ÇUKURHİSAR YENİ MAH",
      "area": "ÇUKURHİSAR",
      "postal_code": "26563"
    },
    {
      "id": 28516,
      "district_id": 379,
      "name": "CUMHURİYE MAH",
      "area": "CUMHURİYE",
      "postal_code": "26130"
    },
    {
      "id": 28517,
      "district_id": 379,
      "name": "CUMHURİYET MAH",
      "area": "TEPEBAŞIKÖY",
      "postal_code": "26005"
    },
    {
      "id": 28518,
      "district_id": 379,
      "name": "DANİŞMENT MAH",
      "area": "TEPEBAŞIKÖY",
      "postal_code": "26005"
    },
    {
      "id": 28519,
      "district_id": 379,
      "name": "EĞRİÖZ MAH",
      "area": "ÇUKURHİSAR",
      "postal_code": "26563"
    },
    {
      "id": 28520,
      "district_id": 379,
      "name": "EMİRCEOĞLU MAH",
      "area": "MUTTALİP",
      "postal_code": "26555"
    },
    {
      "id": 28521,
      "district_id": 379,
      "name": "ERTUĞRULGAZİ MAH",
      "area": "SAZOVA",
      "postal_code": "26150"
    },
    {
      "id": 28522,
      "district_id": 379,
      "name": "ESENTEPE MAH",
      "area": "YEŞİLTEPE",
      "postal_code": "26210"
    },
    {
      "id": 28523,
      "district_id": 379,
      "name": "ESKİBAĞLAR MAH",
      "area": "BAHÇELİEVLER",
      "postal_code": "26170"
    },
    {
      "id": 28524,
      "district_id": 379,
      "name": "FATİH MAH",
      "area": "FATİH",
      "postal_code": "26220"
    },
    {
      "id": 28525,
      "district_id": 379,
      "name": "FEVZİÇAKMAK MAH",
      "area": "FEVZİÇAKMAK",
      "postal_code": "26230"
    },
    {
      "id": 28526,
      "district_id": 379,
      "name": "GAZİPAŞA MAH",
      "area": "MUTTALİP",
      "postal_code": "26555"
    },
    {
      "id": 28527,
      "district_id": 379,
      "name": "GÖKÇEKISIK MAH",
      "area": "TEPEBAŞIKÖY",
      "postal_code": "26005"
    },
    {
      "id": 28528,
      "district_id": 379,
      "name": "GÖKDERE MAH",
      "area": "ÇUKURHİSAR",
      "postal_code": "26563"
    },
    {
      "id": 28529,
      "district_id": 379,
      "name": "GÜLLÜK MAH",
      "area": "BAHÇELİEVLER",
      "postal_code": "26170"
    },
    {
      "id": 28530,
      "district_id": 379,
      "name": "GÜNDÜZLER MAH",
      "area": "TEPEBAŞIKÖY",
      "postal_code": "26005"
    },
    {
      "id": 28531,
      "district_id": 379,
      "name": "HACI ALİ BEY MAH",
      "area": "HACIALİBEY",
      "postal_code": "26120"
    },
    {
      "id": 28532,
      "district_id": 379,
      "name": "HACI SEYİT MAH",
      "area": "HACIALİBEY",
      "postal_code": "26120"
    },
    {
      "id": 28533,
      "district_id": 379,
      "name": "HASANBEY MAH",
      "area": "ÇUKURHİSAR",
      "postal_code": "26563"
    },
    {
      "id": 28534,
      "district_id": 379,
      "name": "HAYRİYE MAH",
      "area": "HACIALİBEY",
      "postal_code": "26120"
    },
    {
      "id": 28535,
      "district_id": 379,
      "name": "HEKİMDAĞ MAH",
      "area": "TEPEBAŞIKÖY",
      "postal_code": "26005"
    },
    {
      "id": 28536,
      "district_id": 379,
      "name": "HİSAR MAH",
      "area": "ÇUKURHİSAR",
      "postal_code": "26563"
    },
    {
      "id": 28537,
      "district_id": 379,
      "name": "HOŞNUDİYE MAH",
      "area": "CUMHURİYE",
      "postal_code": "26130"
    },
    {
      "id": 28538,
      "district_id": 379,
      "name": "İHSANİYE MAH",
      "area": "HACIALİBEY",
      "postal_code": "26120"
    },
    {
      "id": 28539,
      "district_id": 379,
      "name": "IŞIKLAR MAH",
      "area": "HACIALİBEY",
      "postal_code": "26120"
    },
    {
      "id": 28540,
      "district_id": 379,
      "name": "KARAÇOBANPINARI MAH",
      "area": "TEPEBAŞIKÖY",
      "postal_code": "26005"
    },
    {
      "id": 28541,
      "district_id": 379,
      "name": "KARADERE MAH",
      "area": "TEPEBAŞIKÖY",
      "postal_code": "26005"
    },
    {
      "id": 28542,
      "district_id": 379,
      "name": "KARAGÖZLER MAH",
      "area": "TEPEBAŞIKÖY",
      "postal_code": "26005"
    },
    {
      "id": 28543,
      "district_id": 379,
      "name": "KAVACIK MAH",
      "area": "ÇUKURHİSAR",
      "postal_code": "26563"
    },
    {
      "id": 28544,
      "district_id": 379,
      "name": "KESKİN MAH",
      "area": "ÇUKURHİSAR",
      "postal_code": "26563"
    },
    {
      "id": 28545,
      "district_id": 379,
      "name": "KIZILCAÖREN MAH",
      "area": "TEPEBAŞIKÖY",
      "postal_code": "26005"
    },
    {
      "id": 28546,
      "district_id": 379,
      "name": "KIZILİNLER MAH",
      "area": "TEPEBAŞIKÖY",
      "postal_code": "26005"
    },
    {
      "id": 28547,
      "district_id": 379,
      "name": "KOZKAYI MAH",
      "area": "ÇUKURHİSAR",
      "postal_code": "26563"
    },
    {
      "id": 28548,
      "district_id": 379,
      "name": "KOZLUBEL MAH",
      "area": "TEPEBAŞIKÖY",
      "postal_code": "26005"
    },
    {
      "id": 28549,
      "district_id": 379,
      "name": "KUMLUBEL MAH",
      "area": "FATİH",
      "postal_code": "26220"
    },
    {
      "id": 28550,
      "district_id": 379,
      "name": "MAMURE MAH",
      "area": "HACIALİBEY",
      "postal_code": "26120"
    },
    {
      "id": 28551,
      "district_id": 379,
      "name": "MERKEZ YENİ MAH",
      "area": "HACIALİBEY",
      "postal_code": "26120"
    },
    {
      "id": 28552,
      "district_id": 379,
      "name": "MOLLAOĞLU MAH",
      "area": "TEPEBAŞIKÖY",
      "postal_code": "26005"
    },
    {
      "id": 28553,
      "district_id": 379,
      "name": "MUSAÖZÜ MAH",
      "area": "TEPEBAŞIKÖY",
      "postal_code": "26005"
    },
    {
      "id": 28554,
      "district_id": 379,
      "name": "MUSTAFA KEMAL PAŞA MAH",
      "area": "HACIALİBEY",
      "postal_code": "26120"
    },
    {
      "id": 28555,
      "district_id": 379,
      "name": "MUTTALİP EMİRLER MAH",
      "area": "MUTTALİP",
      "postal_code": "26555"
    },
    {
      "id": 28556,
      "district_id": 379,
      "name": "MUTTALİP KOYUNLAR MAH",
      "area": "MUTTALİP",
      "postal_code": "26555"
    },
    {
      "id": 28557,
      "district_id": 379,
      "name": "MUTTALİP ORTA MAH",
      "area": "MUTTALİP",
      "postal_code": "26555"
    },
    {
      "id": 28558,
      "district_id": 379,
      "name": "NEMLİ MAH",
      "area": "TEPEBAŞIKÖY",
      "postal_code": "26005"
    },
    {
      "id": 28559,
      "district_id": 379,
      "name": "ÖMERAĞA MAH",
      "area": "FATİH",
      "postal_code": "26220"
    },
    {
      "id": 28560,
      "district_id": 379,
      "name": "SAKİNTEPE MAH",
      "area": "MUTTALİP",
      "postal_code": "26555"
    },
    {
      "id": 28561,
      "district_id": 379,
      "name": "ŞARHÖYÜK MAH",
      "area": "FEVZİÇAKMAK",
      "postal_code": "26230"
    },
    {
      "id": 28562,
      "district_id": 379,
      "name": "SATILMIŞOĞLU MAH",
      "area": "ÇUKURHİSAR",
      "postal_code": "26563"
    },
    {
      "id": 28563,
      "district_id": 379,
      "name": "SAZOVA MAH",
      "area": "SAZOVA",
      "postal_code": "26150"
    },
    {
      "id": 28564,
      "district_id": 379,
      "name": "ŞEKER MAH",
      "area": "HACIALİBEY",
      "postal_code": "26120"
    },
    {
      "id": 28565,
      "district_id": 379,
      "name": "ŞİRİNTEPE MAH",
      "area": "YEŞİLTEPE",
      "postal_code": "26210"
    },
    {
      "id": 28566,
      "district_id": 379,
      "name": "SULUKARAAĞAÇ MAH",
      "area": "TEPEBAŞIKÖY",
      "postal_code": "26005"
    },
    {
      "id": 28567,
      "district_id": 379,
      "name": "SÜTLÜCE MAH",
      "area": "YEŞİLTEPE",
      "postal_code": "26210"
    },
    {
      "id": 28568,
      "district_id": 379,
      "name": "TAKMAK MAH",
      "area": "TEPEBAŞIKÖY",
      "postal_code": "26005"
    },
    {
      "id": 28569,
      "district_id": 379,
      "name": "TANDIR MAH",
      "area": "TEPEBAŞIKÖY",
      "postal_code": "26005"
    },
    {
      "id": 28570,
      "district_id": 379,
      "name": "TAYCILAR MAH",
      "area": "TEPEBAŞIKÖY",
      "postal_code": "26005"
    },
    {
      "id": 28571,
      "district_id": 379,
      "name": "TEKECİLER MAH",
      "area": "TEPEBAŞIKÖY",
      "postal_code": "26005"
    },
    {
      "id": 28572,
      "district_id": 379,
      "name": "TUNALI MAH",
      "area": "FATİH",
      "postal_code": "26220"
    },
    {
      "id": 28573,
      "district_id": 379,
      "name": "TURGUTLAR MAH",
      "area": "TEPEBAŞIKÖY",
      "postal_code": "26005"
    },
    {
      "id": 28574,
      "district_id": 379,
      "name": "ULUDERE MAH",
      "area": "TEPEBAŞIKÖY",
      "postal_code": "26005"
    },
    {
      "id": 28575,
      "district_id": 379,
      "name": "ULUÖNDER MAH",
      "area": "ULUÖNDER",
      "postal_code": "26190"
    },
    {
      "id": 28576,
      "district_id": 379,
      "name": "YAKAKAYI MAH",
      "area": "TEPEBAŞIKÖY",
      "postal_code": "26005"
    },
    {
      "id": 28577,
      "district_id": 379,
      "name": "YARIMCA MAH",
      "area": "TEPEBAŞIKÖY",
      "postal_code": "26005"
    },
    {
      "id": 28578,
      "district_id": 379,
      "name": "YAŞAMKENT MAH",
      "area": "YEŞİLTEPE",
      "postal_code": "26210"
    },
    {
      "id": 28579,
      "district_id": 379,
      "name": "YENİAKÇAYIR MAH",
      "area": "TEPEBAŞIKÖY",
      "postal_code": "26005"
    },
    {
      "id": 28580,
      "district_id": 379,
      "name": "YENİBAĞLAR MAH",
      "area": "BAHÇELİEVLER",
      "postal_code": "26170"
    },
    {
      "id": 28581,
      "district_id": 379,
      "name": "YENİİNCESU MAH",
      "area": "TEPEBAŞIKÖY",
      "postal_code": "26005"
    },
    {
      "id": 28582,
      "district_id": 379,
      "name": "YEŞİLTEPE MAH",
      "area": "YEŞİLTEPE",
      "postal_code": "26210"
    },
    {
      "id": 28583,
      "district_id": 379,
      "name": "YUKARI SÖĞÜTÖNÜ MAH",
      "area": "ÇUKURHİSAR",
      "postal_code": "26563"
    },
    {
      "id": 28584,
      "district_id": 379,
      "name": "YUKARIKARTAL MAH",
      "area": "TEPEBAŞIKÖY",
      "postal_code": "26005"
    },
    {
      "id": 28585,
      "district_id": 379,
      "name": "YÜRÜKAKÇAYIR MAH",
      "area": "TEPEBAŞIKÖY",
      "postal_code": "26005"
    },
    {
      "id": 28586,
      "district_id": 379,
      "name": "YUSUFLAR MAH",
      "area": "TEPEBAŞIKÖY",
      "postal_code": "26005"
    },
    {
      "id": 28587,
      "district_id": 379,
      "name": "ZAFER MAH",
      "area": "FATİH",
      "postal_code": "26220"
    },
    {
      "id": 28588,
      "district_id": 379,
      "name": "ZİNCİRLİKUYU MAH",
      "area": "YEŞİLTEPE",
      "postal_code": "26210"
    },
    {
      "id": 73028,
      "district_id": 375,
      "name": "71 EVLER MAH",
      "area": "EMEK",
      "postal_code": "26080"
    },
    {
      "id": 73029,
      "district_id": 375,
      "name": "75. YIL OSB MAH",
      "area": "SULTANDERE",
      "postal_code": "26250"
    },
    {
      "id": 73030,
      "district_id": 375,
      "name": "75.YIL  MAH (SULTANDERE MAH)",
      "area": "SULTANDERE",
      "postal_code": "26250"
    },
    {
      "id": 73031,
      "district_id": 375,
      "name": "AĞAPINAR MAH",
      "area": "ODUNPAZARIKÖY",
      "postal_code": "26576"
    },
    {
      "id": 73032,
      "district_id": 375,
      "name": "AKARBAŞI MAH",
      "area": "VİŞNELİK",
      "postal_code": "26020"
    },
    {
      "id": 73033,
      "district_id": 375,
      "name": "AKÇAĞLAN MAH",
      "area": "ALANÖNÜ",
      "postal_code": "26030"
    },
    {
      "id": 73034,
      "district_id": 375,
      "name": "AKÇAKAYA MAH",
      "area": "KANLIPINAR",
      "postal_code": "26004"
    },
    {
      "id": 73035,
      "district_id": 375,
      "name": "AKCAMİ MAH",
      "area": "KURTULUŞ",
      "postal_code": "26090"
    },
    {
      "id": 73036,
      "district_id": 375,
      "name": "AKKAYA MAH",
      "area": "KANLIPINAR",
      "postal_code": "26004"
    },
    {
      "id": 73037,
      "district_id": 375,
      "name": "AKPINAR MAH",
      "area": "KANLIPINAR",
      "postal_code": "26004"
    },
    {
      "id": 73038,
      "district_id": 375,
      "name": "ALANÖNÜ MAH",
      "area": "ALANÖNÜ",
      "postal_code": "26030"
    },
    {
      "id": 73039,
      "district_id": 375,
      "name": "ARİFİYE MAH",
      "area": "ARİFİYE",
      "postal_code": "26010"
    },
    {
      "id": 73040,
      "district_id": 375,
      "name": "AŞAĞI ÇAĞLAN MAH",
      "area": "ODUNPAZARIKÖY",
      "postal_code": "26576"
    },
    {
      "id": 73041,
      "district_id": 375,
      "name": "AŞAĞIILICA MAH",
      "area": "KANLIPINAR",
      "postal_code": "26004"
    },
    {
      "id": 73042,
      "district_id": 375,
      "name": "AVDAN MAH",
      "area": "KANLIPINAR",
      "postal_code": "26004"
    },
    {
      "id": 73043,
      "district_id": 375,
      "name": "AYVACIK MAH",
      "area": "KANLIPINAR",
      "postal_code": "26004"
    },
    {
      "id": 73044,
      "district_id": 375,
      "name": "BÜYÜKDERE MAH",
      "area": "BÜYÜKDERE",
      "postal_code": "26040"
    },
    {
      "id": 73045,
      "district_id": 375,
      "name": "ÇAMLICA MAH",
      "area": "KANLIPINAR",
      "postal_code": "26004"
    },
    {
      "id": 73046,
      "district_id": 375,
      "name": "ÇANKAYA MAH",
      "area": "VADİŞEHİR",
      "postal_code": "26240"
    },
    {
      "id": 73047,
      "district_id": 375,
      "name": "ÇAVLUM MAH",
      "area": "ODUNPAZARIKÖY",
      "postal_code": "26576"
    },
    {
      "id": 73048,
      "district_id": 375,
      "name": "CUNUDİYE MAH",
      "area": "ALANÖNÜ",
      "postal_code": "26030"
    },
    {
      "id": 73049,
      "district_id": 375,
      "name": "DEDE MAH",
      "area": "ALANÖNÜ",
      "postal_code": "26030"
    },
    {
      "id": 73050,
      "district_id": 375,
      "name": "DELİKLİTAŞ MAH",
      "area": "KURTULUŞ",
      "postal_code": "26090"
    },
    {
      "id": 73051,
      "district_id": 375,
      "name": "DEMİRLİ MAH",
      "area": "KANLIPINAR",
      "postal_code": "26004"
    },
    {
      "id": 73052,
      "district_id": 375,
      "name": "DOĞANKAYA MAH",
      "area": "KANLIPINAR",
      "postal_code": "26004"
    },
    {
      "id": 73053,
      "district_id": 375,
      "name": "EMEK MAH",
      "area": "EMEK",
      "postal_code": "26080"
    },
    {
      "id": 73054,
      "district_id": 375,
      "name": "ERENKÖY MAH",
      "area": "HUZUR",
      "postal_code": "26060"
    },
    {
      "id": 73055,
      "district_id": 375,
      "name": "EŞENKARA MAH",
      "area": "KANLIPINAR",
      "postal_code": "26004"
    },
    {
      "id": 73056,
      "district_id": 375,
      "name": "GÖKMEYDAN MAH",
      "area": "GÖKMEYDAN",
      "postal_code": "26100"
    },
    {
      "id": 73057,
      "district_id": 375,
      "name": "GÖZTEPE MAH",
      "area": "BÜYÜKDERE",
      "postal_code": "26040"
    },
    {
      "id": 73058,
      "district_id": 375,
      "name": "GÜLPINAR MAH",
      "area": "KANLIPINAR",
      "postal_code": "26004"
    },
    {
      "id": 73059,
      "district_id": 375,
      "name": "GÜLTEPE MAH",
      "area": "BÜYÜKDERE",
      "postal_code": "26040"
    },
    {
      "id": 73060,
      "district_id": 375,
      "name": "GÜMELE MAH",
      "area": "KANLIPINAR",
      "postal_code": "26004"
    },
    {
      "id": 73061,
      "district_id": 375,
      "name": "GÜNDOĞDU MAH",
      "area": "GÖKMEYDAN",
      "postal_code": "26100"
    },
    {
      "id": 73062,
      "district_id": 375,
      "name": "HARMANDALI MAH",
      "area": "KANLIPINAR",
      "postal_code": "26004"
    },
    {
      "id": 73063,
      "district_id": 375,
      "name": "HUZUR MAH",
      "area": "HUZUR",
      "postal_code": "26060"
    },
    {
      "id": 73064,
      "district_id": 375,
      "name": "IHLAMURKENT MAH",
      "area": "VADİŞEHİR",
      "postal_code": "26240"
    },
    {
      "id": 73065,
      "district_id": 375,
      "name": "İMİŞEHİR MAH",
      "area": "KANLIPINAR",
      "postal_code": "26004"
    },
    {
      "id": 73066,
      "district_id": 375,
      "name": "İSTİKLAL MAH",
      "area": "ARİFİYE",
      "postal_code": "26010"
    },
    {
      "id": 73067,
      "district_id": 375,
      "name": "KALKANLI MAH",
      "area": "ODUNPAZARIKÖY",
      "postal_code": "26576"
    },
    {
      "id": 73068,
      "district_id": 375,
      "name": "KANLIPINAR MAH",
      "area": "KANLIPINAR",
      "postal_code": "26004"
    },
    {
      "id": 73069,
      "district_id": 375,
      "name": "KARAALAN MAH",
      "area": "KANLIPINAR",
      "postal_code": "26004"
    },
    {
      "id": 73070,
      "district_id": 375,
      "name": "KARACAHÖYÜK MAH",
      "area": "ODUNPAZARIKÖY",
      "postal_code": "26576"
    },
    {
      "id": 73071,
      "district_id": 375,
      "name": "KARACAŞEHİR MAH",
      "area": "KANLIPINAR",
      "postal_code": "26004"
    },
    {
      "id": 73072,
      "district_id": 375,
      "name": "KARAÇAY MAH",
      "area": "KANLIPINAR",
      "postal_code": "26004"
    },
    {
      "id": 73073,
      "district_id": 375,
      "name": "KARAHÜYÜK MAH",
      "area": "KANLIPINAR",
      "postal_code": "26004"
    },
    {
      "id": 73074,
      "district_id": 375,
      "name": "KARAMUSTAFA MAH",
      "area": "KANLIPINAR",
      "postal_code": "26004"
    },
    {
      "id": 73075,
      "district_id": 375,
      "name": "KARAPAZAR MAH",
      "area": "KANLIPINAR",
      "postal_code": "26004"
    },
    {
      "id": 73076,
      "district_id": 375,
      "name": "KARAPINAR MAH",
      "area": "ALANÖNÜ",
      "postal_code": "26030"
    },
    {
      "id": 73077,
      "district_id": 375,
      "name": "KARATEPE MAH",
      "area": "KANLIPINAR",
      "postal_code": "26004"
    },
    {
      "id": 73078,
      "district_id": 375,
      "name": "KARGIN MAH",
      "area": "KANLIPINAR",
      "postal_code": "26004"
    },
    {
      "id": 73079,
      "district_id": 375,
      "name": "KAYACIK MAH",
      "area": "KANLIPINAR",
      "postal_code": "26004"
    },
    {
      "id": 73080,
      "district_id": 375,
      "name": "KAYAPINAR MAH",
      "area": "ODUNPAZARIKÖY",
      "postal_code": "26576"
    },
    {
      "id": 73081,
      "district_id": 375,
      "name": "KIRAVDAN MAH",
      "area": "KANLIPINAR",
      "postal_code": "26004"
    },
    {
      "id": 73082,
      "district_id": 375,
      "name": "KİREÇ MAH",
      "area": "KANLIPINAR",
      "postal_code": "26004"
    },
    {
      "id": 73083,
      "district_id": 375,
      "name": "KIRMIZITOPRAK MAH",
      "area": "VİŞNELİK",
      "postal_code": "26020"
    },
    {
      "id": 73084,
      "district_id": 375,
      "name": "KURTULUŞ MAH",
      "area": "KURTULUŞ",
      "postal_code": "26090"
    },
    {
      "id": 73085,
      "district_id": 375,
      "name": "KUYUCAK MAH",
      "area": "KANLIPINAR",
      "postal_code": "26004"
    },
    {
      "id": 73086,
      "district_id": 375,
      "name": "LÜTFİYE MAH",
      "area": "KANLIPINAR",
      "postal_code": "26004"
    },
    {
      "id": 73087,
      "district_id": 375,
      "name": "MUSALAR MAH",
      "area": "KANLIPINAR",
      "postal_code": "26004"
    },
    {
      "id": 73088,
      "district_id": 375,
      "name": "ORHANGAZİ MAH",
      "area": "ORHANGAZİ",
      "postal_code": "26160"
    },
    {
      "id": 73089,
      "district_id": 375,
      "name": "ORTA MAH",
      "area": "ALANÖNÜ",
      "postal_code": "26030"
    },
    {
      "id": 73090,
      "district_id": 375,
      "name": "OSMANGAZİ MAH",
      "area": "SÜMER",
      "postal_code": "26140"
    },
    {
      "id": 73091,
      "district_id": 375,
      "name": "PAŞA MAH",
      "area": "ALANÖNÜ",
      "postal_code": "26030"
    },
    {
      "id": 73092,
      "district_id": 375,
      "name": "SARISUNGUR MAH",
      "area": "KANLIPINAR",
      "postal_code": "26004"
    },
    {
      "id": 73093,
      "district_id": 375,
      "name": "ŞARKİYE MAH",
      "area": "ALANÖNÜ",
      "postal_code": "26030"
    },
    {
      "id": 73094,
      "district_id": 375,
      "name": "SEKLİCE MAH",
      "area": "KANLIPINAR",
      "postal_code": "26004"
    },
    {
      "id": 73095,
      "district_id": 375,
      "name": "SEVİNÇ MAH",
      "area": "ODUNPAZARIKÖY",
      "postal_code": "26576"
    },
    {
      "id": 73096,
      "district_id": 375,
      "name": "SULTANDERE MAH",
      "area": "KANLIPINAR",
      "postal_code": "26004"
    },
    {
      "id": 73097,
      "district_id": 375,
      "name": "SÜMER MAH",
      "area": "SÜMER",
      "postal_code": "26140"
    },
    {
      "id": 73098,
      "district_id": 375,
      "name": "SÜPÜREN MAH",
      "area": "KANLIPINAR",
      "postal_code": "26004"
    },
    {
      "id": 73099,
      "district_id": 375,
      "name": "TÜRKMENTOKAT MAH",
      "area": "KANLIPINAR",
      "postal_code": "26004"
    },
    {
      "id": 73100,
      "district_id": 375,
      "name": "ULUÇAYIR MAH",
      "area": "KANLIPINAR",
      "postal_code": "26004"
    },
    {
      "id": 73101,
      "district_id": 375,
      "name": "VADİŞEHİR MAH",
      "area": "VADİŞEHİR",
      "postal_code": "26240"
    },
    {
      "id": 73102,
      "district_id": 375,
      "name": "VİŞNELİK MAH",
      "area": "VİŞNELİK",
      "postal_code": "26020"
    },
    {
      "id": 73103,
      "district_id": 375,
      "name": "YAHNİKAPAN MAH",
      "area": "KANLIPINAR",
      "postal_code": "26004"
    },
    {
      "id": 73104,
      "district_id": 375,
      "name": "YASSIHÖYÜK MAH",
      "area": "ODUNPAZARIKÖY",
      "postal_code": "26576"
    },
    {
      "id": 73105,
      "district_id": 375,
      "name": "YENİDOĞAN MAH",
      "area": "HUZUR",
      "postal_code": "26060"
    },
    {
      "id": 73106,
      "district_id": 375,
      "name": "YENİKENT MAH",
      "area": "YENİKENT",
      "postal_code": "26050"
    },
    {
      "id": 73107,
      "district_id": 375,
      "name": "YENİSOFÇA MAH",
      "area": "KANLIPINAR",
      "postal_code": "26004"
    },
    {
      "id": 73108,
      "district_id": 375,
      "name": "YILDIZTEPE MAH",
      "area": "BÜYÜKDERE",
      "postal_code": "26040"
    },
    {
      "id": 73109,
      "district_id": 375,
      "name": "YUKARIÇAĞLAN MAH",
      "area": "KANLIPINAR",
      "postal_code": "26004"
    },
    {
      "id": 73110,
      "district_id": 375,
      "name": "YUKARIILICA MAH",
      "area": "KANLIPINAR",
      "postal_code": "26004"
    },
    {
      "id": 73111,
      "district_id": 375,
      "name": "YUKARIKALABAK MAH",
      "area": "KANLIPINAR",
      "postal_code": "26004"
    },
    {
      "id": 73112,
      "district_id": 375,
      "name": "YÜRÜKKARACAÖREN MAH",
      "area": "KANLIPINAR",
      "postal_code": "26004"
    },
    {
      "id": 73113,
      "district_id": 375,
      "name": "YÜRÜKKIRKA MAH",
      "area": "KANLIPINAR",
      "postal_code": "26004"
    }
  ]
}