{
  "neighborhoods": [
    {
      "id": 33532,
      "district_id": 416,
      "name": "AKAMBER MAH",
      "area": "ALTINÖZÜ",
      "postal_code": "31750"
    },
    {
      "id": 33533,
      "district_id": 416,
      "name": "AKDARI MAH",
      "area": "ALTINÖZÜ",
      "postal_code": "31750"
    },
    {
      "id": 33534,
      "district_id": 416,
      "name": "ALAKENT MAH",
      "area": "ALTINÖZÜ",
      "postal_code": "31750"
    },
    {
      "id": 33535,
      "district_id": 416,
      "name": "ALTINKAYA MAH",
      "area": "ALTINÖZÜ",
      "postal_code": "31750"
    },
    {
      "id": 33536,
      "district_id": 416,
      "name": "ATAYURDU MAH",
      "area": "ALTINÖZÜ",
      "postal_code": "31750"
    },
    {
      "id": 33537,
      "district_id": 416,
      "name": "AVUTTEPE MAH",
      "area": "ALTINÖZÜ",
      "postal_code": "31750"
    },
    {
      "id": 33538,
      "district_id": 416,
      "name": "BABATORUN MAH",
      "area": "ALTINÖZÜ",
      "postal_code": "31750"
    },
    {
      "id": 33539,
      "district_id": 416,
      "name": "BOYNUYOĞUN MAH",
      "area": "ALTINÖZÜ",
      "postal_code": "31750"
    },
    {
      "id": 33540,
      "district_id": 416,
      "name": "BÜYÜKBURÇ MAH",
      "area": "ALTINÖZÜ",
      "postal_code": "31750"
    },
    {
      "id": 33541,
      "district_id": 416,
      "name": "ÇETENLİ MAH",
      "area": "ALTINÖZÜ",
      "postal_code": "31750"
    },
    {
      "id": 33542,
      "district_id": 416,
      "name": "DOKUZDAL MAH",
      "area": "ALTINÖZÜ",
      "postal_code": "31750"
    },
    {
      "id": 33543,
      "district_id": 416,
      "name": "ENEK MAH",
      "area": "ALTINÖZÜ",
      "postal_code": "31750"
    },
    {
      "id": 33544,
      "district_id": 416,
      "name": "ERBAŞI MAH",
      "area": "ALTINÖZÜ",
      "postal_code": "31750"
    },
    {
      "id": 33545,
      "district_id": 416,
      "name": "FATİKLİ MAH",
      "area": "ALTINÖZÜ",
      "postal_code": "31750"
    },
    {
      "id": 33546,
      "district_id": 416,
      "name": "GÖZECİK MAH",
      "area": "ALTINÖZÜ",
      "postal_code": "31750"
    },
    {
      "id": 33547,
      "district_id": 416,
      "name": "GÜNVURAN MAH",
      "area": "ALTINÖZÜ",
      "postal_code": "31750"
    },
    {
      "id": 33548,
      "district_id": 416,
      "name": "HACIPAŞA MAH",
      "area": "ALTINÖZÜ",
      "postal_code": "31750"
    },
    {
      "id": 33549,
      "district_id": 416,
      "name": "HANYOLU MAH",
      "area": "ALTINÖZÜ",
      "postal_code": "31750"
    },
    {
      "id": 33550,
      "district_id": 416,
      "name": "KAMBERLİ MAH",
      "area": "ALTINÖZÜ",
      "postal_code": "31750"
    },
    {
      "id": 33551,
      "district_id": 416,
      "name": "KANSU MAH",
      "area": "ALTINÖZÜ",
      "postal_code": "31750"
    },
    {
      "id": 33552,
      "district_id": 416,
      "name": "KARBEYAZ MAH",
      "area": "ALTINÖZÜ",
      "postal_code": "31750"
    },
    {
      "id": 33553,
      "district_id": 416,
      "name": "KARSU MAH",
      "area": "ALTINÖZÜ",
      "postal_code": "31750"
    },
    {
      "id": 33554,
      "district_id": 416,
      "name": "KAZANCIK MAH",
      "area": "ALTINÖZÜ",
      "postal_code": "31750"
    },
    {
      "id": 33555,
      "district_id": 416,
      "name": "KESKİNCİK MAH",
      "area": "ALTINÖZÜ",
      "postal_code": "31750"
    },
    {
      "id": 33556,
      "district_id": 416,
      "name": "KILIÇTUTAN MAH",
      "area": "ALTINÖZÜ",
      "postal_code": "31750"
    },
    {
      "id": 33557,
      "district_id": 416,
      "name": "KIYIGÖREN MAH",
      "area": "ALTINÖZÜ",
      "postal_code": "31750"
    },
    {
      "id": 33558,
      "district_id": 416,
      "name": "KOLCULAR MAH",
      "area": "ALTINÖZÜ",
      "postal_code": "31750"
    },
    {
      "id": 33559,
      "district_id": 416,
      "name": "KOZKALESİ MAH",
      "area": "ALTINÖZÜ",
      "postal_code": "31750"
    },
    {
      "id": 33560,
      "district_id": 416,
      "name": "KURTMEZRAASI MAH",
      "area": "ALTINÖZÜ",
      "postal_code": "31750"
    },
    {
      "id": 33561,
      "district_id": 416,
      "name": "MAYADALI MAH",
      "area": "ALTINÖZÜ",
      "postal_code": "31750"
    },
    {
      "id": 33562,
      "district_id": 416,
      "name": "OYMAKLI MAH",
      "area": "ALTINÖZÜ",
      "postal_code": "31750"
    },
    {
      "id": 33563,
      "district_id": 416,
      "name": "SARIBÜK MAH",
      "area": "ALTINÖZÜ",
      "postal_code": "31750"
    },
    {
      "id": 33564,
      "district_id": 416,
      "name": "SARILAR MAH",
      "area": "ALTINÖZÜ",
      "postal_code": "31750"
    },
    {
      "id": 33565,
      "district_id": 416,
      "name": "SEFERLİ MAH",
      "area": "ALTINÖZÜ",
      "postal_code": "31750"
    },
    {
      "id": 33566,
      "district_id": 416,
      "name": "SİVRİKAVAK MAH",
      "area": "ALTINÖZÜ",
      "postal_code": "31750"
    },
    {
      "id": 33567,
      "district_id": 416,
      "name": "SOFULAR MAH",
      "area": "ALTINÖZÜ",
      "postal_code": "31750"
    },
    {
      "id": 33568,
      "district_id": 416,
      "name": "TEPEHAN MAH",
      "area": "ALTINÖZÜ",
      "postal_code": "31750"
    },
    {
      "id": 33569,
      "district_id": 416,
      "name": "TOKAÇLI MAH",
      "area": "ALTINÖZÜ",
      "postal_code": "31750"
    },
    {
      "id": 33570,
      "district_id": 416,
      "name": "TOKDEMİR MAH",
      "area": "ALTINÖZÜ",
      "postal_code": "31750"
    },
    {
      "id": 33571,
      "district_id": 416,
      "name": "TOPRAKHİSAR MAH",
      "area": "ALTINÖZÜ",
      "postal_code": "31750"
    },
    {
      "id": 33572,
      "district_id": 416,
      "name": "TÜRKMENMEZRAASI MAH",
      "area": "ALTINÖZÜ",
      "postal_code": "31750"
    },
    {
      "id": 33573,
      "district_id": 416,
      "name": "YANIKPINAR MAH",
      "area": "ALTINÖZÜ",
      "postal_code": "31750"
    },
    {
      "id": 33574,
      "district_id": 416,
      "name": "YARSELİ MAH",
      "area": "ALTINÖZÜ",
      "postal_code": "31750"
    },
    {
      "id": 33575,
      "district_id": 416,
      "name": "YENİHİSAR MAH",
      "area": "ALTINÖZÜ",
      "postal_code": "31750"
    },
    {
      "id": 33576,
      "district_id": 416,
      "name": "YENİŞEHİR MAH",
      "area": "ALTINÖZÜ",
      "postal_code": "31750"
    },
    {
      "id": 33577,
      "district_id": 416,
      "name": "YOLAĞZI MAH",
      "area": "ALTINÖZÜ",
      "postal_code": "31750"
    },
    {
      "id": 33578,
      "district_id": 416,
      "name": "YUNUSHANI MAH",
      "area": "ALTINÖZÜ",
      "postal_code": "31750"
    },
    {
      "id": 33579,
      "district_id": 416,
      "name": "ZEYTİNDALI MAH",
      "area": "ALTINÖZÜ",
      "postal_code": "31750"
    },
    {
      "id": 33580,
      "district_id": 416,
      "name": "ZİYARET MAH",
      "area": "ALTINÖZÜ",
      "postal_code": "31750"
    },
    {
      "id": 33581,
      "district_id": 417,
      "name": "AÇIKDERE MAH",
      "area": "HARAPARASI",
      "postal_code": "31060"
    },
    {
      "id": 33582,
      "district_id": 417,
      "name": "AKASYA MAH",
      "area": "KANATLI",
      "postal_code": "31030"
    },
    {
      "id": 33583,
      "district_id": 417,
      "name": "AKÇAOVA MAH",
      "area": "HARAPARASI",
      "postal_code": "31060"
    },
    {
      "id": 33584,
      "district_id": 417,
      "name": "AKCURUN MAH",
      "area": "HARAPARASI",
      "postal_code": "31060"
    },
    {
      "id": 33585,
      "district_id": 417,
      "name": "AKEVLER MAH",
      "area": "KANATLI",
      "postal_code": "31030"
    },
    {
      "id": 33586,
      "district_id": 417,
      "name": "AKHİSAR MAH",
      "area": "HARAPARASI",
      "postal_code": "31060"
    },
    {
      "id": 33587,
      "district_id": 417,
      "name": "AKSARAY MAH",
      "area": "KANATLI",
      "postal_code": "31030"
    },
    {
      "id": 33588,
      "district_id": 417,
      "name": "ALAATTİN MAH",
      "area": "HARAPARASI",
      "postal_code": "31060"
    },
    {
      "id": 33589,
      "district_id": 417,
      "name": "ALAHAN MAH",
      "area": "HARAPARASI",
      "postal_code": "31060"
    },
    {
      "id": 33590,
      "district_id": 417,
      "name": "ALAZI MAH",
      "area": "HARAPARASI",
      "postal_code": "31060"
    },
    {
      "id": 33591,
      "district_id": 417,
      "name": "ALTINÇAY MAH",
      "area": "ESENTEPE",
      "postal_code": "31040"
    },
    {
      "id": 33592,
      "district_id": 417,
      "name": "ANAYAZI MAH",
      "area": "HARAPARASI",
      "postal_code": "31060"
    },
    {
      "id": 33593,
      "district_id": 417,
      "name": "APAYDIN MAH",
      "area": "HARAPARASI",
      "postal_code": "31060"
    },
    {
      "id": 33594,
      "district_id": 417,
      "name": "ARPAHAN MAH",
      "area": "HARAPARASI",
      "postal_code": "31060"
    },
    {
      "id": 33595,
      "district_id": 417,
      "name": "AŞAĞIOBA MAH",
      "area": "HARAPARASI",
      "postal_code": "31060"
    },
    {
      "id": 33596,
      "district_id": 417,
      "name": "AVSUYU MAH",
      "area": "HARAPARASI",
      "postal_code": "31060"
    },
    {
      "id": 33597,
      "district_id": 417,
      "name": "AYDINLIKEVLER MAH",
      "area": "HARAPARASI",
      "postal_code": "31060"
    },
    {
      "id": 33598,
      "district_id": 417,
      "name": "BAĞRIYANIK MAH",
      "area": "KIŞLASARAY",
      "postal_code": "31070"
    },
    {
      "id": 33599,
      "district_id": 417,
      "name": "BARBAROS MAH",
      "area": "HARAPARASI",
      "postal_code": "31060"
    },
    {
      "id": 33600,
      "district_id": 417,
      "name": "BİNİCİLER MAH",
      "area": "HARAPARASI",
      "postal_code": "31060"
    },
    {
      "id": 33601,
      "district_id": 417,
      "name": "BİTİREN MAH",
      "area": "HARAPARASI",
      "postal_code": "31060"
    },
    {
      "id": 33602,
      "district_id": 417,
      "name": "BOŞİN MAH",
      "area": "HARAPARASI",
      "postal_code": "31060"
    },
    {
      "id": 33603,
      "district_id": 417,
      "name": "BOZHÜYÜK MAH",
      "area": "HARAPARASI",
      "postal_code": "31060"
    },
    {
      "id": 33604,
      "district_id": 417,
      "name": "BÜYÜKDALYAN MAH",
      "area": "HARAPARASI",
      "postal_code": "31060"
    },
    {
      "id": 33605,
      "district_id": 417,
      "name": "CEBRAİL MAH",
      "area": "KANATLI",
      "postal_code": "31030"
    },
    {
      "id": 33606,
      "district_id": 417,
      "name": "CUMHURİYET MAH",
      "area": "ESENTEPE",
      "postal_code": "31040"
    },
    {
      "id": 33607,
      "district_id": 417,
      "name": "DEMİRKÖPRÜ MAH",
      "area": "HARAPARASI",
      "postal_code": "31060"
    },
    {
      "id": 33608,
      "district_id": 417,
      "name": "DERİNCE MAH",
      "area": "HARAPARASI",
      "postal_code": "31060"
    },
    {
      "id": 33609,
      "district_id": 417,
      "name": "DİKMECE MAH",
      "area": "HARAPARASI",
      "postal_code": "31060"
    },
    {
      "id": 33610,
      "district_id": 417,
      "name": "DOĞANKÖY MAH",
      "area": "HARAPARASI",
      "postal_code": "31060"
    },
    {
      "id": 33611,
      "district_id": 417,
      "name": "DUTDİBİ MAH",
      "area": "HARAPARASI",
      "postal_code": "31060"
    },
    {
      "id": 33612,
      "district_id": 417,
      "name": "EKİNCİ MAH",
      "area": "KANATLI",
      "postal_code": "31030"
    },
    {
      "id": 33613,
      "district_id": 417,
      "name": "EMEK MAH",
      "area": "ESENTEPE",
      "postal_code": "31040"
    },
    {
      "id": 33614,
      "district_id": 417,
      "name": "ESENLİK MAH",
      "area": "ESENTEPE",
      "postal_code": "31040"
    },
    {
      "id": 33615,
      "district_id": 417,
      "name": "ESENTEPE MAH",
      "area": "ESENTEPE",
      "postal_code": "31040"
    },
    {
      "id": 33616,
      "district_id": 417,
      "name": "FEVZİ ÇAKMAK MAH",
      "area": "KIŞLASARAY",
      "postal_code": "31070"
    },
    {
      "id": 33617,
      "district_id": 417,
      "name": "GAZİ MAH",
      "area": "ESENTEPE",
      "postal_code": "31040"
    },
    {
      "id": 33618,
      "district_id": 417,
      "name": "GAZİPAŞA MAH",
      "area": "KIŞLASARAY",
      "postal_code": "31070"
    },
    {
      "id": 33619,
      "district_id": 417,
      "name": "GENERAL ŞÜKRÜ KANATLI MAH",
      "area": "KANATLI",
      "postal_code": "31030"
    },
    {
      "id": 33620,
      "district_id": 417,
      "name": "GÖKÇEGÖZ MAH",
      "area": "HARAPARASI",
      "postal_code": "31060"
    },
    {
      "id": 33621,
      "district_id": 417,
      "name": "GÜLDEREN MAH",
      "area": "HARAPARASI",
      "postal_code": "31060"
    },
    {
      "id": 33622,
      "district_id": 417,
      "name": "GÜLLÜBAHÇE MAH",
      "area": "KIŞLASARAY",
      "postal_code": "31070"
    },
    {
      "id": 33623,
      "district_id": 417,
      "name": "GÜNYAZI MAH",
      "area": "HARAPARASI",
      "postal_code": "31060"
    },
    {
      "id": 33624,
      "district_id": 417,
      "name": "GÜZELBURÇ MAH",
      "area": "HARAPARASI",
      "postal_code": "31060"
    },
    {
      "id": 33625,
      "district_id": 417,
      "name": "HABİB-İ NECCAR MAH",
      "area": "HARAPARASI",
      "postal_code": "31060"
    },
    {
      "id": 33626,
      "district_id": 417,
      "name": "HACI ÖMER ALPAGOT MAH",
      "area": "HARAPARASI",
      "postal_code": "31060"
    },
    {
      "id": 33627,
      "district_id": 417,
      "name": "HARAPARASI MAH",
      "area": "HARAPARASI",
      "postal_code": "31060"
    },
    {
      "id": 33628,
      "district_id": 417,
      "name": "HASANLI MAH",
      "area": "HARAPARASI",
      "postal_code": "31060"
    },
    {
      "id": 33629,
      "district_id": 417,
      "name": "HAVUZLAR MAH",
      "area": "KIŞLASARAY",
      "postal_code": "31070"
    },
    {
      "id": 33630,
      "district_id": 417,
      "name": "İPLİK PAZARI MAH",
      "area": "HARAPARASI",
      "postal_code": "31060"
    },
    {
      "id": 33631,
      "district_id": 417,
      "name": "KANTARA MAH",
      "area": "HARAPARASI",
      "postal_code": "31060"
    },
    {
      "id": 33632,
      "district_id": 417,
      "name": "KARAALİ BÖLÜĞÜ MAH",
      "area": "HARAPARASI",
      "postal_code": "31060"
    },
    {
      "id": 33633,
      "district_id": 417,
      "name": "KARAALİ MAH",
      "area": "HARAPARASI",
      "postal_code": "31060"
    },
    {
      "id": 33634,
      "district_id": 417,
      "name": "KARDEŞLER MAH",
      "area": "HARAPARASI",
      "postal_code": "31060"
    },
    {
      "id": 33635,
      "district_id": 417,
      "name": "KARLISU MAH",
      "area": "HARAPARASI",
      "postal_code": "31060"
    },
    {
      "id": 33636,
      "district_id": 417,
      "name": "KİSECİK MAH",
      "area": "HARAPARASI",
      "postal_code": "31060"
    },
    {
      "id": 33637,
      "district_id": 417,
      "name": "KIŞLASARAY MAH",
      "area": "KIŞLASARAY",
      "postal_code": "31070"
    },
    {
      "id": 33638,
      "district_id": 417,
      "name": "KOCAABDİ MAH",
      "area": "HARAPARASI",
      "postal_code": "31060"
    },
    {
      "id": 33639,
      "district_id": 417,
      "name": "KÜÇÜKDALYAN MAH",
      "area": "HARAPARASI",
      "postal_code": "31060"
    },
    {
      "id": 33640,
      "district_id": 417,
      "name": "KURUYER MAH",
      "area": "HARAPARASI",
      "postal_code": "31060"
    },
    {
      "id": 33641,
      "district_id": 417,
      "name": "KUYULU MAH",
      "area": "KIŞLASARAY",
      "postal_code": "31070"
    },
    {
      "id": 33642,
      "district_id": 417,
      "name": "KUZEYTEPE MAH",
      "area": "KANATLI",
      "postal_code": "31030"
    },
    {
      "id": 33643,
      "district_id": 417,
      "name": "MADENBOYU MAH",
      "area": "HARAPARASI",
      "postal_code": "31060"
    },
    {
      "id": 33644,
      "district_id": 417,
      "name": "MANSURLU MAH",
      "area": "HARAPARASI",
      "postal_code": "31060"
    },
    {
      "id": 33645,
      "district_id": 417,
      "name": "MARAŞBOĞAZI MAH",
      "area": "HARAPARASI",
      "postal_code": "31060"
    },
    {
      "id": 33646,
      "district_id": 417,
      "name": "MAŞUKLU MAH",
      "area": "HARAPARASI",
      "postal_code": "31060"
    },
    {
      "id": 33647,
      "district_id": 417,
      "name": "MELEKLİ MAH",
      "area": "HARAPARASI",
      "postal_code": "31060"
    },
    {
      "id": 33648,
      "district_id": 417,
      "name": "MEYDAN MAH",
      "area": "HARAPARASI",
      "postal_code": "31060"
    },
    {
      "id": 33649,
      "district_id": 417,
      "name": "NARLICA MAH",
      "area": "HARAPARASI",
      "postal_code": "31060"
    },
    {
      "id": 33650,
      "district_id": 417,
      "name": "ODABAŞI MAH",
      "area": "KANATLI",
      "postal_code": "31030"
    },
    {
      "id": 33651,
      "district_id": 417,
      "name": "OĞLAKÖREN MAH",
      "area": "HARAPARASI",
      "postal_code": "31060"
    },
    {
      "id": 33652,
      "district_id": 417,
      "name": "ORHANLI MAH",
      "area": "HARAPARASI",
      "postal_code": "31060"
    },
    {
      "id": 33653,
      "district_id": 417,
      "name": "OVAKENT MAH",
      "area": "HARAPARASI",
      "postal_code": "31060"
    },
    {
      "id": 33654,
      "district_id": 417,
      "name": "PAŞAKÖY MAH",
      "area": "HARAPARASI",
      "postal_code": "31060"
    },
    {
      "id": 33655,
      "district_id": 417,
      "name": "SAÇAKLI MAH",
      "area": "HARAPARASI",
      "postal_code": "31060"
    },
    {
      "id": 33656,
      "district_id": 417,
      "name": "SARAYCIK MAH",
      "area": "HARAPARASI",
      "postal_code": "31060"
    },
    {
      "id": 33657,
      "district_id": 417,
      "name": "SARAYKENT MAH",
      "area": "KANATLI",
      "postal_code": "31030"
    },
    {
      "id": 33658,
      "district_id": 417,
      "name": "ŞEHİTLER MAH",
      "area": "HARAPARASI",
      "postal_code": "31060"
    },
    {
      "id": 33659,
      "district_id": 417,
      "name": "SERİNYOL MAH",
      "area": "HARAPARASI",
      "postal_code": "31060"
    },
    {
      "id": 33660,
      "district_id": 417,
      "name": "ŞEYHALİ MAH",
      "area": "HARAPARASI",
      "postal_code": "31060"
    },
    {
      "id": 33661,
      "district_id": 417,
      "name": "ŞİRİNCE MAH",
      "area": "HARAPARASI",
      "postal_code": "31060"
    },
    {
      "id": 33662,
      "district_id": 417,
      "name": "SOFULAR MAH",
      "area": "HARAPARASI",
      "postal_code": "31060"
    },
    {
      "id": 33663,
      "district_id": 417,
      "name": "SUVATLI MAH",
      "area": "HARAPARASI",
      "postal_code": "31060"
    },
    {
      "id": 33664,
      "district_id": 417,
      "name": "TAHTAKÖPRÜ MAH",
      "area": "HARAPARASI",
      "postal_code": "31060"
    },
    {
      "id": 33665,
      "district_id": 417,
      "name": "TANIŞMA MAH",
      "area": "HARAPARASI",
      "postal_code": "31060"
    },
    {
      "id": 33666,
      "district_id": 417,
      "name": "ÜÇGEDİK MAH",
      "area": "HARAPARASI",
      "postal_code": "31060"
    },
    {
      "id": 33667,
      "district_id": 417,
      "name": "ULUCAMİ MAH",
      "area": "HARAPARASI",
      "postal_code": "31060"
    },
    {
      "id": 33668,
      "district_id": 417,
      "name": "ÜRGENPAŞA MAH",
      "area": "KANATLI",
      "postal_code": "31030"
    },
    {
      "id": 33669,
      "district_id": 417,
      "name": "ÜZÜMDALI MAH",
      "area": "HARAPARASI",
      "postal_code": "31060"
    },
    {
      "id": 33670,
      "district_id": 417,
      "name": "UZUNALİÇ MAH",
      "area": "HARAPARASI",
      "postal_code": "31060"
    },
    {
      "id": 33671,
      "district_id": 417,
      "name": "YAYLACIK MAH",
      "area": "HARAPARASI",
      "postal_code": "31060"
    },
    {
      "id": 33672,
      "district_id": 417,
      "name": "YENİCAMİ MAH",
      "area": "HARAPARASI",
      "postal_code": "31060"
    },
    {
      "id": 33673,
      "district_id": 417,
      "name": "YEŞİLOVA MAH",
      "area": "HARAPARASI",
      "postal_code": "31060"
    },
    {
      "id": 33674,
      "district_id": 417,
      "name": "ZENGİNLER MAH",
      "area": "KIŞLASARAY",
      "postal_code": "31070"
    },
    {
      "id": 33675,
      "district_id": 417,
      "name": "ZÜLÜFLÜHAN MAH",
      "area": "HARAPARASI",
      "postal_code": "31060"
    },
    {
      "id": 33676,
      "district_id": 418,
      "name": "AKÇALI MAH",
      "area": "ARSUZ",
      "postal_code": "31225"
    },
    {
      "id": 33677,
      "district_id": 418,
      "name": "ARPAÇİFTLİK MAH",
      "area": "ARSUZ",
      "postal_code": "31225"
    },
    {
      "id": 33678,
      "district_id": 418,
      "name": "ARPADERESİ MAH",
      "area": "KARAAĞAÇ",
      "postal_code": "31290"
    },
    {
      "id": 33679,
      "district_id": 418,
      "name": "ARPAGEDİK MAH",
      "area": "ARSUZ",
      "postal_code": "31225"
    },
    {
      "id": 33680,
      "district_id": 418,
      "name": "AŞAĞI KEPİRCE MAH",
      "area": "ARSUZ",
      "postal_code": "31225"
    },
    {
      "id": 33681,
      "district_id": 418,
      "name": "AVCILARSUYU MAH",
      "area": "ARSUZ",
      "postal_code": "31225"
    },
    {
      "id": 33682,
      "district_id": 418,
      "name": "BEYKÖYÜ MAH",
      "area": "ARSUZ",
      "postal_code": "31225"
    },
    {
      "id": 33683,
      "district_id": 418,
      "name": "ÇETİLLİK MAH",
      "area": "ARSUZ",
      "postal_code": "31225"
    },
    {
      "id": 33684,
      "district_id": 418,
      "name": "DEREKUYU MAH",
      "area": "ARSUZ",
      "postal_code": "31225"
    },
    {
      "id": 33685,
      "district_id": 418,
      "name": "GÖKMEYDAN MAH",
      "area": "ARSUZ",
      "postal_code": "31225"
    },
    {
      "id": 33686,
      "district_id": 418,
      "name": "GÖZCÜLER MAH",
      "area": "ARSUZ",
      "postal_code": "31225"
    },
    {
      "id": 33687,
      "district_id": 418,
      "name": "GÜLCİHAN MAH",
      "area": "ARSUZ",
      "postal_code": "31225"
    },
    {
      "id": 33688,
      "district_id": 418,
      "name": "HACIAHMETLİ MAH",
      "area": "ARSUZ",
      "postal_code": "31225"
    },
    {
      "id": 33689,
      "district_id": 418,
      "name": "HARLISU MAH",
      "area": "KARAAĞAÇ",
      "postal_code": "31290"
    },
    {
      "id": 33690,
      "district_id": 418,
      "name": "HAYMASEKİ MAH",
      "area": "ARSUZ",
      "postal_code": "31225"
    },
    {
      "id": 33691,
      "district_id": 418,
      "name": "HELVALI MAH",
      "area": "ARSUZ",
      "postal_code": "31225"
    },
    {
      "id": 33692,
      "district_id": 418,
      "name": "HÜYÜK MAH",
      "area": "ARSUZ",
      "postal_code": "31225"
    },
    {
      "id": 33693,
      "district_id": 418,
      "name": "IŞIKLI MAH",
      "area": "ARSUZ",
      "postal_code": "31225"
    },
    {
      "id": 33694,
      "district_id": 418,
      "name": "KALE MAH",
      "area": "ARSUZ",
      "postal_code": "31225"
    },
    {
      "id": 33695,
      "district_id": 418,
      "name": "KARAAĞAÇ CUMHURİYET MAH",
      "area": "KARAAĞAÇ",
      "postal_code": "31290"
    },
    {
      "id": 33696,
      "district_id": 418,
      "name": "KARAAĞAÇ KONARLI MAH",
      "area": "KARAAĞAÇ",
      "postal_code": "31290"
    },
    {
      "id": 33697,
      "district_id": 418,
      "name": "KARAAĞAÇ ÖVÜNDÜK MAH",
      "area": "KARAAĞAÇ",
      "postal_code": "31290"
    },
    {
      "id": 33698,
      "district_id": 418,
      "name": "KARAAĞAÇ ŞARKKONAK MAH",
      "area": "KARAAĞAÇ",
      "postal_code": "31290"
    },
    {
      "id": 33699,
      "district_id": 418,
      "name": "KARAGÖZ MAH",
      "area": "ARSUZ",
      "postal_code": "31225"
    },
    {
      "id": 33700,
      "district_id": 418,
      "name": "KARAHÜSEYİNLİ MAH",
      "area": "KARAAĞAÇ",
      "postal_code": "31290"
    },
    {
      "id": 33701,
      "district_id": 418,
      "name": "KIŞLA MAH",
      "area": "KARAAĞAÇ",
      "postal_code": "31290"
    },
    {
      "id": 33702,
      "district_id": 418,
      "name": "KONACIK MAH",
      "area": "ARSUZ",
      "postal_code": "31225"
    },
    {
      "id": 33703,
      "district_id": 418,
      "name": "KOZAKLI MAH",
      "area": "KARAAĞAÇ",
      "postal_code": "31290"
    },
    {
      "id": 33704,
      "district_id": 418,
      "name": "KURTBAĞI MAH",
      "area": "ARSUZ",
      "postal_code": "31225"
    },
    {
      "id": 33705,
      "district_id": 418,
      "name": "MADENLİ MAH",
      "area": "ARSUZ",
      "postal_code": "31225"
    },
    {
      "id": 33706,
      "district_id": 418,
      "name": "NARDÜZÜ MAH",
      "area": "KARAAĞAÇ",
      "postal_code": "31290"
    },
    {
      "id": 33707,
      "district_id": 418,
      "name": "NERGİZLİK MAH",
      "area": "KARAAĞAÇ",
      "postal_code": "31290"
    },
    {
      "id": 33708,
      "district_id": 418,
      "name": "PİRİNÇLİK MAH",
      "area": "ARSUZ",
      "postal_code": "31225"
    },
    {
      "id": 33709,
      "district_id": 418,
      "name": "TATARLI MAH",
      "area": "ARSUZ",
      "postal_code": "31225"
    },
    {
      "id": 33710,
      "district_id": 418,
      "name": "TÜLEK MAH",
      "area": "ARSUZ",
      "postal_code": "31225"
    },
    {
      "id": 33711,
      "district_id": 418,
      "name": "ÜÇGÜLLÜK MAH",
      "area": "ARSUZ",
      "postal_code": "31225"
    },
    {
      "id": 33712,
      "district_id": 418,
      "name": "ULUÇINAR MAH",
      "area": "ARSUZ",
      "postal_code": "31225"
    },
    {
      "id": 33713,
      "district_id": 418,
      "name": "YUKARIKEPİRCE MAH",
      "area": "ARSUZ",
      "postal_code": "31225"
    },
    {
      "id": 33714,
      "district_id": 419,
      "name": "ATİK MAH",
      "area": "BELEN",
      "postal_code": "31350"
    },
    {
      "id": 33715,
      "district_id": 419,
      "name": "BAKRAS MAH",
      "area": "BELEN",
      "postal_code": "31350"
    },
    {
      "id": 33716,
      "district_id": 419,
      "name": "BENLİDERE MAH",
      "area": "BELEN",
      "postal_code": "31350"
    },
    {
      "id": 33717,
      "district_id": 419,
      "name": "ÇAKALLI MAH",
      "area": "BELEN",
      "postal_code": "31350"
    },
    {
      "id": 33718,
      "district_id": 419,
      "name": "ÇERÇİKAYA MAH",
      "area": "BELEN",
      "postal_code": "31350"
    },
    {
      "id": 33719,
      "district_id": 419,
      "name": "CUMHURİYET MAH",
      "area": "BELEN",
      "postal_code": "31350"
    },
    {
      "id": 33720,
      "district_id": 419,
      "name": "DEREBAHÇE MAH",
      "area": "BELEN",
      "postal_code": "31350"
    },
    {
      "id": 33721,
      "district_id": 419,
      "name": "FATİH MAH",
      "area": "BELEN",
      "postal_code": "31350"
    },
    {
      "id": 33722,
      "district_id": 419,
      "name": "HALİLBEY MAH",
      "area": "BELEN",
      "postal_code": "31350"
    },
    {
      "id": 33723,
      "district_id": 419,
      "name": "İSSUME MAH",
      "area": "BELEN",
      "postal_code": "31350"
    },
    {
      "id": 33724,
      "district_id": 419,
      "name": "KICI MAH",
      "area": "BELEN",
      "postal_code": "31350"
    },
    {
      "id": 33725,
      "district_id": 419,
      "name": "KÖMÜRÇUKURU MAH",
      "area": "BELEN",
      "postal_code": "31350"
    },
    {
      "id": 33726,
      "district_id": 419,
      "name": "MÜFTÜLER MAH",
      "area": "BELEN",
      "postal_code": "31350"
    },
    {
      "id": 33727,
      "district_id": 419,
      "name": "MUHLİSALİ MAH",
      "area": "BELEN",
      "postal_code": "31350"
    },
    {
      "id": 33728,
      "district_id": 419,
      "name": "ÖTENÇAY MAH",
      "area": "BELEN",
      "postal_code": "31350"
    },
    {
      "id": 33729,
      "district_id": 419,
      "name": "SARIMAZI MAH",
      "area": "BELEN",
      "postal_code": "31350"
    },
    {
      "id": 33730,
      "district_id": 419,
      "name": "ŞEKERE MAH",
      "area": "BELEN",
      "postal_code": "31350"
    },
    {
      "id": 33731,
      "district_id": 419,
      "name": "ŞENBÜK MAH",
      "area": "BELEN",
      "postal_code": "31350"
    },
    {
      "id": 33732,
      "district_id": 419,
      "name": "SOĞUKOLUK MAH",
      "area": "BELEN",
      "postal_code": "31350"
    },
    {
      "id": 33733,
      "district_id": 420,
      "name": "AKDENİZ MAH",
      "area": "DEFNE",
      "postal_code": "31160"
    },
    {
      "id": 33734,
      "district_id": 420,
      "name": "AKNEHİR MAH",
      "area": "DEFNE",
      "postal_code": "31160"
    },
    {
      "id": 33735,
      "district_id": 420,
      "name": "ARMUTLU MAH",
      "area": "DEFNE",
      "postal_code": "31160"
    },
    {
      "id": 33736,
      "district_id": 420,
      "name": "AŞAĞIOKÇULAR MAH",
      "area": "DEFNE",
      "postal_code": "31160"
    },
    {
      "id": 33737,
      "district_id": 420,
      "name": "BAHÇEKÖY MAH",
      "area": "DEFNE",
      "postal_code": "31160"
    },
    {
      "id": 33738,
      "district_id": 420,
      "name": "BALIKLIDERE MAH",
      "area": "DEFNE",
      "postal_code": "31160"
    },
    {
      "id": 33739,
      "district_id": 420,
      "name": "BALLIÖZ MAH",
      "area": "DEFNE",
      "postal_code": "31160"
    },
    {
      "id": 33740,
      "district_id": 420,
      "name": "BOSTANCIK MAH",
      "area": "DEFNE",
      "postal_code": "31160"
    },
    {
      "id": 33741,
      "district_id": 420,
      "name": "BÜYÜKÇAT MAH",
      "area": "DEFNE",
      "postal_code": "31160"
    },
    {
      "id": 33742,
      "district_id": 420,
      "name": "ÇARDAKLI MAH",
      "area": "DEFNE",
      "postal_code": "31160"
    },
    {
      "id": 33743,
      "district_id": 420,
      "name": "ÇEKMECE MAH",
      "area": "DEFNE",
      "postal_code": "31160"
    },
    {
      "id": 33744,
      "district_id": 420,
      "name": "ÇINARLI MAH",
      "area": "DEFNE",
      "postal_code": "31160"
    },
    {
      "id": 33745,
      "district_id": 420,
      "name": "ÇÖKEK MAH",
      "area": "DEFNE",
      "postal_code": "31160"
    },
    {
      "id": 33746,
      "district_id": 420,
      "name": "DEĞİRMENYOLU MAH",
      "area": "DEFNE",
      "postal_code": "31160"
    },
    {
      "id": 33747,
      "district_id": 420,
      "name": "DÖVER MAH",
      "area": "DEFNE",
      "postal_code": "31160"
    },
    {
      "id": 33748,
      "district_id": 420,
      "name": "DURSUNLU MAH",
      "area": "DEFNE",
      "postal_code": "31160"
    },
    {
      "id": 33749,
      "district_id": 420,
      "name": "ELEKTRİK MAH",
      "area": "DEFNE",
      "postal_code": "31160"
    },
    {
      "id": 33750,
      "district_id": 420,
      "name": "GÜMÜŞGÖZE MAH",
      "area": "DEFNE",
      "postal_code": "31160"
    },
    {
      "id": 33751,
      "district_id": 420,
      "name": "GÜNEYSÖĞÜT MAH",
      "area": "DEFNE",
      "postal_code": "31160"
    },
    {
      "id": 33752,
      "district_id": 420,
      "name": "HANCAĞIZ MAH",
      "area": "DEFNE",
      "postal_code": "31160"
    },
    {
      "id": 33753,
      "district_id": 420,
      "name": "HARBİYE MAH",
      "area": "DEFNE",
      "postal_code": "31160"
    },
    {
      "id": 33754,
      "district_id": 420,
      "name": "HÜSEYİNLİ MAH",
      "area": "DEFNE",
      "postal_code": "31160"
    },
    {
      "id": 33755,
      "district_id": 420,
      "name": "KARŞIYAKA MAH",
      "area": "DEFNE",
      "postal_code": "31160"
    },
    {
      "id": 33756,
      "district_id": 420,
      "name": "KOÇÖREN MAH",
      "area": "DEFNE",
      "postal_code": "31160"
    },
    {
      "id": 33757,
      "district_id": 420,
      "name": "MEYDANCIK MAH",
      "area": "DEFNE",
      "postal_code": "31160"
    },
    {
      "id": 33758,
      "district_id": 420,
      "name": "ORHANLI MAH",
      "area": "DEFNE",
      "postal_code": "31160"
    },
    {
      "id": 33759,
      "district_id": 420,
      "name": "ÖZBEK MAH",
      "area": "DEFNE",
      "postal_code": "31160"
    },
    {
      "id": 33760,
      "district_id": 420,
      "name": "SAMANKAYA MAH",
      "area": "DEFNE",
      "postal_code": "31160"
    },
    {
      "id": 33761,
      "district_id": 420,
      "name": "SİNANLI MAH",
      "area": "DEFNE",
      "postal_code": "31160"
    },
    {
      "id": 33762,
      "district_id": 420,
      "name": "SUBAŞI MAH",
      "area": "DEFNE",
      "postal_code": "31160"
    },
    {
      "id": 33763,
      "district_id": 420,
      "name": "SÜMERLER MAH",
      "area": "DEFNE",
      "postal_code": "31160"
    },
    {
      "id": 33764,
      "district_id": 420,
      "name": "TAVLA MAH",
      "area": "DEFNE",
      "postal_code": "31160"
    },
    {
      "id": 33765,
      "district_id": 420,
      "name": "TOYGARLI MAH",
      "area": "DEFNE",
      "postal_code": "31160"
    },
    {
      "id": 33766,
      "district_id": 420,
      "name": "TURUNÇLU MAH",
      "area": "DEFNE",
      "postal_code": "31160"
    },
    {
      "id": 33767,
      "district_id": 420,
      "name": "ÜZENGİLİ MAH",
      "area": "DEFNE",
      "postal_code": "31160"
    },
    {
      "id": 33768,
      "district_id": 420,
      "name": "YENİÇAĞ MAH",
      "area": "DEFNE",
      "postal_code": "31160"
    },
    {
      "id": 33769,
      "district_id": 420,
      "name": "YEŞİLPINAR MAH",
      "area": "DEFNE",
      "postal_code": "31160"
    },
    {
      "id": 33770,
      "district_id": 421,
      "name": "ALTINÇAĞ MAH",
      "area": "DÖRTYOL",
      "postal_code": "31600"
    },
    {
      "id": 33771,
      "district_id": 421,
      "name": "ÇATKÖY MAH",
      "area": "DÖRTYOL",
      "postal_code": "31600"
    },
    {
      "id": 33772,
      "district_id": 421,
      "name": "ÇAYLI MAH",
      "area": "DÖRTYOL",
      "postal_code": "31600"
    },
    {
      "id": 33773,
      "district_id": 421,
      "name": "KAPILI MAH",
      "area": "DÖRTYOL",
      "postal_code": "31600"
    },
    {
      "id": 33774,
      "district_id": 421,
      "name": "KARAKESE MAH",
      "area": "DÖRTYOL",
      "postal_code": "31600"
    },
    {
      "id": 33775,
      "district_id": 421,
      "name": "KIŞLALAR MAH",
      "area": "DÖRTYOL",
      "postal_code": "31600"
    },
    {
      "id": 33776,
      "district_id": 421,
      "name": "KONAKLI MAH",
      "area": "DÖRTYOL",
      "postal_code": "31600"
    },
    {
      "id": 33777,
      "district_id": 421,
      "name": "KUZUCULU MAH",
      "area": "DÖRTYOL",
      "postal_code": "31600"
    },
    {
      "id": 33778,
      "district_id": 421,
      "name": "NUMUNE EVLER MAH",
      "area": "DÖRTYOL",
      "postal_code": "31600"
    },
    {
      "id": 33779,
      "district_id": 421,
      "name": "OCAKLI MAH",
      "area": "DÖRTYOL",
      "postal_code": "31600"
    },
    {
      "id": 33780,
      "district_id": 421,
      "name": "ÖZERLİ MAH",
      "area": "DÖRTYOL",
      "postal_code": "31600"
    },
    {
      "id": 33781,
      "district_id": 421,
      "name": "SANAYİ MAH",
      "area": "DÖRTYOL",
      "postal_code": "31600"
    },
    {
      "id": 33782,
      "district_id": 421,
      "name": "YENİYURT MAH",
      "area": "DÖRTYOL",
      "postal_code": "31600"
    },
    {
      "id": 33783,
      "district_id": 421,
      "name": "YEŞİL MAH",
      "area": "DÖRTYOL",
      "postal_code": "31600"
    },
    {
      "id": 33784,
      "district_id": 421,
      "name": "YEŞİLKÖY MAH",
      "area": "DÖRTYOL",
      "postal_code": "31600"
    },
    {
      "id": 33785,
      "district_id": 422,
      "name": "AŞAĞIBURNAZ MAH",
      "area": "ERZİN",
      "postal_code": "31960"
    },
    {
      "id": 33786,
      "district_id": 422,
      "name": "BAHÇELİEVLER MAH",
      "area": "ERZİN",
      "postal_code": "31960"
    },
    {
      "id": 33787,
      "district_id": 422,
      "name": "BAŞLAMIŞ MAH",
      "area": "ERZİN",
      "postal_code": "31960"
    },
    {
      "id": 33788,
      "district_id": 422,
      "name": "CUMHURİYET MAH",
      "area": "ERZİN",
      "postal_code": "31960"
    },
    {
      "id": 33789,
      "district_id": 422,
      "name": "GÖKDERE MAH",
      "area": "ERZİN",
      "postal_code": "31960"
    },
    {
      "id": 33790,
      "district_id": 422,
      "name": "GÖKGÖL MAH",
      "area": "ERZİN",
      "postal_code": "31960"
    },
    {
      "id": 33791,
      "district_id": 422,
      "name": "HÜRRİYET MAH",
      "area": "ERZİN",
      "postal_code": "31960"
    },
    {
      "id": 33792,
      "district_id": 422,
      "name": "İSALİ MAH",
      "area": "ERZİN",
      "postal_code": "31960"
    },
    {
      "id": 33793,
      "district_id": 422,
      "name": "İSTİKLAL MAH",
      "area": "ERZİN",
      "postal_code": "31960"
    },
    {
      "id": 33794,
      "district_id": 422,
      "name": "KARAMUSTAFALI MAH",
      "area": "ERZİN",
      "postal_code": "31960"
    },
    {
      "id": 33795,
      "district_id": 422,
      "name": "KIZLARÇAYI MAH",
      "area": "ERZİN",
      "postal_code": "31960"
    },
    {
      "id": 33796,
      "district_id": 422,
      "name": "KUYULUK MAH",
      "area": "ERZİN",
      "postal_code": "31960"
    },
    {
      "id": 33797,
      "district_id": 422,
      "name": "MAHMUTLU MAH",
      "area": "ERZİN",
      "postal_code": "31960"
    },
    {
      "id": 33798,
      "district_id": 422,
      "name": "MUSTAFALI MAH",
      "area": "ERZİN",
      "postal_code": "31960"
    },
    {
      "id": 33799,
      "district_id": 422,
      "name": "ŞÜKRÜ PAŞA MAH",
      "area": "ERZİN",
      "postal_code": "31960"
    },
    {
      "id": 33800,
      "district_id": 422,
      "name": "TURUNÇLU MAH",
      "area": "ERZİN",
      "postal_code": "31960"
    },
    {
      "id": 33801,
      "district_id": 422,
      "name": "YENİ MAH",
      "area": "ERZİN",
      "postal_code": "31960"
    },
    {
      "id": 33802,
      "district_id": 422,
      "name": "YEŞİLTEPE MAH",
      "area": "ERZİN",
      "postal_code": "31960"
    },
    {
      "id": 33803,
      "district_id": 422,
      "name": "YONCADÜZÜ MAH",
      "area": "ERZİN",
      "postal_code": "31960"
    },
    {
      "id": 33804,
      "district_id": 422,
      "name": "YUKARIBURNAZ MAH",
      "area": "ERZİN",
      "postal_code": "31960"
    },
    {
      "id": 33805,
      "district_id": 423,
      "name": "AKBEZ MAH",
      "area": "HASSA",
      "postal_code": "31700"
    },
    {
      "id": 33806,
      "district_id": 423,
      "name": "AKKÜLEK MAH",
      "area": "HASSA",
      "postal_code": "31700"
    },
    {
      "id": 33807,
      "district_id": 423,
      "name": "AKTEPE MAH",
      "area": "HASSA",
      "postal_code": "31700"
    },
    {
      "id": 33808,
      "district_id": 423,
      "name": "ARDIÇLI MAH",
      "area": "HASSA",
      "postal_code": "31700"
    },
    {
      "id": 33809,
      "district_id": 423,
      "name": "ARPALIUŞAĞI MAH",
      "area": "HASSA",
      "postal_code": "31700"
    },
    {
      "id": 33810,
      "district_id": 423,
      "name": "AŞAĞIKARAFAKILI MAH",
      "area": "HASSA",
      "postal_code": "31700"
    },
    {
      "id": 33811,
      "district_id": 423,
      "name": "BADEMLİ MAH",
      "area": "HASSA",
      "postal_code": "31700"
    },
    {
      "id": 33812,
      "district_id": 423,
      "name": "BİNTAŞ MAH",
      "area": "HASSA",
      "postal_code": "31700"
    },
    {
      "id": 33813,
      "district_id": 423,
      "name": "BUHARA MAH",
      "area": "HASSA",
      "postal_code": "31700"
    },
    {
      "id": 33814,
      "district_id": 423,
      "name": "ÇAY MAH",
      "area": "HASSA",
      "postal_code": "31700"
    },
    {
      "id": 33815,
      "district_id": 423,
      "name": "ÇINARBAŞI MAH",
      "area": "HASSA",
      "postal_code": "31700"
    },
    {
      "id": 33816,
      "district_id": 423,
      "name": "DEDEMLİ MAH",
      "area": "HASSA",
      "postal_code": "31700"
    },
    {
      "id": 33817,
      "district_id": 423,
      "name": "DEMREK MAH",
      "area": "HASSA",
      "postal_code": "31700"
    },
    {
      "id": 33818,
      "district_id": 423,
      "name": "DERVİŞPAŞA MAH",
      "area": "HASSA",
      "postal_code": "31700"
    },
    {
      "id": 33819,
      "district_id": 423,
      "name": "EĞRİBUCAK MAH",
      "area": "HASSA",
      "postal_code": "31700"
    },
    {
      "id": 33820,
      "district_id": 423,
      "name": "GAZELUŞAĞI MAH",
      "area": "HASSA",
      "postal_code": "31700"
    },
    {
      "id": 33821,
      "district_id": 423,
      "name": "GİRNE MAH",
      "area": "HASSA",
      "postal_code": "31700"
    },
    {
      "id": 33822,
      "district_id": 423,
      "name": "GÜLKENT MAH",
      "area": "HASSA",
      "postal_code": "31700"
    },
    {
      "id": 33823,
      "district_id": 423,
      "name": "GÜLPINAR MAH",
      "area": "HASSA",
      "postal_code": "31700"
    },
    {
      "id": 33824,
      "district_id": 423,
      "name": "GÜVENÇ MAH",
      "area": "HASSA",
      "postal_code": "31700"
    },
    {
      "id": 33825,
      "district_id": 423,
      "name": "HACILAR MAH",
      "area": "HASSA",
      "postal_code": "31700"
    },
    {
      "id": 33826,
      "district_id": 423,
      "name": "HAYDARLAR MAH",
      "area": "HASSA",
      "postal_code": "31700"
    },
    {
      "id": 33827,
      "district_id": 423,
      "name": "KATRANLIK MAH",
      "area": "HASSA",
      "postal_code": "31700"
    },
    {
      "id": 33828,
      "district_id": 423,
      "name": "KORUHÖYÜK MAH",
      "area": "HASSA",
      "postal_code": "31700"
    },
    {
      "id": 33829,
      "district_id": 423,
      "name": "KÜRECİ MAH",
      "area": "HASSA",
      "postal_code": "31700"
    },
    {
      "id": 33830,
      "district_id": 423,
      "name": "MAZMANLI MAH",
      "area": "HASSA",
      "postal_code": "31700"
    },
    {
      "id": 33831,
      "district_id": 423,
      "name": "ONBEŞKASIM MAH",
      "area": "HASSA",
      "postal_code": "31700"
    },
    {
      "id": 33832,
      "district_id": 423,
      "name": "SAPANÖZÜ MAH",
      "area": "HASSA",
      "postal_code": "31700"
    },
    {
      "id": 33833,
      "district_id": 423,
      "name": "SÖĞÜT MAH",
      "area": "HASSA",
      "postal_code": "31700"
    },
    {
      "id": 33834,
      "district_id": 423,
      "name": "SUGEDİĞİ MAH",
      "area": "HASSA",
      "postal_code": "31700"
    },
    {
      "id": 33835,
      "district_id": 423,
      "name": "TEPEBAŞI MAH",
      "area": "HASSA",
      "postal_code": "31700"
    },
    {
      "id": 33836,
      "district_id": 423,
      "name": "TİYEK MAH",
      "area": "HASSA",
      "postal_code": "31700"
    },
    {
      "id": 33837,
      "district_id": 423,
      "name": "YENİ MAH",
      "area": "HASSA",
      "postal_code": "31700"
    },
    {
      "id": 33838,
      "district_id": 423,
      "name": "YENİYAPAN MAH",
      "area": "HASSA",
      "postal_code": "31700"
    },
    {
      "id": 33839,
      "district_id": 423,
      "name": "YOLUKLAR MAH",
      "area": "HASSA",
      "postal_code": "31700"
    },
    {
      "id": 33840,
      "district_id": 423,
      "name": "YUKARIBUCAK MAH",
      "area": "HASSA",
      "postal_code": "31700"
    },
    {
      "id": 33841,
      "district_id": 423,
      "name": "YUKARIKARAFAKILI MAH",
      "area": "HASSA",
      "postal_code": "31700"
    },
    {
      "id": 33842,
      "district_id": 423,
      "name": "YUVALI MAH",
      "area": "HASSA",
      "postal_code": "31700"
    },
    {
      "id": 33843,
      "district_id": 423,
      "name": "ZEYTİNOBA MAH",
      "area": "HASSA",
      "postal_code": "31700"
    },
    {
      "id": 33844,
      "district_id": 424,
      "name": "AKARCA MAH",
      "area": "AZGANLIK",
      "postal_code": "31280"
    },
    {
      "id": 33845,
      "district_id": 424,
      "name": "AKÇAY MAH",
      "area": "AZGANLIK",
      "postal_code": "31280"
    },
    {
      "id": 33846,
      "district_id": 424,
      "name": "AŞKARBEYLİ MAH",
      "area": "AZGANLIK",
      "postal_code": "31280"
    },
    {
      "id": 33847,
      "district_id": 424,
      "name": "AZGANLIK MAH",
      "area": "AZGANLIK",
      "postal_code": "31280"
    },
    {
      "id": 33848,
      "district_id": 424,
      "name": "AZGANLIK OSB MAH",
      "area": "AZGANLIK",
      "postal_code": "31280"
    },
    {
      "id": 33849,
      "district_id": 424,
      "name": "BARBAROS MAH",
      "area": "CUMHURİYET",
      "postal_code": "31200"
    },
    {
      "id": 33850,
      "district_id": 424,
      "name": "BARIŞTEPE MAH",
      "area": "TEPELER",
      "postal_code": "31240"
    },
    {
      "id": 33851,
      "district_id": 424,
      "name": "BEKBELE MAH",
      "area": "AZGANLIK",
      "postal_code": "31280"
    },
    {
      "id": 33852,
      "district_id": 424,
      "name": "BİTİŞİK MAH",
      "area": "AZGANLIK",
      "postal_code": "31280"
    },
    {
      "id": 33853,
      "district_id": 424,
      "name": "BULUTTEPE MAH",
      "area": "TEPELER",
      "postal_code": "31240"
    },
    {
      "id": 33854,
      "district_id": 424,
      "name": "BÜYÜKDERE MAH",
      "area": "AZGANLIK",
      "postal_code": "31280"
    },
    {
      "id": 33855,
      "district_id": 424,
      "name": "ÇAY MAH",
      "area": "SANAYİ",
      "postal_code": "31300"
    },
    {
      "id": 33856,
      "district_id": 424,
      "name": "CEBİKE MAH",
      "area": "AZGANLIK",
      "postal_code": "31280"
    },
    {
      "id": 33857,
      "district_id": 424,
      "name": "ÇINARLI MAH",
      "area": "AZGANLIK",
      "postal_code": "31280"
    },
    {
      "id": 33858,
      "district_id": 424,
      "name": "CIRTIMAN MAH",
      "area": "AZGANLIK",
      "postal_code": "31280"
    },
    {
      "id": 33859,
      "district_id": 424,
      "name": "CUMHURİYET MAH",
      "area": "CUMHURİYET",
      "postal_code": "31200"
    },
    {
      "id": 33860,
      "district_id": 424,
      "name": "DENİZCİLER MAH",
      "area": "AZGANLIK",
      "postal_code": "31280"
    },
    {
      "id": 33861,
      "district_id": 424,
      "name": "DUMLUPINAR MAH",
      "area": "SANAYİ",
      "postal_code": "31300"
    },
    {
      "id": 33862,
      "district_id": 424,
      "name": "ESENTEPE MAH",
      "area": "TEPELER",
      "postal_code": "31240"
    },
    {
      "id": 33863,
      "district_id": 424,
      "name": "FATİH SULTAN MEHMET MAH",
      "area": "SANAYİ",
      "postal_code": "31300"
    },
    {
      "id": 33864,
      "district_id": 424,
      "name": "GÜLTEPE MAH",
      "area": "TEPELER",
      "postal_code": "31240"
    },
    {
      "id": 33865,
      "district_id": 424,
      "name": "GÜRSEL MAH",
      "area": "MEYDAN",
      "postal_code": "31230"
    },
    {
      "id": 33866,
      "district_id": 424,
      "name": "GÜZELÇAY MAH",
      "area": "SANAYİ",
      "postal_code": "31300"
    },
    {
      "id": 33867,
      "district_id": 424,
      "name": "HÜRRİYET MAH",
      "area": "CUMHURİYET",
      "postal_code": "31200"
    },
    {
      "id": 33868,
      "district_id": 424,
      "name": "İSMET İNÖNÜ MAH",
      "area": "MEYDAN",
      "postal_code": "31230"
    },
    {
      "id": 33869,
      "district_id": 424,
      "name": "KALEDİBİ MAH",
      "area": "AZGANLIK",
      "postal_code": "31280"
    },
    {
      "id": 33870,
      "district_id": 424,
      "name": "KARAYILAN MAH",
      "area": "AZGANLIK",
      "postal_code": "31280"
    },
    {
      "id": 33871,
      "district_id": 424,
      "name": "KAVAKLIOLUK MAH",
      "area": "AZGANLIK",
      "postal_code": "31280"
    },
    {
      "id": 33872,
      "district_id": 424,
      "name": "KOCATEPE MAH",
      "area": "TEPELER",
      "postal_code": "31240"
    },
    {
      "id": 33873,
      "district_id": 424,
      "name": "KURTULUŞ MAH",
      "area": "CUMHURİYET",
      "postal_code": "31200"
    },
    {
      "id": 33874,
      "district_id": 424,
      "name": "MEYDAN MAH",
      "area": "MEYDAN",
      "postal_code": "31230"
    },
    {
      "id": 33875,
      "district_id": 424,
      "name": "MODERNEVLER MAH",
      "area": "SANAYİ",
      "postal_code": "31300"
    },
    {
      "id": 33876,
      "district_id": 424,
      "name": "MURADİYE MAH",
      "area": "SANAYİ",
      "postal_code": "31300"
    },
    {
      "id": 33877,
      "district_id": 424,
      "name": "MUSTAFA KEMAL MAH",
      "area": "MEYDAN",
      "postal_code": "31230"
    },
    {
      "id": 33878,
      "district_id": 424,
      "name": "NUMUNE MAH",
      "area": "MEYDAN",
      "postal_code": "31230"
    },
    {
      "id": 33879,
      "district_id": 424,
      "name": "ORHANGAZİ MAH",
      "area": "AZGANLIK",
      "postal_code": "31280"
    },
    {
      "id": 33880,
      "district_id": 424,
      "name": "PINARBAŞI MAH",
      "area": "MEYDAN",
      "postal_code": "31230"
    },
    {
      "id": 33881,
      "district_id": 424,
      "name": "PİRİREİS MAH",
      "area": "CUMHURİYET",
      "postal_code": "31200"
    },
    {
      "id": 33882,
      "district_id": 424,
      "name": "SAKARYA MAH",
      "area": "SANAYİ",
      "postal_code": "31300"
    },
    {
      "id": 33883,
      "district_id": 424,
      "name": "SARISEKİ MAH",
      "area": "AZGANLIK",
      "postal_code": "31280"
    },
    {
      "id": 33884,
      "district_id": 424,
      "name": "SAVAŞ MAH",
      "area": "CUMHURİYET",
      "postal_code": "31200"
    },
    {
      "id": 33885,
      "district_id": 424,
      "name": "SUÇIKAĞI MAH",
      "area": "AZGANLIK",
      "postal_code": "31280"
    },
    {
      "id": 33886,
      "district_id": 424,
      "name": "SÜLEYMANİYE MAH",
      "area": "CUMHURİYET",
      "postal_code": "31200"
    },
    {
      "id": 33887,
      "district_id": 424,
      "name": "YENİŞEHİR MAH",
      "area": "CUMHURİYET",
      "postal_code": "31200"
    },
    {
      "id": 33888,
      "district_id": 424,
      "name": "YILDIRIMTEPE MAH",
      "area": "TEPELER",
      "postal_code": "31240"
    },
    {
      "id": 33889,
      "district_id": 424,
      "name": "YUNUS EMRE MAH",
      "area": "SANAYİ",
      "postal_code": "31300"
    },
    {
      "id": 33890,
      "district_id": 425,
      "name": "408 EVLER MAH",
      "area": "KIRIKHAN",
      "postal_code": "31440"
    },
    {
      "id": 33891,
      "district_id": 425,
      "name": "ABALAKLI MAH",
      "area": "KIRIKHAN",
      "postal_code": "31440"
    },
    {
      "id": 33892,
      "district_id": 425,
      "name": "ADALAR MAH",
      "area": "KIRIKHAN",
      "postal_code": "31440"
    },
    {
      "id": 33893,
      "district_id": 425,
      "name": "AKTUTAN MAH",
      "area": "KIRIKHAN",
      "postal_code": "31440"
    },
    {
      "id": 33894,
      "district_id": 425,
      "name": "ALAYBEYLİ MAH",
      "area": "KIRIKHAN",
      "postal_code": "31440"
    },
    {
      "id": 33895,
      "district_id": 425,
      "name": "ALİBEYÇAĞILLI MAH",
      "area": "KIRIKHAN",
      "postal_code": "31440"
    },
    {
      "id": 33896,
      "district_id": 425,
      "name": "ALPARSLAN MAH",
      "area": "KIRIKHAN",
      "postal_code": "31440"
    },
    {
      "id": 33897,
      "district_id": 425,
      "name": "ALSANCAK MAH",
      "area": "KIRIKHAN",
      "postal_code": "31440"
    },
    {
      "id": 33898,
      "district_id": 425,
      "name": "ARKITÇA MAH",
      "area": "KIRIKHAN",
      "postal_code": "31440"
    },
    {
      "id": 33899,
      "district_id": 425,
      "name": "AYDINLI MAH",
      "area": "KIRIKHAN",
      "postal_code": "31440"
    },
    {
      "id": 33900,
      "district_id": 425,
      "name": "AYGIRGÖLÜ MAH",
      "area": "KIRIKHAN",
      "postal_code": "31440"
    },
    {
      "id": 33901,
      "district_id": 425,
      "name": "BAHÇELİEVLER MAH",
      "area": "KIRIKHAN",
      "postal_code": "31440"
    },
    {
      "id": 33902,
      "district_id": 425,
      "name": "BALARMUDU MAH",
      "area": "KIRIKHAN",
      "postal_code": "31440"
    },
    {
      "id": 33903,
      "district_id": 425,
      "name": "BALDIRAN MAH",
      "area": "KIRIKHAN",
      "postal_code": "31440"
    },
    {
      "id": 33904,
      "district_id": 425,
      "name": "BARBAROS MAH",
      "area": "KIRIKHAN",
      "postal_code": "31440"
    },
    {
      "id": 33905,
      "district_id": 425,
      "name": "BAŞPINAR MAH",
      "area": "KIRIKHAN",
      "postal_code": "31440"
    },
    {
      "id": 33906,
      "district_id": 425,
      "name": "BEKTAŞLI MAH",
      "area": "KIRIKHAN",
      "postal_code": "31440"
    },
    {
      "id": 33907,
      "district_id": 425,
      "name": "ÇAMSARI MAH",
      "area": "KIRIKHAN",
      "postal_code": "31440"
    },
    {
      "id": 33908,
      "district_id": 425,
      "name": "ÇAMSEKİ MAH",
      "area": "KIRIKHAN",
      "postal_code": "31440"
    },
    {
      "id": 33909,
      "district_id": 425,
      "name": "CAMUZKIŞLASI MAH",
      "area": "KIRIKHAN",
      "postal_code": "31440"
    },
    {
      "id": 33910,
      "district_id": 425,
      "name": "ÇANKAYA MAH",
      "area": "KIRIKHAN",
      "postal_code": "31440"
    },
    {
      "id": 33911,
      "district_id": 425,
      "name": "ÇATALTEPE MAH",
      "area": "KIRIKHAN",
      "postal_code": "31440"
    },
    {
      "id": 33912,
      "district_id": 425,
      "name": "CEYLANLI MAH",
      "area": "KIRIKHAN",
      "postal_code": "31440"
    },
    {
      "id": 33913,
      "district_id": 425,
      "name": "ÇİLOĞLANHÜYÜĞÜ MAH",
      "area": "KIRIKHAN",
      "postal_code": "31440"
    },
    {
      "id": 33914,
      "district_id": 425,
      "name": "CUMHURİYET MAH",
      "area": "KIRIKHAN",
      "postal_code": "31440"
    },
    {
      "id": 33915,
      "district_id": 425,
      "name": "DANAAHMETLİ MAH",
      "area": "KIRIKHAN",
      "postal_code": "31440"
    },
    {
      "id": 33916,
      "district_id": 425,
      "name": "DEDEÇINAR MAH",
      "area": "KIRIKHAN",
      "postal_code": "31440"
    },
    {
      "id": 33917,
      "district_id": 425,
      "name": "DELİBEKİRLİ MAH",
      "area": "KIRIKHAN",
      "postal_code": "31440"
    },
    {
      "id": 33918,
      "district_id": 425,
      "name": "DEMİRKONAK MAH",
      "area": "KIRIKHAN",
      "postal_code": "31440"
    },
    {
      "id": 33919,
      "district_id": 425,
      "name": "FATİH MAH",
      "area": "KIRIKHAN",
      "postal_code": "31440"
    },
    {
      "id": 33920,
      "district_id": 425,
      "name": "GAZİ MAH",
      "area": "KIRIKHAN",
      "postal_code": "31440"
    },
    {
      "id": 33921,
      "district_id": 425,
      "name": "GÖLBAŞI MAH",
      "area": "KIRIKHAN",
      "postal_code": "31440"
    },
    {
      "id": 33922,
      "district_id": 425,
      "name": "GÜLTEPE MAH",
      "area": "KIRIKHAN",
      "postal_code": "31440"
    },
    {
      "id": 33923,
      "district_id": 425,
      "name": "GÜNDÜZ MAH",
      "area": "KIRIKHAN",
      "postal_code": "31440"
    },
    {
      "id": 33924,
      "district_id": 425,
      "name": "GÜVENTAŞI MAH",
      "area": "KIRIKHAN",
      "postal_code": "31440"
    },
    {
      "id": 33925,
      "district_id": 425,
      "name": "GÜZELCE MAH",
      "area": "KIRIKHAN",
      "postal_code": "31440"
    },
    {
      "id": 33926,
      "district_id": 425,
      "name": "İÇADA MAH",
      "area": "KIRIKHAN",
      "postal_code": "31440"
    },
    {
      "id": 33927,
      "district_id": 425,
      "name": "ILIKPINAR MAH",
      "area": "KIRIKHAN",
      "postal_code": "31440"
    },
    {
      "id": 33928,
      "district_id": 425,
      "name": "İNCİRLİ MAH",
      "area": "KIRIKHAN",
      "postal_code": "31440"
    },
    {
      "id": 33929,
      "district_id": 425,
      "name": "KALETEPE MAH",
      "area": "KIRIKHAN",
      "postal_code": "31440"
    },
    {
      "id": 33930,
      "district_id": 425,
      "name": "KAMBERLİKAYA MAH",
      "area": "KIRIKHAN",
      "postal_code": "31440"
    },
    {
      "id": 33931,
      "district_id": 425,
      "name": "KAMIŞLAR MAH",
      "area": "KIRIKHAN",
      "postal_code": "31440"
    },
    {
      "id": 33932,
      "district_id": 425,
      "name": "KANGALLAR MAH",
      "area": "KIRIKHAN",
      "postal_code": "31440"
    },
    {
      "id": 33933,
      "district_id": 425,
      "name": "KARAÇAĞIL MAH",
      "area": "KIRIKHAN",
      "postal_code": "31440"
    },
    {
      "id": 33934,
      "district_id": 425,
      "name": "KARADURMUŞLU MAH",
      "area": "KIRIKHAN",
      "postal_code": "31440"
    },
    {
      "id": 33935,
      "district_id": 425,
      "name": "KARAELMASLI MAH",
      "area": "KIRIKHAN",
      "postal_code": "31440"
    },
    {
      "id": 33936,
      "district_id": 425,
      "name": "KARAMAĞARA MAH",
      "area": "KIRIKHAN",
      "postal_code": "31440"
    },
    {
      "id": 33937,
      "district_id": 425,
      "name": "KARAMANKAŞI MAH",
      "area": "KIRIKHAN",
      "postal_code": "31440"
    },
    {
      "id": 33938,
      "district_id": 425,
      "name": "KARATAŞ MAH",
      "area": "KIRIKHAN",
      "postal_code": "31440"
    },
    {
      "id": 33939,
      "district_id": 425,
      "name": "KAZKELİ MAH",
      "area": "KIRIKHAN",
      "postal_code": "31440"
    },
    {
      "id": 33940,
      "district_id": 425,
      "name": "KIZILKAYA MAH",
      "area": "KIRIKHAN",
      "postal_code": "31440"
    },
    {
      "id": 33941,
      "district_id": 425,
      "name": "KODALLI MAH",
      "area": "KIRIKHAN",
      "postal_code": "31440"
    },
    {
      "id": 33942,
      "district_id": 425,
      "name": "KURTLUSARIMAZI MAH",
      "area": "KIRIKHAN",
      "postal_code": "31440"
    },
    {
      "id": 33943,
      "district_id": 425,
      "name": "KURTLUSOĞUKSU MAH",
      "area": "KIRIKHAN",
      "postal_code": "31440"
    },
    {
      "id": 33944,
      "district_id": 425,
      "name": "KURTULUŞ MAH",
      "area": "KIRIKHAN",
      "postal_code": "31440"
    },
    {
      "id": 33945,
      "district_id": 425,
      "name": "MAHMUTLU MAH",
      "area": "KIRIKHAN",
      "postal_code": "31440"
    },
    {
      "id": 33946,
      "district_id": 425,
      "name": "MENDERES MAH",
      "area": "KIRIKHAN",
      "postal_code": "31440"
    },
    {
      "id": 33947,
      "district_id": 425,
      "name": "MİMAR SİNAN MAH",
      "area": "KIRIKHAN",
      "postal_code": "31440"
    },
    {
      "id": 33948,
      "district_id": 425,
      "name": "MURATPAŞA MAH",
      "area": "KIRIKHAN",
      "postal_code": "31440"
    },
    {
      "id": 33949,
      "district_id": 425,
      "name": "NARLIHOPUR MAH",
      "area": "KIRIKHAN",
      "postal_code": "31440"
    },
    {
      "id": 33950,
      "district_id": 425,
      "name": "ÖZKIZILKAYA MAH",
      "area": "KIRIKHAN",
      "postal_code": "31440"
    },
    {
      "id": 33951,
      "district_id": 425,
      "name": "ÖZSOĞUKSU MAH",
      "area": "KIRIKHAN",
      "postal_code": "31440"
    },
    {
      "id": 33952,
      "district_id": 425,
      "name": "ÖZYÖRÜK MAH",
      "area": "KIRIKHAN",
      "postal_code": "31440"
    },
    {
      "id": 33953,
      "district_id": 425,
      "name": "REŞATLI MAH",
      "area": "KIRIKHAN",
      "postal_code": "31440"
    },
    {
      "id": 33954,
      "district_id": 425,
      "name": "SAYLAK MAH",
      "area": "KIRIKHAN",
      "postal_code": "31440"
    },
    {
      "id": 33955,
      "district_id": 425,
      "name": "SÖĞÜTLÜÖZ MAH",
      "area": "KIRIKHAN",
      "postal_code": "31440"
    },
    {
      "id": 33956,
      "district_id": 425,
      "name": "SUCUKÖY MAH",
      "area": "KIRIKHAN",
      "postal_code": "31440"
    },
    {
      "id": 33957,
      "district_id": 425,
      "name": "TAŞOLUK MAH",
      "area": "KIRIKHAN",
      "postal_code": "31440"
    },
    {
      "id": 33958,
      "district_id": 425,
      "name": "TOPBOĞAZI MAH",
      "area": "KIRIKHAN",
      "postal_code": "31440"
    },
    {
      "id": 33959,
      "district_id": 425,
      "name": "TORUN MAH",
      "area": "KIRIKHAN",
      "postal_code": "31440"
    },
    {
      "id": 33960,
      "district_id": 425,
      "name": "YALANGOZ MAH",
      "area": "KIRIKHAN",
      "postal_code": "31440"
    },
    {
      "id": 33961,
      "district_id": 425,
      "name": "YENİ MAH",
      "area": "KIRIKHAN",
      "postal_code": "31440"
    },
    {
      "id": 33962,
      "district_id": 425,
      "name": "YILANLI MAH",
      "area": "KIRIKHAN",
      "postal_code": "31440"
    },
    {
      "id": 33963,
      "district_id": 426,
      "name": "AKKERPİÇ MAH",
      "area": "KUMLU",
      "postal_code": "31520"
    },
    {
      "id": 33964,
      "district_id": 426,
      "name": "AKKUYU MAH",
      "area": "KUMLU",
      "postal_code": "31520"
    },
    {
      "id": 33965,
      "district_id": 426,
      "name": "AKPINAR MAH",
      "area": "KUMLU",
      "postal_code": "31520"
    },
    {
      "id": 33966,
      "district_id": 426,
      "name": "AKTAŞ MAH",
      "area": "KUMLU",
      "postal_code": "31520"
    },
    {
      "id": 33967,
      "district_id": 426,
      "name": "BATIAYRANCI MAH",
      "area": "KUMLU",
      "postal_code": "31520"
    },
    {
      "id": 33968,
      "district_id": 426,
      "name": "CUMHURİYET MAH",
      "area": "KUMLU",
      "postal_code": "31520"
    },
    {
      "id": 33969,
      "district_id": 426,
      "name": "DOĞUAYRANCI MAH",
      "area": "KUMLU",
      "postal_code": "31520"
    },
    {
      "id": 33970,
      "district_id": 426,
      "name": "FEVZİ ÇAKMAK MAH",
      "area": "KUMLU",
      "postal_code": "31520"
    },
    {
      "id": 33971,
      "district_id": 426,
      "name": "GÖKÇEOĞLU MAH",
      "area": "KUMLU",
      "postal_code": "31520"
    },
    {
      "id": 33972,
      "district_id": 426,
      "name": "GÜLOVA MAH",
      "area": "KUMLU",
      "postal_code": "31520"
    },
    {
      "id": 33973,
      "district_id": 426,
      "name": "HATAYHAMAMI MAH",
      "area": "KUMLU",
      "postal_code": "31520"
    },
    {
      "id": 33974,
      "district_id": 426,
      "name": "KALETEPE MAH",
      "area": "KUMLU",
      "postal_code": "31520"
    },
    {
      "id": 33975,
      "district_id": 426,
      "name": "KELLİ MAH",
      "area": "KUMLU",
      "postal_code": "31520"
    },
    {
      "id": 33976,
      "district_id": 426,
      "name": "KIRCAOĞLU MAH",
      "area": "KUMLU",
      "postal_code": "31520"
    },
    {
      "id": 33977,
      "district_id": 426,
      "name": "MUHARREM MAH",
      "area": "KUMLU",
      "postal_code": "31520"
    },
    {
      "id": 33978,
      "district_id": 426,
      "name": "YENİKÖY MAH",
      "area": "KUMLU",
      "postal_code": "31520"
    },
    {
      "id": 33979,
      "district_id": 427,
      "name": "BAYRAKTEPE MAH",
      "area": "PAYAS",
      "postal_code": "31900"
    },
    {
      "id": 33980,
      "district_id": 427,
      "name": "ÇAĞLALIK MAH",
      "area": "PAYAS",
      "postal_code": "31900"
    },
    {
      "id": 33981,
      "district_id": 427,
      "name": "CUMHURİYET MAH",
      "area": "PAYAS",
      "postal_code": "31900"
    },
    {
      "id": 33982,
      "district_id": 427,
      "name": "FATİH MAH",
      "area": "PAYAS",
      "postal_code": "31900"
    },
    {
      "id": 33983,
      "district_id": 427,
      "name": "İSTİKLAL MAH",
      "area": "PAYAS",
      "postal_code": "31900"
    },
    {
      "id": 33984,
      "district_id": 427,
      "name": "KARACAMİ MAH",
      "area": "PAYAS",
      "postal_code": "31900"
    },
    {
      "id": 33985,
      "district_id": 427,
      "name": "KARBEYAZ MAH",
      "area": "PAYAS",
      "postal_code": "31900"
    },
    {
      "id": 33986,
      "district_id": 427,
      "name": "KARŞI MAH",
      "area": "PAYAS",
      "postal_code": "31900"
    },
    {
      "id": 33987,
      "district_id": 427,
      "name": "KARŞIOSB MAH",
      "area": "PAYAS",
      "postal_code": "31900"
    },
    {
      "id": 33988,
      "district_id": 427,
      "name": "KOZLUDERE MAH",
      "area": "PAYAS",
      "postal_code": "31900"
    },
    {
      "id": 33989,
      "district_id": 427,
      "name": "KÜRTÜL MAH",
      "area": "PAYAS",
      "postal_code": "31900"
    },
    {
      "id": 33990,
      "district_id": 427,
      "name": "SİNCAN MAH",
      "area": "PAYAS",
      "postal_code": "31900"
    },
    {
      "id": 33991,
      "district_id": 427,
      "name": "YENİŞEHİR MAH",
      "area": "PAYAS",
      "postal_code": "31900"
    },
    {
      "id": 33992,
      "district_id": 427,
      "name": "YILDIRIM BEYAZIT MAH",
      "area": "PAYAS",
      "postal_code": "31900"
    },
    {
      "id": 33993,
      "district_id": 428,
      "name": "ADABUCAĞI MAH",
      "area": "REYHANLI",
      "postal_code": "31500"
    },
    {
      "id": 33994,
      "district_id": 428,
      "name": "AHMETBEYLİ MAH",
      "area": "REYHANLI",
      "postal_code": "31500"
    },
    {
      "id": 33995,
      "district_id": 428,
      "name": "AKYAYLA MAH",
      "area": "REYHANLI",
      "postal_code": "31500"
    },
    {
      "id": 33996,
      "district_id": 428,
      "name": "ALAKUZU MAH",
      "area": "REYHANLI",
      "postal_code": "31500"
    },
    {
      "id": 33997,
      "district_id": 428,
      "name": "BAĞLAR MAH",
      "area": "REYHANLI",
      "postal_code": "31500"
    },
    {
      "id": 33998,
      "district_id": 428,
      "name": "BAHÇELİEVLER MAH",
      "area": "REYHANLI",
      "postal_code": "31500"
    },
    {
      "id": 33999,
      "district_id": 428,
      "name": "BAYIR MAH",
      "area": "REYHANLI",
      "postal_code": "31500"
    },
    {
      "id": 34000,
      "district_id": 428,
      "name": "BEŞASLAN MAH",
      "area": "REYHANLI",
      "postal_code": "31500"
    },
    {
      "id": 34001,
      "district_id": 428,
      "name": "BÜKÜLMEZ MAH",
      "area": "REYHANLI",
      "postal_code": "31500"
    },
    {
      "id": 34002,
      "district_id": 428,
      "name": "ÇAKIRYİĞİT MAH",
      "area": "REYHANLI",
      "postal_code": "31500"
    },
    {
      "id": 34003,
      "district_id": 428,
      "name": "CİLVEGÖZÜ MAH",
      "area": "REYHANLI",
      "postal_code": "31500"
    },
    {
      "id": 34004,
      "district_id": 428,
      "name": "CÜDEYDE MAH",
      "area": "REYHANLI",
      "postal_code": "31500"
    },
    {
      "id": 34005,
      "district_id": 428,
      "name": "CUMHURİYET MAH",
      "area": "REYHANLI",
      "postal_code": "31500"
    },
    {
      "id": 34006,
      "district_id": 428,
      "name": "DAVUTPAŞA HÜYÜĞÜ MAH",
      "area": "REYHANLI",
      "postal_code": "31500"
    },
    {
      "id": 34007,
      "district_id": 428,
      "name": "DEĞİRMENKAŞI MAH",
      "area": "REYHANLI",
      "postal_code": "31500"
    },
    {
      "id": 34008,
      "district_id": 428,
      "name": "ESENTEPE MAH",
      "area": "REYHANLI",
      "postal_code": "31500"
    },
    {
      "id": 34009,
      "district_id": 428,
      "name": "FEVZİPAŞA MAH",
      "area": "REYHANLI",
      "postal_code": "31500"
    },
    {
      "id": 34010,
      "district_id": 428,
      "name": "FİDANLIK MAH",
      "area": "REYHANLI",
      "postal_code": "31500"
    },
    {
      "id": 34011,
      "district_id": 428,
      "name": "GAZİMÜRSELTEPESİ MAH",
      "area": "REYHANLI",
      "postal_code": "31500"
    },
    {
      "id": 34012,
      "district_id": 428,
      "name": "GÖKTEPE MAH",
      "area": "REYHANLI",
      "postal_code": "31500"
    },
    {
      "id": 34013,
      "district_id": 428,
      "name": "GÜLTEPE MAH",
      "area": "REYHANLI",
      "postal_code": "31500"
    },
    {
      "id": 34014,
      "district_id": 428,
      "name": "HARRAN MAH",
      "area": "REYHANLI",
      "postal_code": "31500"
    },
    {
      "id": 34015,
      "district_id": 428,
      "name": "KARACANLIK MAH",
      "area": "REYHANLI",
      "postal_code": "31500"
    },
    {
      "id": 34016,
      "district_id": 428,
      "name": "KARAHÜYÜK MAH",
      "area": "REYHANLI",
      "postal_code": "31500"
    },
    {
      "id": 34017,
      "district_id": 428,
      "name": "KARASÜLEYMANLI MAH",
      "area": "REYHANLI",
      "postal_code": "31500"
    },
    {
      "id": 34018,
      "district_id": 428,
      "name": "KONUK MAH",
      "area": "REYHANLI",
      "postal_code": "31500"
    },
    {
      "id": 34019,
      "district_id": 428,
      "name": "KULETEPE MAH",
      "area": "REYHANLI",
      "postal_code": "31500"
    },
    {
      "id": 34020,
      "district_id": 428,
      "name": "KUMTEPE MAH",
      "area": "REYHANLI",
      "postal_code": "31500"
    },
    {
      "id": 34021,
      "district_id": 428,
      "name": "KURTULUŞ MAH",
      "area": "REYHANLI",
      "postal_code": "31500"
    },
    {
      "id": 34022,
      "district_id": 428,
      "name": "KUŞAKLI MAH",
      "area": "REYHANLI",
      "postal_code": "31500"
    },
    {
      "id": 34023,
      "district_id": 428,
      "name": "MEHMETBEYLİ MAH",
      "area": "REYHANLI",
      "postal_code": "31500"
    },
    {
      "id": 34024,
      "district_id": 428,
      "name": "MUSTAFA KEMAL MAH",
      "area": "REYHANLI",
      "postal_code": "31500"
    },
    {
      "id": 34025,
      "district_id": 428,
      "name": "NERGİZLİ MAH",
      "area": "REYHANLI",
      "postal_code": "31500"
    },
    {
      "id": 34026,
      "district_id": 428,
      "name": "OĞULPINAR MAH",
      "area": "REYHANLI",
      "postal_code": "31500"
    },
    {
      "id": 34027,
      "district_id": 428,
      "name": "ÖZ KURTULUŞ MAH",
      "area": "REYHANLI",
      "postal_code": "31500"
    },
    {
      "id": 34028,
      "district_id": 428,
      "name": "PAŞAHÖYÜK MAH",
      "area": "REYHANLI",
      "postal_code": "31500"
    },
    {
      "id": 34029,
      "district_id": 428,
      "name": "PAŞAKÖY MAH",
      "area": "REYHANLI",
      "postal_code": "31500"
    },
    {
      "id": 34030,
      "district_id": 428,
      "name": "PINARBAŞI MAH",
      "area": "REYHANLI",
      "postal_code": "31500"
    },
    {
      "id": 34031,
      "district_id": 428,
      "name": "SULUKÖY MAH",
      "area": "REYHANLI",
      "postal_code": "31500"
    },
    {
      "id": 34032,
      "district_id": 428,
      "name": "TAYFUR SÖKMEN MAH",
      "area": "REYHANLI",
      "postal_code": "31500"
    },
    {
      "id": 34033,
      "district_id": 428,
      "name": "TERZİHÜYÜK MAH",
      "area": "REYHANLI",
      "postal_code": "31500"
    },
    {
      "id": 34034,
      "district_id": 428,
      "name": "ÜÇTEPE MAH",
      "area": "REYHANLI",
      "postal_code": "31500"
    },
    {
      "id": 34035,
      "district_id": 428,
      "name": "UZUNKAVAK MAH",
      "area": "REYHANLI",
      "postal_code": "31500"
    },
    {
      "id": 34036,
      "district_id": 428,
      "name": "VARIŞLI MAH",
      "area": "REYHANLI",
      "postal_code": "31500"
    },
    {
      "id": 34037,
      "district_id": 428,
      "name": "YENİ MAH",
      "area": "REYHANLI",
      "postal_code": "31500"
    },
    {
      "id": 34038,
      "district_id": 428,
      "name": "YENİŞEHİR MAH",
      "area": "REYHANLI",
      "postal_code": "31500"
    },
    {
      "id": 34039,
      "district_id": 428,
      "name": "YEŞİLOVA MAH",
      "area": "REYHANLI",
      "postal_code": "31500"
    },
    {
      "id": 34040,
      "district_id": 429,
      "name": "ATAKÖY MAH",
      "area": "SAMANDAĞ",
      "postal_code": "31800"
    },
    {
      "id": 34041,
      "district_id": 429,
      "name": "ATATÜRK MAH",
      "area": "SAMANDAĞ",
      "postal_code": "31800"
    },
    {
      "id": 34042,
      "district_id": 429,
      "name": "AVCILAR MAH",
      "area": "SAMANDAĞ",
      "postal_code": "31800"
    },
    {
      "id": 34043,
      "district_id": 429,
      "name": "BATIAYAZ MAH",
      "area": "SAMANDAĞ",
      "postal_code": "31800"
    },
    {
      "id": 34044,
      "district_id": 429,
      "name": "BÜYÜKOBA MAH",
      "area": "SAMANDAĞ",
      "postal_code": "31800"
    },
    {
      "id": 34045,
      "district_id": 429,
      "name": "ÇAMLIYAYLA MAH",
      "area": "SAMANDAĞ",
      "postal_code": "31800"
    },
    {
      "id": 34046,
      "district_id": 429,
      "name": "ÇANAKOLUK MAH",
      "area": "SAMANDAĞ",
      "postal_code": "31800"
    },
    {
      "id": 34047,
      "district_id": 429,
      "name": "CEMAL GÜRSEL MAH",
      "area": "SAMANDAĞ",
      "postal_code": "31800"
    },
    {
      "id": 34048,
      "district_id": 429,
      "name": "CEYLANDERE MAH",
      "area": "SAMANDAĞ",
      "postal_code": "31800"
    },
    {
      "id": 34049,
      "district_id": 429,
      "name": "ÇİĞDEDE MAH",
      "area": "SAMANDAĞ",
      "postal_code": "31800"
    },
    {
      "id": 34050,
      "district_id": 429,
      "name": "ÇÖĞÜRLÜ MAH",
      "area": "SAMANDAĞ",
      "postal_code": "31800"
    },
    {
      "id": 34051,
      "district_id": 429,
      "name": "ÇUBUKLU MAH",
      "area": "SAMANDAĞ",
      "postal_code": "31800"
    },
    {
      "id": 34052,
      "district_id": 429,
      "name": "CUMHURİYET MAH",
      "area": "SAMANDAĞ",
      "postal_code": "31800"
    },
    {
      "id": 34053,
      "district_id": 429,
      "name": "DEĞİRMENBAŞI MAH",
      "area": "SAMANDAĞ",
      "postal_code": "31800"
    },
    {
      "id": 34054,
      "district_id": 429,
      "name": "DENİZ MAH",
      "area": "SAMANDAĞ",
      "postal_code": "31800"
    },
    {
      "id": 34055,
      "district_id": 429,
      "name": "ERİKLİKUYU MAH",
      "area": "SAMANDAĞ",
      "postal_code": "31800"
    },
    {
      "id": 34056,
      "district_id": 429,
      "name": "FİDANLI MAH",
      "area": "SAMANDAĞ",
      "postal_code": "31800"
    },
    {
      "id": 34057,
      "district_id": 429,
      "name": "GÖZENE MAH",
      "area": "SAMANDAĞ",
      "postal_code": "31800"
    },
    {
      "id": 34058,
      "district_id": 429,
      "name": "HIDIRBEY MAH",
      "area": "SAMANDAĞ",
      "postal_code": "31800"
    },
    {
      "id": 34059,
      "district_id": 429,
      "name": "HUZURLU MAH",
      "area": "SAMANDAĞ",
      "postal_code": "31800"
    },
    {
      "id": 34060,
      "district_id": 429,
      "name": "KAPISUYU MAH",
      "area": "SAMANDAĞ",
      "postal_code": "31800"
    },
    {
      "id": 34061,
      "district_id": 429,
      "name": "KARAÇAY MAH",
      "area": "SAMANDAĞ",
      "postal_code": "31800"
    },
    {
      "id": 34062,
      "district_id": 429,
      "name": "KOYUNOĞLU MAH",
      "area": "SAMANDAĞ",
      "postal_code": "31800"
    },
    {
      "id": 34063,
      "district_id": 429,
      "name": "KURTDERESİ MAH",
      "area": "SAMANDAĞ",
      "postal_code": "31800"
    },
    {
      "id": 34064,
      "district_id": 429,
      "name": "KUŞALANI MAH",
      "area": "SAMANDAĞ",
      "postal_code": "31800"
    },
    {
      "id": 34065,
      "district_id": 429,
      "name": "MAĞARACIK MAH",
      "area": "SAMANDAĞ",
      "postal_code": "31800"
    },
    {
      "id": 34066,
      "district_id": 429,
      "name": "MEYDAN MAH",
      "area": "SAMANDAĞ",
      "postal_code": "31800"
    },
    {
      "id": 34067,
      "district_id": 429,
      "name": "MIZRAKLI MAH",
      "area": "SAMANDAĞ",
      "postal_code": "31800"
    },
    {
      "id": 34068,
      "district_id": 429,
      "name": "SELDİREN MAH",
      "area": "SAMANDAĞ",
      "postal_code": "31800"
    },
    {
      "id": 34069,
      "district_id": 429,
      "name": "ŞÜKRÜ KANATLI MAH",
      "area": "SAMANDAĞ",
      "postal_code": "31800"
    },
    {
      "id": 34070,
      "district_id": 429,
      "name": "SUTAŞI MAH",
      "area": "SAMANDAĞ",
      "postal_code": "31800"
    },
    {
      "id": 34071,
      "district_id": 429,
      "name": "TEKEBAŞI MAH",
      "area": "SAMANDAĞ",
      "postal_code": "31800"
    },
    {
      "id": 34072,
      "district_id": 429,
      "name": "TOMRUKSUYU MAH",
      "area": "SAMANDAĞ",
      "postal_code": "31800"
    },
    {
      "id": 34073,
      "district_id": 429,
      "name": "UZUNBAĞ MAH",
      "area": "SAMANDAĞ",
      "postal_code": "31800"
    },
    {
      "id": 34074,
      "district_id": 429,
      "name": "VAKIFKÖY MAH",
      "area": "SAMANDAĞ",
      "postal_code": "31800"
    },
    {
      "id": 34075,
      "district_id": 429,
      "name": "YAYLICA MAH",
      "area": "SAMANDAĞ",
      "postal_code": "31800"
    },
    {
      "id": 34076,
      "district_id": 429,
      "name": "YENİ MAH",
      "area": "SAMANDAĞ",
      "postal_code": "31800"
    },
    {
      "id": 34077,
      "district_id": 429,
      "name": "YENİKÖY MAH",
      "area": "SAMANDAĞ",
      "postal_code": "31800"
    },
    {
      "id": 34078,
      "district_id": 429,
      "name": "YEŞİLADA MAH",
      "area": "SAMANDAĞ",
      "postal_code": "31800"
    },
    {
      "id": 34079,
      "district_id": 429,
      "name": "YEŞİLKÖY MAH",
      "area": "SAMANDAĞ",
      "postal_code": "31800"
    },
    {
      "id": 34080,
      "district_id": 429,
      "name": "YEŞİLYAZI MAH",
      "area": "SAMANDAĞ",
      "postal_code": "31800"
    },
    {
      "id": 34081,
      "district_id": 429,
      "name": "YOĞUNOLUK MAH",
      "area": "SAMANDAĞ",
      "postal_code": "31800"
    },
    {
      "id": 34082,
      "district_id": 430,
      "name": "ARSLANYAZI MAH",
      "area": "YAYLADAĞI",
      "postal_code": "31550"
    },
    {
      "id": 34083,
      "district_id": 430,
      "name": "AŞAĞIPULLUYAZI MAH",
      "area": "YAYLADAĞI",
      "postal_code": "31550"
    },
    {
      "id": 34084,
      "district_id": 430,
      "name": "AYDINBAHÇE MAH",
      "area": "YAYLADAĞI",
      "postal_code": "31550"
    },
    {
      "id": 34085,
      "district_id": 430,
      "name": "AYIŞIĞI MAH",
      "area": "YAYLADAĞI",
      "postal_code": "31550"
    },
    {
      "id": 34086,
      "district_id": 430,
      "name": "BEZGE MAH",
      "area": "YAYLADAĞI",
      "postal_code": "31550"
    },
    {
      "id": 34087,
      "district_id": 430,
      "name": "BOZLU MAH",
      "area": "YAYLADAĞI",
      "postal_code": "31550"
    },
    {
      "id": 34088,
      "district_id": 430,
      "name": "ÇABALA MAH",
      "area": "YAYLADAĞI",
      "postal_code": "31550"
    },
    {
      "id": 34089,
      "district_id": 430,
      "name": "ÇAKIKÖY MAH",
      "area": "YAYLADAĞI",
      "postal_code": "31550"
    },
    {
      "id": 34090,
      "district_id": 430,
      "name": "ÇAKSINA MAH",
      "area": "YAYLADAĞI",
      "postal_code": "31550"
    },
    {
      "id": 34091,
      "district_id": 430,
      "name": "ÇAMALTI MAH",
      "area": "YAYLADAĞI",
      "postal_code": "31550"
    },
    {
      "id": 34092,
      "district_id": 430,
      "name": "ÇANDIR MAH",
      "area": "YAYLADAĞI",
      "postal_code": "31550"
    },
    {
      "id": 34093,
      "district_id": 430,
      "name": "ÇATBAŞI MAH",
      "area": "YAYLADAĞI",
      "postal_code": "31550"
    },
    {
      "id": 34094,
      "district_id": 430,
      "name": "ÇAYIR MAH",
      "area": "YAYLADAĞI",
      "postal_code": "31550"
    },
    {
      "id": 34095,
      "district_id": 430,
      "name": "DENİZGÖREN MAH",
      "area": "YAYLADAĞI",
      "postal_code": "31550"
    },
    {
      "id": 34096,
      "district_id": 430,
      "name": "DUSDURU MAH",
      "area": "YAYLADAĞI",
      "postal_code": "31550"
    },
    {
      "id": 34097,
      "district_id": 430,
      "name": "EĞERCİ MAH",
      "area": "YAYLADAĞI",
      "postal_code": "31550"
    },
    {
      "id": 34098,
      "district_id": 430,
      "name": "GÖRENTAŞ MAH",
      "area": "YAYLADAĞI",
      "postal_code": "31550"
    },
    {
      "id": 34099,
      "district_id": 430,
      "name": "GÖZLÜCE MAH",
      "area": "YAYLADAĞI",
      "postal_code": "31550"
    },
    {
      "id": 34100,
      "district_id": 430,
      "name": "GÜRIŞIK MAH",
      "area": "YAYLADAĞI",
      "postal_code": "31550"
    },
    {
      "id": 34101,
      "district_id": 430,
      "name": "GÜVEÇÇİ MAH",
      "area": "YAYLADAĞI",
      "postal_code": "31550"
    },
    {
      "id": 34102,
      "district_id": 430,
      "name": "GÜZELYURT MAH",
      "area": "YAYLADAĞI",
      "postal_code": "31550"
    },
    {
      "id": 34103,
      "district_id": 430,
      "name": "HİSARCIK MAH",
      "area": "YAYLADAĞI",
      "postal_code": "31550"
    },
    {
      "id": 34104,
      "district_id": 430,
      "name": "KARACURUN MAH",
      "area": "YAYLADAĞI",
      "postal_code": "31550"
    },
    {
      "id": 34105,
      "district_id": 430,
      "name": "KARAKÖSE MAH",
      "area": "YAYLADAĞI",
      "postal_code": "31550"
    },
    {
      "id": 34106,
      "district_id": 430,
      "name": "KIŞLAK MAH",
      "area": "YAYLADAĞI",
      "postal_code": "31550"
    },
    {
      "id": 34107,
      "district_id": 430,
      "name": "KIZILÇAT MAH",
      "area": "YAYLADAĞI",
      "postal_code": "31550"
    },
    {
      "id": 34108,
      "district_id": 430,
      "name": "KÖSRELİK MAH",
      "area": "YAYLADAĞI",
      "postal_code": "31550"
    },
    {
      "id": 34109,
      "district_id": 430,
      "name": "KULAÇ MAH",
      "area": "YAYLADAĞI",
      "postal_code": "31550"
    },
    {
      "id": 34110,
      "district_id": 430,
      "name": "KURTULUŞ MAH",
      "area": "YAYLADAĞI",
      "postal_code": "31550"
    },
    {
      "id": 34111,
      "district_id": 430,
      "name": "LEYLEKLİ MAH",
      "area": "YAYLADAĞI",
      "postal_code": "31550"
    },
    {
      "id": 34112,
      "district_id": 430,
      "name": "OLGUNLAR MAH",
      "area": "YAYLADAĞI",
      "postal_code": "31550"
    },
    {
      "id": 34113,
      "district_id": 430,
      "name": "ŞAKŞAK MAH",
      "area": "YAYLADAĞI",
      "postal_code": "31550"
    },
    {
      "id": 34114,
      "district_id": 430,
      "name": "SEBENOBA MAH",
      "area": "YAYLADAĞI",
      "postal_code": "31550"
    },
    {
      "id": 34115,
      "district_id": 430,
      "name": "ŞENKÖY MAH",
      "area": "YAYLADAĞI",
      "postal_code": "31550"
    },
    {
      "id": 34116,
      "district_id": 430,
      "name": "SUNGUR MAH",
      "area": "YAYLADAĞI",
      "postal_code": "31550"
    },
    {
      "id": 34117,
      "district_id": 430,
      "name": "SÜRÜTME MAH",
      "area": "YAYLADAĞI",
      "postal_code": "31550"
    },
    {
      "id": 34118,
      "district_id": 430,
      "name": "TURFANDA MAH",
      "area": "YAYLADAĞI",
      "postal_code": "31550"
    },
    {
      "id": 34119,
      "district_id": 430,
      "name": "TUTLUBAHÇE MAH",
      "area": "YAYLADAĞI",
      "postal_code": "31550"
    },
    {
      "id": 34120,
      "district_id": 430,
      "name": "ÜÇIRMAK MAH",
      "area": "YAYLADAĞI",
      "postal_code": "31550"
    },
    {
      "id": 34121,
      "district_id": 430,
      "name": "ULUYOL MAH",
      "area": "YAYLADAĞI",
      "postal_code": "31550"
    },
    {
      "id": 34122,
      "district_id": 430,
      "name": "YALAZ MAH",
      "area": "YAYLADAĞI",
      "postal_code": "31550"
    },
    {
      "id": 34123,
      "district_id": 430,
      "name": "YAYIKDAMLAR MAH",
      "area": "YAYLADAĞI",
      "postal_code": "31550"
    },
    {
      "id": 34124,
      "district_id": 430,
      "name": "YENİCEKÖY MAH",
      "area": "YAYLADAĞI",
      "postal_code": "31550"
    },
    {
      "id": 34125,
      "district_id": 430,
      "name": "YEŞİLTEPE MAH",
      "area": "YAYLADAĞI",
      "postal_code": "31550"
    },
    {
      "id": 34126,
      "district_id": 430,
      "name": "YONCAKAYA MAH",
      "area": "YAYLADAĞI",
      "postal_code": "31550"
    },
    {
      "id": 34127,
      "district_id": 430,
      "name": "YUKARIOKÇULAR MAH",
      "area": "YAYLADAĞI",
      "postal_code": "31550"
    },
    {
      "id": 34128,
      "district_id": 430,
      "name": "YUKARIPULLUYAZI MAH",
      "area": "YAYLADAĞI",
      "postal_code": "31550"
    }
  ]
}