{
  "neighborhoods": [
    {
      "id": 35902,
      "district_id": 487,
      "name": "AŞAĞIŞAKRAN MAH",
      "area": "ALİAĞA",
      "postal_code": "35800"
    },
    {
      "id": 35903,
      "district_id": 487,
      "name": "ATATÜRK MAH",
      "area": "ALİAĞA",
      "postal_code": "35800"
    },
    {
      "id": 35904,
      "district_id": 487,
      "name": "B.HAYRETTİN PAŞA MAH",
      "area": "ALİAĞA",
      "postal_code": "35800"
    },
    {
      "id": 35905,
      "district_id": 487,
      "name": "BAHÇEDERE MAH",
      "area": "ALİAĞA",
      "postal_code": "35800"
    },
    {
      "id": 35906,
      "district_id": 487,
      "name": "BOZKÖY MAH",
      "area": "ALİAĞA",
      "postal_code": "35800"
    },
    {
      "id": 35907,
      "district_id": 487,
      "name": "ÇAKMAKLI MAH",
      "area": "ALİAĞA",
      "postal_code": "35800"
    },
    {
      "id": 35908,
      "district_id": 487,
      "name": "ÇALTILIDERE MAH",
      "area": "ALİAĞA",
      "postal_code": "35800"
    },
    {
      "id": 35909,
      "district_id": 487,
      "name": "ÇITAK MAH",
      "area": "ALİAĞA",
      "postal_code": "35800"
    },
    {
      "id": 35910,
      "district_id": 487,
      "name": "ÇORAKLAR MAH",
      "area": "ALİAĞA",
      "postal_code": "35800"
    },
    {
      "id": 35911,
      "district_id": 487,
      "name": "FATİH MAH",
      "area": "HELVACI",
      "postal_code": "35820"
    },
    {
      "id": 35912,
      "district_id": 487,
      "name": "GÜZELHİSAR MAH",
      "area": "ALİAĞA",
      "postal_code": "35800"
    },
    {
      "id": 35913,
      "district_id": 487,
      "name": "HACIÖMERLİ MAH",
      "area": "ALİAĞA",
      "postal_code": "35800"
    },
    {
      "id": 35914,
      "district_id": 487,
      "name": "HOROZGEDİĞİ MAH",
      "area": "ALİAĞA",
      "postal_code": "35800"
    },
    {
      "id": 35915,
      "district_id": 487,
      "name": "KALABAK MAH",
      "area": "ALİAĞA",
      "postal_code": "35800"
    },
    {
      "id": 35916,
      "district_id": 487,
      "name": "KAPUKAYA MAH",
      "area": "ALİAĞA",
      "postal_code": "35800"
    },
    {
      "id": 35917,
      "district_id": 487,
      "name": "KARAKÖY MAH",
      "area": "ALİAĞA",
      "postal_code": "35800"
    },
    {
      "id": 35918,
      "district_id": 487,
      "name": "KARAKUZU MAH",
      "area": "ALİAĞA",
      "postal_code": "35800"
    },
    {
      "id": 35919,
      "district_id": 487,
      "name": "KAZIM DİRİK MAH",
      "area": "ALİAĞA",
      "postal_code": "35800"
    },
    {
      "id": 35920,
      "district_id": 487,
      "name": "KÜLTÜR MAH",
      "area": "ALİAĞA",
      "postal_code": "35800"
    },
    {
      "id": 35921,
      "district_id": 487,
      "name": "KURTULUŞ MAH",
      "area": "ALİAĞA",
      "postal_code": "35800"
    },
    {
      "id": 35922,
      "district_id": 487,
      "name": "MİMAR SİNAN MAH",
      "area": "ALİAĞA",
      "postal_code": "35800"
    },
    {
      "id": 35923,
      "district_id": 487,
      "name": "ÖRNEKKENT MAH",
      "area": "ALİAĞA",
      "postal_code": "35800"
    },
    {
      "id": 35924,
      "district_id": 487,
      "name": "ŞAKRAN HASBİ EFENDİ MAH",
      "area": "ALİAĞA",
      "postal_code": "35800"
    },
    {
      "id": 35925,
      "district_id": 487,
      "name": "ŞAKRAN SAYFİYE MAH",
      "area": "ALİAĞA",
      "postal_code": "35800"
    },
    {
      "id": 35926,
      "district_id": 487,
      "name": "SAMURLU MAH",
      "area": "ALİAĞA",
      "postal_code": "35800"
    },
    {
      "id": 35927,
      "district_id": 487,
      "name": "ŞEHİTKEMAL MAH",
      "area": "ALİAĞA",
      "postal_code": "35800"
    },
    {
      "id": 35928,
      "district_id": 487,
      "name": "SİTELER MAH",
      "area": "ALİAĞA",
      "postal_code": "35800"
    },
    {
      "id": 35929,
      "district_id": 487,
      "name": "UZUNHASANLAR MAH",
      "area": "ALİAĞA",
      "postal_code": "35800"
    },
    {
      "id": 35930,
      "district_id": 487,
      "name": "YALI MAH",
      "area": "ALİAĞA",
      "postal_code": "35800"
    },
    {
      "id": 35931,
      "district_id": 487,
      "name": "YENİ MAH",
      "area": "ALİAĞA",
      "postal_code": "35800"
    },
    {
      "id": 35932,
      "district_id": 487,
      "name": "YUKARI ŞEHİTKEMAL MAH",
      "area": "ALİAĞA",
      "postal_code": "35800"
    },
    {
      "id": 35933,
      "district_id": 487,
      "name": "YÜKSEKKÖY MAH",
      "area": "ALİAĞA",
      "postal_code": "35800"
    },
    {
      "id": 35934,
      "district_id": 488,
      "name": "BAHÇELERARASI MAH",
      "area": "BALÇOVA",
      "postal_code": "35330"
    },
    {
      "id": 35935,
      "district_id": 488,
      "name": "ÇETİN EMEÇ MAH",
      "area": "BALÇOVA",
      "postal_code": "35330"
    },
    {
      "id": 35936,
      "district_id": 488,
      "name": "EĞİTİM MAH",
      "area": "BALÇOVA",
      "postal_code": "35330"
    },
    {
      "id": 35937,
      "district_id": 488,
      "name": "FEVZİ ÇAKMAK MAH",
      "area": "BALÇOVA",
      "postal_code": "35330"
    },
    {
      "id": 35938,
      "district_id": 488,
      "name": "İNCİRALTI MAH",
      "area": "BALÇOVA",
      "postal_code": "35330"
    },
    {
      "id": 35939,
      "district_id": 488,
      "name": "KORUTÜRK MAH",
      "area": "BALÇOVA",
      "postal_code": "35330"
    },
    {
      "id": 35940,
      "district_id": 488,
      "name": "ONUR MAH",
      "area": "BALÇOVA",
      "postal_code": "35330"
    },
    {
      "id": 35941,
      "district_id": 488,
      "name": "TELEFERİK MAH",
      "area": "BALÇOVA",
      "postal_code": "35330"
    },
    {
      "id": 35942,
      "district_id": 489,
      "name": "ALANKIYI MAH",
      "area": "BAYINDIR",
      "postal_code": "35840"
    },
    {
      "id": 35943,
      "district_id": 489,
      "name": "ALANKÖY MAH",
      "area": "BAYINDIR",
      "postal_code": "35840"
    },
    {
      "id": 35944,
      "district_id": 489,
      "name": "ARIKBAŞI MAH",
      "area": "BAYINDIR",
      "postal_code": "35840"
    },
    {
      "id": 35945,
      "district_id": 489,
      "name": "ATATÜRK MAH",
      "area": "CANLI",
      "postal_code": "35845"
    },
    {
      "id": 35946,
      "district_id": 489,
      "name": "BALCILAR MAH",
      "area": "BAYINDIR",
      "postal_code": "35840"
    },
    {
      "id": 35947,
      "district_id": 489,
      "name": "BIYIKLAR MAH",
      "area": "BAYINDIR",
      "postal_code": "35840"
    },
    {
      "id": 35948,
      "district_id": 489,
      "name": "BURUNCUK MAH",
      "area": "BAYINDIR",
      "postal_code": "35840"
    },
    {
      "id": 35949,
      "district_id": 489,
      "name": "CAMİİ MAH",
      "area": "BAYINDIR",
      "postal_code": "35840"
    },
    {
      "id": 35950,
      "district_id": 489,
      "name": "ÇAMLIBEL MAH",
      "area": "BAYINDIR",
      "postal_code": "35840"
    },
    {
      "id": 35951,
      "district_id": 489,
      "name": "ÇENİKLER MAH",
      "area": "BAYINDIR",
      "postal_code": "35840"
    },
    {
      "id": 35952,
      "district_id": 489,
      "name": "ÇİFTÇİGEDİĞİ MAH",
      "area": "BAYINDIR",
      "postal_code": "35840"
    },
    {
      "id": 35953,
      "district_id": 489,
      "name": "ÇINAR MAH",
      "area": "BAYINDIR",
      "postal_code": "35840"
    },
    {
      "id": 35954,
      "district_id": 489,
      "name": "ÇINARDİBİ MAH",
      "area": "BAYINDIR",
      "postal_code": "35840"
    },
    {
      "id": 35955,
      "district_id": 489,
      "name": "ÇIRPI CAMİ MAH",
      "area": "ÇIRPI",
      "postal_code": "35843"
    },
    {
      "id": 35956,
      "district_id": 489,
      "name": "CUMHURİYET MAH",
      "area": "CANLI",
      "postal_code": "35845"
    },
    {
      "id": 35957,
      "district_id": 489,
      "name": "DEMİRCİLİK MAH",
      "area": "BAYINDIR",
      "postal_code": "35840"
    },
    {
      "id": 35958,
      "district_id": 489,
      "name": "DEREKÖY MAH",
      "area": "BAYINDIR",
      "postal_code": "35840"
    },
    {
      "id": 35959,
      "district_id": 489,
      "name": "DERNEKLİ MAH",
      "area": "BAYINDIR",
      "postal_code": "35840"
    },
    {
      "id": 35960,
      "district_id": 489,
      "name": "ELİFLİ MAH",
      "area": "BAYINDIR",
      "postal_code": "35840"
    },
    {
      "id": 35961,
      "district_id": 489,
      "name": "ERGENLİ MAH",
      "area": "BAYINDIR",
      "postal_code": "35840"
    },
    {
      "id": 35962,
      "district_id": 489,
      "name": "FATİH MAH",
      "area": "BAYINDIR",
      "postal_code": "35840"
    },
    {
      "id": 35963,
      "district_id": 489,
      "name": "FIRINLI MAH",
      "area": "BAYINDIR",
      "postal_code": "35840"
    },
    {
      "id": 35964,
      "district_id": 489,
      "name": "GAZİLER MAH",
      "area": "BAYINDIR",
      "postal_code": "35840"
    },
    {
      "id": 35965,
      "district_id": 489,
      "name": "HACI BEŞİR MAH",
      "area": "BAYINDIR",
      "postal_code": "35840"
    },
    {
      "id": 35966,
      "district_id": 489,
      "name": "HACI İBRAHİM MAH",
      "area": "BAYINDIR",
      "postal_code": "35840"
    },
    {
      "id": 35967,
      "district_id": 489,
      "name": "HASKÖY MAH",
      "area": "ÇIRPI",
      "postal_code": "35843"
    },
    {
      "id": 35968,
      "district_id": 489,
      "name": "HATAY MAH",
      "area": "BAYINDIR",
      "postal_code": "35840"
    },
    {
      "id": 35969,
      "district_id": 489,
      "name": "HAVUZBAŞI MAH",
      "area": "BAYINDIR",
      "postal_code": "35840"
    },
    {
      "id": 35970,
      "district_id": 489,
      "name": "HİSARLIK MAH",
      "area": "BAYINDIR",
      "postal_code": "35840"
    },
    {
      "id": 35971,
      "district_id": 489,
      "name": "İBRAHİMÇAVUŞ MAH",
      "area": "ÇIRPI",
      "postal_code": "35843"
    },
    {
      "id": 35972,
      "district_id": 489,
      "name": "KABAAĞAÇ MAH",
      "area": "BAYINDIR",
      "postal_code": "35840"
    },
    {
      "id": 35973,
      "district_id": 489,
      "name": "KARAHALİLLİ MAH",
      "area": "BAYINDIR",
      "postal_code": "35840"
    },
    {
      "id": 35974,
      "district_id": 489,
      "name": "KARAHAYIT MAH",
      "area": "BAYINDIR",
      "postal_code": "35840"
    },
    {
      "id": 35975,
      "district_id": 489,
      "name": "KARAPINAR MAH",
      "area": "BAYINDIR",
      "postal_code": "35840"
    },
    {
      "id": 35976,
      "district_id": 489,
      "name": "KARAVELİLER MAH",
      "area": "CANLI",
      "postal_code": "35845"
    },
    {
      "id": 35977,
      "district_id": 489,
      "name": "KIZILCAAĞAÇ MAH",
      "area": "BAYINDIR",
      "postal_code": "35840"
    },
    {
      "id": 35978,
      "district_id": 489,
      "name": "KIZILCAOVA MAH",
      "area": "BAYINDIR",
      "postal_code": "35840"
    },
    {
      "id": 35979,
      "district_id": 489,
      "name": "KIZILKEÇİLİ MAH",
      "area": "BAYINDIR",
      "postal_code": "35840"
    },
    {
      "id": 35980,
      "district_id": 489,
      "name": "KIZILOBA MAH",
      "area": "BAYINDIR",
      "postal_code": "35840"
    },
    {
      "id": 35981,
      "district_id": 489,
      "name": "KURT MAH",
      "area": "BAYINDIR",
      "postal_code": "35840"
    },
    {
      "id": 35982,
      "district_id": 489,
      "name": "LÜTUFLAR MAH",
      "area": "BAYINDIR",
      "postal_code": "35840"
    },
    {
      "id": 35983,
      "district_id": 489,
      "name": "MEKTEP MAH",
      "area": "ÇIRPI",
      "postal_code": "35843"
    },
    {
      "id": 35984,
      "district_id": 489,
      "name": "MİTHATPAŞA MAH",
      "area": "BAYINDIR",
      "postal_code": "35840"
    },
    {
      "id": 35985,
      "district_id": 489,
      "name": "NECATİ UZA MAH",
      "area": "ÇIRPI",
      "postal_code": "35843"
    },
    {
      "id": 35986,
      "district_id": 489,
      "name": "ORTA MAH",
      "area": "BAYINDIR",
      "postal_code": "35840"
    },
    {
      "id": 35987,
      "district_id": 489,
      "name": "OSMANLAR MAH",
      "area": "BAYINDIR",
      "postal_code": "35840"
    },
    {
      "id": 35988,
      "district_id": 489,
      "name": "PINARLI MAH",
      "area": "BAYINDIR",
      "postal_code": "35840"
    },
    {
      "id": 35989,
      "district_id": 489,
      "name": "SADIKPAŞA MAH",
      "area": "BAYINDIR",
      "postal_code": "35840"
    },
    {
      "id": 35990,
      "district_id": 489,
      "name": "SARIYURT MAH",
      "area": "BAYINDIR",
      "postal_code": "35840"
    },
    {
      "id": 35991,
      "district_id": 489,
      "name": "SÖĞÜTÖREN MAH",
      "area": "BAYINDIR",
      "postal_code": "35840"
    },
    {
      "id": 35992,
      "district_id": 489,
      "name": "TOKATBAŞI MAH",
      "area": "BAYINDIR",
      "postal_code": "35840"
    },
    {
      "id": 35993,
      "district_id": 489,
      "name": "TURAN MAH",
      "area": "BAYINDIR",
      "postal_code": "35840"
    },
    {
      "id": 35994,
      "district_id": 489,
      "name": "YAKACIK MAH",
      "area": "BAYINDIR",
      "postal_code": "35840"
    },
    {
      "id": 35995,
      "district_id": 489,
      "name": "YAKAPINAR MAH",
      "area": "BAYINDIR",
      "postal_code": "35840"
    },
    {
      "id": 35996,
      "district_id": 489,
      "name": "YENİ MAH",
      "area": "BAYINDIR",
      "postal_code": "35840"
    },
    {
      "id": 35997,
      "district_id": 489,
      "name": "YENİCE MAH",
      "area": "BAYINDIR",
      "postal_code": "35840"
    },
    {
      "id": 35998,
      "district_id": 489,
      "name": "YEŞİLOVA MAH",
      "area": "BAYINDIR",
      "postal_code": "35840"
    },
    {
      "id": 35999,
      "district_id": 489,
      "name": "YUSUFLU MAH",
      "area": "BAYINDIR",
      "postal_code": "35840"
    },
    {
      "id": 36000,
      "district_id": 489,
      "name": "ZEYTİNOVA MAH",
      "area": "BAYINDIR",
      "postal_code": "35840"
    },
    {
      "id": 36001,
      "district_id": 490,
      "name": "75. YIL MAH",
      "area": "ALPASLAN",
      "postal_code": "35540"
    },
    {
      "id": 36002,
      "district_id": 490,
      "name": "ADALET MAH",
      "area": "BAYRAKLI",
      "postal_code": "35530"
    },
    {
      "id": 36003,
      "district_id": 490,
      "name": "ALPASLAN MAH",
      "area": "ALPASLAN",
      "postal_code": "35540"
    },
    {
      "id": 36004,
      "district_id": 490,
      "name": "BAYRAKLI MAH",
      "area": "BAYRAKLI",
      "postal_code": "35530"
    },
    {
      "id": 36005,
      "district_id": 490,
      "name": "ÇAY MAH",
      "area": "BAYRAKLI",
      "postal_code": "35530"
    },
    {
      "id": 36006,
      "district_id": 490,
      "name": "CENGİZHAN MAH",
      "area": "ALPASLAN",
      "postal_code": "35540"
    },
    {
      "id": 36007,
      "district_id": 490,
      "name": "ÇİÇEK MAH",
      "area": "ALPASLAN",
      "postal_code": "35540"
    },
    {
      "id": 36008,
      "district_id": 490,
      "name": "DOĞANÇAY MAH",
      "area": "GÜMÜŞPALA",
      "postal_code": "35510"
    },
    {
      "id": 36009,
      "district_id": 490,
      "name": "EMEK MAH",
      "area": "GÜMÜŞPALA",
      "postal_code": "35510"
    },
    {
      "id": 36010,
      "district_id": 490,
      "name": "FUAT EDİP BAKSI MAH",
      "area": "ALPASLAN",
      "postal_code": "35540"
    },
    {
      "id": 36011,
      "district_id": 490,
      "name": "GÜMÜŞPALA MAH",
      "area": "GÜMÜŞPALA",
      "postal_code": "35510"
    },
    {
      "id": 36012,
      "district_id": 490,
      "name": "KÖRFEZ MAH",
      "area": "SOĞUKKUYU",
      "postal_code": "35520"
    },
    {
      "id": 36013,
      "district_id": 490,
      "name": "MANAVKUYU MAH",
      "area": "MANAVKUYU",
      "postal_code": "35535"
    },
    {
      "id": 36014,
      "district_id": 490,
      "name": "MANSUROĞLU MAH",
      "area": "MANAVKUYU",
      "postal_code": "35535"
    },
    {
      "id": 36015,
      "district_id": 490,
      "name": "MUHİTTİN ERENER MAH",
      "area": "ALPASLAN",
      "postal_code": "35540"
    },
    {
      "id": 36016,
      "district_id": 490,
      "name": "ONUR MAH",
      "area": "SOĞUKKUYU",
      "postal_code": "35520"
    },
    {
      "id": 36017,
      "district_id": 490,
      "name": "ORG.NAFİZ GÜRMAN MAH",
      "area": "GÜMÜŞPALA",
      "postal_code": "35510"
    },
    {
      "id": 36018,
      "district_id": 490,
      "name": "OSMANGAZİ MAH",
      "area": "MANAVKUYU",
      "postal_code": "35535"
    },
    {
      "id": 36019,
      "district_id": 490,
      "name": "POSTACILAR MAH",
      "area": "SOĞUKKUYU",
      "postal_code": "35520"
    },
    {
      "id": 36020,
      "district_id": 490,
      "name": "R.ŞEVKET İNCE MAH",
      "area": "ALPASLAN",
      "postal_code": "35540"
    },
    {
      "id": 36021,
      "district_id": 490,
      "name": "SOĞUKKUYU MAH",
      "area": "SOĞUKKUYU",
      "postal_code": "35520"
    },
    {
      "id": 36022,
      "district_id": 490,
      "name": "TEPEKULE MAH",
      "area": "BAYRAKLI",
      "postal_code": "35530"
    },
    {
      "id": 36023,
      "district_id": 490,
      "name": "TURAN MAH",
      "area": "ALPASLAN",
      "postal_code": "35540"
    },
    {
      "id": 36024,
      "district_id": 490,
      "name": "YAMANLAR MAH",
      "area": "GÜMÜŞPALA",
      "postal_code": "35510"
    },
    {
      "id": 36025,
      "district_id": 491,
      "name": "AHMETBEYLER MAH",
      "area": "BERGAMA",
      "postal_code": "35700"
    },
    {
      "id": 36026,
      "district_id": 491,
      "name": "AKÇENGER MAH",
      "area": "BERGAMA",
      "postal_code": "35700"
    },
    {
      "id": 36027,
      "district_id": 491,
      "name": "ALACALAR MAH",
      "area": "BERGAMA",
      "postal_code": "35700"
    },
    {
      "id": 36028,
      "district_id": 491,
      "name": "ALHATLI MAH",
      "area": "BERGAMA",
      "postal_code": "35700"
    },
    {
      "id": 36029,
      "district_id": 491,
      "name": "ALİBEYLİ MAH",
      "area": "BERGAMA",
      "postal_code": "35700"
    },
    {
      "id": 36030,
      "district_id": 491,
      "name": "ARMAĞANLAR MAH",
      "area": "BERGAMA",
      "postal_code": "35700"
    },
    {
      "id": 36031,
      "district_id": 491,
      "name": "AŞAĞIBEY MAH",
      "area": "BERGAMA",
      "postal_code": "35700"
    },
    {
      "id": 36032,
      "district_id": 491,
      "name": "AŞAĞICUMA MAH",
      "area": "BERGAMA",
      "postal_code": "35700"
    },
    {
      "id": 36033,
      "district_id": 491,
      "name": "AŞAĞIILGINDERE MAH",
      "area": "BERGAMA",
      "postal_code": "35700"
    },
    {
      "id": 36034,
      "district_id": 491,
      "name": "AŞAĞIKIRIKLAR MAH",
      "area": "BERGAMA",
      "postal_code": "35700"
    },
    {
      "id": 36035,
      "district_id": 491,
      "name": "ATATÜRK MAH",
      "area": "BERGAMA",
      "postal_code": "35700"
    },
    {
      "id": 36036,
      "district_id": 491,
      "name": "ATÇILAR MAH",
      "area": "BERGAMA",
      "postal_code": "35700"
    },
    {
      "id": 36037,
      "district_id": 491,
      "name": "ATMACA MAH",
      "area": "BERGAMA",
      "postal_code": "35700"
    },
    {
      "id": 36038,
      "district_id": 491,
      "name": "AVUNDUK MAH",
      "area": "BERGAMA",
      "postal_code": "35700"
    },
    {
      "id": 36039,
      "district_id": 491,
      "name": "AVUNDURUK MAH",
      "area": "BERGAMA",
      "postal_code": "35700"
    },
    {
      "id": 36040,
      "district_id": 491,
      "name": "AYASKENT MAH",
      "area": "BERGAMA",
      "postal_code": "35700"
    },
    {
      "id": 36041,
      "district_id": 491,
      "name": "AYVATLAR MAH",
      "area": "BERGAMA",
      "postal_code": "35700"
    },
    {
      "id": 36042,
      "district_id": 491,
      "name": "AZİZİYE MAH",
      "area": "BERGAMA",
      "postal_code": "35700"
    },
    {
      "id": 36043,
      "district_id": 491,
      "name": "BAHÇELİEVLER MAH",
      "area": "BERGAMA",
      "postal_code": "35700"
    },
    {
      "id": 36044,
      "district_id": 491,
      "name": "BALABAN MAH",
      "area": "BERGAMA",
      "postal_code": "35700"
    },
    {
      "id": 36045,
      "district_id": 491,
      "name": "BARBAROS MAH",
      "area": "BERGAMA",
      "postal_code": "35700"
    },
    {
      "id": 36046,
      "district_id": 491,
      "name": "BAYRAMCILAR MAH",
      "area": "BERGAMA",
      "postal_code": "35700"
    },
    {
      "id": 36047,
      "district_id": 491,
      "name": "BEKİRLER MAH",
      "area": "BERGAMA",
      "postal_code": "35700"
    },
    {
      "id": 36048,
      "district_id": 491,
      "name": "BERGAMA OSB MAH",
      "area": "BERGAMA",
      "postal_code": "35700"
    },
    {
      "id": 36049,
      "district_id": 491,
      "name": "BÖLCEK MAH",
      "area": "BERGAMA",
      "postal_code": "35700"
    },
    {
      "id": 36050,
      "district_id": 491,
      "name": "BOZKÖY MAH",
      "area": "BERGAMA",
      "postal_code": "35700"
    },
    {
      "id": 36051,
      "district_id": 491,
      "name": "BOZYERLER MAH",
      "area": "BERGAMA",
      "postal_code": "35700"
    },
    {
      "id": 36052,
      "district_id": 491,
      "name": "ÇAKIRLAR MAH",
      "area": "BERGAMA",
      "postal_code": "35700"
    },
    {
      "id": 36053,
      "district_id": 491,
      "name": "ÇALIBAHÇE MAH",
      "area": "BERGAMA",
      "postal_code": "35700"
    },
    {
      "id": 36054,
      "district_id": 491,
      "name": "ÇALTIKORU MAH",
      "area": "BERGAMA",
      "postal_code": "35700"
    },
    {
      "id": 36055,
      "district_id": 491,
      "name": "ÇAMAVLU MAH",
      "area": "BERGAMA",
      "postal_code": "35700"
    },
    {
      "id": 36056,
      "district_id": 491,
      "name": "ÇAMKÖY MAH",
      "area": "BERGAMA",
      "postal_code": "35700"
    },
    {
      "id": 36057,
      "district_id": 491,
      "name": "ÇAMOBA MAH",
      "area": "BERGAMA",
      "postal_code": "35700"
    },
    {
      "id": 36058,
      "district_id": 491,
      "name": "ÇELTİKÇİ MAH",
      "area": "BERGAMA",
      "postal_code": "35700"
    },
    {
      "id": 36059,
      "district_id": 491,
      "name": "CEVAPLI MAH",
      "area": "BERGAMA",
      "postal_code": "35700"
    },
    {
      "id": 36060,
      "district_id": 491,
      "name": "ÇİTKÖY MAH",
      "area": "BERGAMA",
      "postal_code": "35700"
    },
    {
      "id": 36061,
      "district_id": 491,
      "name": "ÇOBANLAR MAH",
      "area": "BERGAMA",
      "postal_code": "35700"
    },
    {
      "id": 36062,
      "district_id": 491,
      "name": "ÇÜRÜKBAĞLAR MAH",
      "area": "BERGAMA",
      "postal_code": "35700"
    },
    {
      "id": 36063,
      "district_id": 491,
      "name": "DAĞISTAN MAH",
      "area": "BERGAMA",
      "postal_code": "35700"
    },
    {
      "id": 36064,
      "district_id": 491,
      "name": "DEMİRCİDERE MAH",
      "area": "BERGAMA",
      "postal_code": "35700"
    },
    {
      "id": 36065,
      "district_id": 491,
      "name": "DEREKÖY MAH",
      "area": "BERGAMA",
      "postal_code": "35700"
    },
    {
      "id": 36066,
      "district_id": 491,
      "name": "DOĞANCI MAH",
      "area": "BERGAMA",
      "postal_code": "35700"
    },
    {
      "id": 36067,
      "district_id": 491,
      "name": "DURMUŞLAR MAH",
      "area": "BERGAMA",
      "postal_code": "35700"
    },
    {
      "id": 36068,
      "district_id": 491,
      "name": "EĞİLLER MAH",
      "area": "BERGAMA",
      "postal_code": "35700"
    },
    {
      "id": 36069,
      "district_id": 491,
      "name": "EĞRİGÖL MAH",
      "area": "BERGAMA",
      "postal_code": "35700"
    },
    {
      "id": 36070,
      "district_id": 491,
      "name": "ERTUĞRUL MAH",
      "area": "BERGAMA",
      "postal_code": "35700"
    },
    {
      "id": 36071,
      "district_id": 491,
      "name": "FATİH MAH",
      "area": "BERGAMA",
      "postal_code": "35700"
    },
    {
      "id": 36072,
      "district_id": 491,
      "name": "FERİZLER MAH",
      "area": "BERGAMA",
      "postal_code": "35700"
    },
    {
      "id": 36073,
      "district_id": 491,
      "name": "FEVZİPAŞA MAH",
      "area": "BERGAMA",
      "postal_code": "35700"
    },
    {
      "id": 36074,
      "district_id": 491,
      "name": "GAYLAN MAH",
      "area": "BERGAMA",
      "postal_code": "35700"
    },
    {
      "id": 36075,
      "district_id": 491,
      "name": "GAZİOSMANPAŞA MAH",
      "area": "BERGAMA",
      "postal_code": "35700"
    },
    {
      "id": 36076,
      "district_id": 491,
      "name": "GAZİPAŞA MAH",
      "area": "BERGAMA",
      "postal_code": "35700"
    },
    {
      "id": 36077,
      "district_id": 491,
      "name": "GÖBELLER MAH",
      "area": "BERGAMA",
      "postal_code": "35700"
    },
    {
      "id": 36078,
      "district_id": 491,
      "name": "GÖÇBEYLİ MAH",
      "area": "BERGAMA",
      "postal_code": "35700"
    },
    {
      "id": 36079,
      "district_id": 491,
      "name": "GÖKÇEYURT MAH",
      "area": "BERGAMA",
      "postal_code": "35700"
    },
    {
      "id": 36080,
      "district_id": 491,
      "name": "GÜLTEPE MAH",
      "area": "BERGAMA",
      "postal_code": "35700"
    },
    {
      "id": 36081,
      "district_id": 491,
      "name": "GÜNEŞLİ MAH",
      "area": "BERGAMA",
      "postal_code": "35700"
    },
    {
      "id": 36082,
      "district_id": 491,
      "name": "HACIHAMZALAR MAH",
      "area": "BERGAMA",
      "postal_code": "35700"
    },
    {
      "id": 36083,
      "district_id": 491,
      "name": "HACILAR  MAH (DEREKÖY BUCAĞI MAH)",
      "area": "BERGAMA",
      "postal_code": "35700"
    },
    {
      "id": 36084,
      "district_id": 491,
      "name": "HACILAR  MAH (İSMAİLLİ BUCAĞI MAH)",
      "area": "BERGAMA",
      "postal_code": "35700"
    },
    {
      "id": 36085,
      "district_id": 491,
      "name": "HALİLAĞALAR MAH",
      "area": "BERGAMA",
      "postal_code": "35700"
    },
    {
      "id": 36086,
      "district_id": 491,
      "name": "HAMZALISÜLEYMANİYE MAH",
      "area": "BERGAMA",
      "postal_code": "35700"
    },
    {
      "id": 36087,
      "district_id": 491,
      "name": "HİSARKÖY MAH",
      "area": "BERGAMA",
      "postal_code": "35700"
    },
    {
      "id": 36088,
      "district_id": 491,
      "name": "İKİZLER MAH",
      "area": "BERGAMA",
      "postal_code": "35700"
    },
    {
      "id": 36089,
      "district_id": 491,
      "name": "ILGINCABER MAH",
      "area": "BERGAMA",
      "postal_code": "35700"
    },
    {
      "id": 36090,
      "district_id": 491,
      "name": "İNCECİKLER MAH",
      "area": "BERGAMA",
      "postal_code": "35700"
    },
    {
      "id": 36091,
      "district_id": 491,
      "name": "İNEŞİR MAH",
      "area": "BERGAMA",
      "postal_code": "35700"
    },
    {
      "id": 36092,
      "district_id": 491,
      "name": "İNKILAP MAH",
      "area": "BERGAMA",
      "postal_code": "35700"
    },
    {
      "id": 36093,
      "district_id": 491,
      "name": "İSLAMSARAY MAH",
      "area": "BERGAMA",
      "postal_code": "35700"
    },
    {
      "id": 36094,
      "district_id": 491,
      "name": "İSMAİLLİ MAH",
      "area": "BERGAMA",
      "postal_code": "35700"
    },
    {
      "id": 36095,
      "district_id": 491,
      "name": "KADIKÖY MAH",
      "area": "BERGAMA",
      "postal_code": "35700"
    },
    {
      "id": 36096,
      "district_id": 491,
      "name": "KALEARDI MAH",
      "area": "BERGAMA",
      "postal_code": "35700"
    },
    {
      "id": 36097,
      "district_id": 491,
      "name": "KAPLAN  MAH (GÖÇBEYLİ BUCAĞI MAH)",
      "area": "BERGAMA",
      "postal_code": "35700"
    },
    {
      "id": 36098,
      "district_id": 491,
      "name": "KAPLAN  MAH (YUKARIBEY BUCAĞI MAH)",
      "area": "BERGAMA",
      "postal_code": "35700"
    },
    {
      "id": 36099,
      "district_id": 491,
      "name": "KAPUKAYA MAH",
      "area": "BERGAMA",
      "postal_code": "35700"
    },
    {
      "id": 36100,
      "district_id": 491,
      "name": "KARAHIDIRLI MAH",
      "area": "BERGAMA",
      "postal_code": "35700"
    },
    {
      "id": 36101,
      "district_id": 491,
      "name": "KARALAR MAH",
      "area": "BERGAMA",
      "postal_code": "35700"
    },
    {
      "id": 36102,
      "district_id": 491,
      "name": "KARAVELİLER MAH",
      "area": "BERGAMA",
      "postal_code": "35700"
    },
    {
      "id": 36103,
      "district_id": 491,
      "name": "KAŞIKÇI MAH",
      "area": "BERGAMA",
      "postal_code": "35700"
    },
    {
      "id": 36104,
      "district_id": 491,
      "name": "KATRANCI MAH",
      "area": "BERGAMA",
      "postal_code": "35700"
    },
    {
      "id": 36105,
      "district_id": 491,
      "name": "KIRANLI MAH",
      "area": "BERGAMA",
      "postal_code": "35700"
    },
    {
      "id": 36106,
      "district_id": 491,
      "name": "KIRCALAR MAH",
      "area": "BERGAMA",
      "postal_code": "35700"
    },
    {
      "id": 36107,
      "district_id": 491,
      "name": "KIZILTEPE MAH",
      "area": "BERGAMA",
      "postal_code": "35700"
    },
    {
      "id": 36108,
      "district_id": 491,
      "name": "KOCAHALİLLER MAH",
      "area": "BERGAMA",
      "postal_code": "35700"
    },
    {
      "id": 36109,
      "district_id": 491,
      "name": "KOCAKÖY MAH",
      "area": "BERGAMA",
      "postal_code": "35700"
    },
    {
      "id": 36110,
      "district_id": 491,
      "name": "KOYUNELİ MAH",
      "area": "BERGAMA",
      "postal_code": "35700"
    },
    {
      "id": 36111,
      "district_id": 491,
      "name": "KOZLUCA MAH",
      "area": "BERGAMA",
      "postal_code": "35700"
    },
    {
      "id": 36112,
      "district_id": 491,
      "name": "KÜÇÜKKAYA MAH",
      "area": "BERGAMA",
      "postal_code": "35700"
    },
    {
      "id": 36113,
      "district_id": 491,
      "name": "KURFALLI MAH",
      "area": "BERGAMA",
      "postal_code": "35700"
    },
    {
      "id": 36114,
      "district_id": 491,
      "name": "KURTULUŞ MAH",
      "area": "BERGAMA",
      "postal_code": "35700"
    },
    {
      "id": 36115,
      "district_id": 491,
      "name": "MAHMUDİYE MAH",
      "area": "BERGAMA",
      "postal_code": "35700"
    },
    {
      "id": 36116,
      "district_id": 491,
      "name": "MALTEPE MAH",
      "area": "BERGAMA",
      "postal_code": "35700"
    },
    {
      "id": 36117,
      "district_id": 491,
      "name": "MARUFLAR MAH",
      "area": "BERGAMA",
      "postal_code": "35700"
    },
    {
      "id": 36118,
      "district_id": 491,
      "name": "MURATLAR MAH",
      "area": "BERGAMA",
      "postal_code": "35700"
    },
    {
      "id": 36119,
      "district_id": 491,
      "name": "NARLICA MAH",
      "area": "BERGAMA",
      "postal_code": "35700"
    },
    {
      "id": 36120,
      "district_id": 491,
      "name": "OKÇULAR MAH",
      "area": "BERGAMA",
      "postal_code": "35700"
    },
    {
      "id": 36121,
      "district_id": 491,
      "name": "ÖKSÜZLER MAH",
      "area": "BERGAMA",
      "postal_code": "35700"
    },
    {
      "id": 36122,
      "district_id": 491,
      "name": "ÖRENLİ MAH",
      "area": "BERGAMA",
      "postal_code": "35700"
    },
    {
      "id": 36123,
      "district_id": 491,
      "name": "ÖRLEMİŞ MAH",
      "area": "BERGAMA",
      "postal_code": "35700"
    },
    {
      "id": 36124,
      "district_id": 491,
      "name": "ORUŞLAR MAH",
      "area": "BERGAMA",
      "postal_code": "35700"
    },
    {
      "id": 36125,
      "district_id": 491,
      "name": "OVACIK MAH",
      "area": "BERGAMA",
      "postal_code": "35700"
    },
    {
      "id": 36126,
      "district_id": 491,
      "name": "PAŞAKÖY MAH",
      "area": "BERGAMA",
      "postal_code": "35700"
    },
    {
      "id": 36127,
      "district_id": 491,
      "name": "PINARKÖY MAH",
      "area": "BERGAMA",
      "postal_code": "35700"
    },
    {
      "id": 36128,
      "district_id": 491,
      "name": "PİRVELİLER MAH",
      "area": "BERGAMA",
      "postal_code": "35700"
    },
    {
      "id": 36129,
      "district_id": 491,
      "name": "RAHMANLAR MAH",
      "area": "BERGAMA",
      "postal_code": "35700"
    },
    {
      "id": 36130,
      "district_id": 491,
      "name": "SAĞANCI MAH",
      "area": "BERGAMA",
      "postal_code": "35700"
    },
    {
      "id": 36131,
      "district_id": 491,
      "name": "SARICALAR MAH",
      "area": "BERGAMA",
      "postal_code": "35700"
    },
    {
      "id": 36132,
      "district_id": 491,
      "name": "SARICAOĞLU MAH",
      "area": "BERGAMA",
      "postal_code": "35700"
    },
    {
      "id": 36133,
      "district_id": 491,
      "name": "SARIDERE MAH",
      "area": "BERGAMA",
      "postal_code": "35700"
    },
    {
      "id": 36134,
      "district_id": 491,
      "name": "SEKLİK MAH",
      "area": "BERGAMA",
      "postal_code": "35700"
    },
    {
      "id": 36135,
      "district_id": 491,
      "name": "SELÇUK MAH",
      "area": "BERGAMA",
      "postal_code": "35700"
    },
    {
      "id": 36136,
      "district_id": 491,
      "name": "SİNDEL MAH",
      "area": "BERGAMA",
      "postal_code": "35700"
    },
    {
      "id": 36137,
      "district_id": 491,
      "name": "SÜLEYMANLI MAH",
      "area": "BERGAMA",
      "postal_code": "35700"
    },
    {
      "id": 36138,
      "district_id": 491,
      "name": "TALATPAŞA MAH",
      "area": "BERGAMA",
      "postal_code": "35700"
    },
    {
      "id": 36139,
      "district_id": 491,
      "name": "TAVUKÇUKURU MAH",
      "area": "BERGAMA",
      "postal_code": "35700"
    },
    {
      "id": 36140,
      "district_id": 491,
      "name": "TEKKEDERE MAH",
      "area": "BERGAMA",
      "postal_code": "35700"
    },
    {
      "id": 36141,
      "district_id": 491,
      "name": "TEPEKÖY MAH",
      "area": "BERGAMA",
      "postal_code": "35700"
    },
    {
      "id": 36142,
      "district_id": 491,
      "name": "TERZİHALİLLER MAH",
      "area": "BERGAMA",
      "postal_code": "35700"
    },
    {
      "id": 36143,
      "district_id": 491,
      "name": "TIRMANLAR MAH",
      "area": "BERGAMA",
      "postal_code": "35700"
    },
    {
      "id": 36144,
      "district_id": 491,
      "name": "TİYELTİ MAH",
      "area": "BERGAMA",
      "postal_code": "35700"
    },
    {
      "id": 36145,
      "district_id": 491,
      "name": "TOPALLAR MAH",
      "area": "BERGAMA",
      "postal_code": "35700"
    },
    {
      "id": 36146,
      "district_id": 491,
      "name": "TURABEY MAH",
      "area": "BERGAMA",
      "postal_code": "35700"
    },
    {
      "id": 36147,
      "district_id": 491,
      "name": "ÜÇTEPE MAH",
      "area": "BERGAMA",
      "postal_code": "35700"
    },
    {
      "id": 36148,
      "district_id": 491,
      "name": "ULUCAMİİ MAH",
      "area": "BERGAMA",
      "postal_code": "35700"
    },
    {
      "id": 36149,
      "district_id": 491,
      "name": "ÜRKÜTLER MAH",
      "area": "BERGAMA",
      "postal_code": "35700"
    },
    {
      "id": 36150,
      "district_id": 491,
      "name": "YALNIZDAM MAH",
      "area": "BERGAMA",
      "postal_code": "35700"
    },
    {
      "id": 36151,
      "district_id": 491,
      "name": "YALNIZEV MAH",
      "area": "BERGAMA",
      "postal_code": "35700"
    },
    {
      "id": 36152,
      "district_id": 491,
      "name": "YENİKENT MAH",
      "area": "BERGAMA",
      "postal_code": "35700"
    },
    {
      "id": 36153,
      "district_id": 491,
      "name": "YENİLER MAH",
      "area": "BERGAMA",
      "postal_code": "35700"
    },
    {
      "id": 36154,
      "district_id": 491,
      "name": "YERLİTAHTACI MAH",
      "area": "BERGAMA",
      "postal_code": "35700"
    },
    {
      "id": 36155,
      "district_id": 491,
      "name": "YORTANLI MAH",
      "area": "BERGAMA",
      "postal_code": "35700"
    },
    {
      "id": 36156,
      "district_id": 491,
      "name": "YUKARIADA MAH",
      "area": "BERGAMA",
      "postal_code": "35700"
    },
    {
      "id": 36157,
      "district_id": 491,
      "name": "YUKARIBEY MAH",
      "area": "BERGAMA",
      "postal_code": "35700"
    },
    {
      "id": 36158,
      "district_id": 491,
      "name": "YUKARICUMA MAH",
      "area": "BERGAMA",
      "postal_code": "35700"
    },
    {
      "id": 36159,
      "district_id": 491,
      "name": "YUKARIKIRIKLAR MAH",
      "area": "BERGAMA",
      "postal_code": "35700"
    },
    {
      "id": 36160,
      "district_id": 491,
      "name": "ZAFER MAH",
      "area": "BERGAMA",
      "postal_code": "35700"
    },
    {
      "id": 36161,
      "district_id": 491,
      "name": "ZAĞNOZ MAH",
      "area": "BERGAMA",
      "postal_code": "35700"
    },
    {
      "id": 36162,
      "district_id": 491,
      "name": "ZEYTİNDAĞ MAH",
      "area": "BERGAMA",
      "postal_code": "35700"
    },
    {
      "id": 36163,
      "district_id": 492,
      "name": "ADAKÜRE MAH",
      "area": "BEYDAĞ",
      "postal_code": "35790"
    },
    {
      "id": 36164,
      "district_id": 492,
      "name": "AKTEPE MAH",
      "area": "BEYDAĞ",
      "postal_code": "35790"
    },
    {
      "id": 36165,
      "district_id": 492,
      "name": "ALAKEÇİLİ MAH",
      "area": "BEYDAĞ",
      "postal_code": "35790"
    },
    {
      "id": 36166,
      "district_id": 492,
      "name": "ATATÜRK MAH",
      "area": "BEYDAĞ",
      "postal_code": "35790"
    },
    {
      "id": 36167,
      "district_id": 492,
      "name": "BAKIRKÖY MAH",
      "area": "BEYDAĞ",
      "postal_code": "35790"
    },
    {
      "id": 36168,
      "district_id": 492,
      "name": "BEYKÖY MAH",
      "area": "BEYDAĞ",
      "postal_code": "35790"
    },
    {
      "id": 36169,
      "district_id": 492,
      "name": "ÇAMLIK MAH",
      "area": "BEYDAĞ",
      "postal_code": "35790"
    },
    {
      "id": 36170,
      "district_id": 492,
      "name": "ÇİFTLİKKÖY MAH",
      "area": "BEYDAĞ",
      "postal_code": "35790"
    },
    {
      "id": 36171,
      "district_id": 492,
      "name": "ÇOMAKLAR MAH",
      "area": "BEYDAĞ",
      "postal_code": "35790"
    },
    {
      "id": 36172,
      "district_id": 492,
      "name": "CUMHURİYET MAH",
      "area": "BEYDAĞ",
      "postal_code": "35790"
    },
    {
      "id": 36173,
      "district_id": 492,
      "name": "EĞRİDERE MAH",
      "area": "BEYDAĞ",
      "postal_code": "35790"
    },
    {
      "id": 36174,
      "district_id": 492,
      "name": "ERİKLİ MAH",
      "area": "BEYDAĞ",
      "postal_code": "35790"
    },
    {
      "id": 36175,
      "district_id": 492,
      "name": "HALIKÖY MAH",
      "area": "BEYDAĞ",
      "postal_code": "35790"
    },
    {
      "id": 36176,
      "district_id": 492,
      "name": "KARAOBA MAH",
      "area": "BEYDAĞ",
      "postal_code": "35790"
    },
    {
      "id": 36177,
      "district_id": 492,
      "name": "KURUDERE MAH",
      "area": "BEYDAĞ",
      "postal_code": "35790"
    },
    {
      "id": 36178,
      "district_id": 492,
      "name": "MENDERES MAH",
      "area": "BEYDAĞ",
      "postal_code": "35790"
    },
    {
      "id": 36179,
      "district_id": 492,
      "name": "MUTAFLAR MAH",
      "area": "BEYDAĞ",
      "postal_code": "35790"
    },
    {
      "id": 36180,
      "district_id": 492,
      "name": "PALAMUTÇUK MAH",
      "area": "BEYDAĞ",
      "postal_code": "35790"
    },
    {
      "id": 36181,
      "district_id": 492,
      "name": "SARIKAYA MAH",
      "area": "BEYDAĞ",
      "postal_code": "35790"
    },
    {
      "id": 36182,
      "district_id": 492,
      "name": "TABAKLAR MAH",
      "area": "BEYDAĞ",
      "postal_code": "35790"
    },
    {
      "id": 36183,
      "district_id": 492,
      "name": "YAĞCILAR MAH",
      "area": "BEYDAĞ",
      "postal_code": "35790"
    },
    {
      "id": 36184,
      "district_id": 492,
      "name": "YENİYURT MAH",
      "area": "BEYDAĞ",
      "postal_code": "35790"
    },
    {
      "id": 36185,
      "district_id": 492,
      "name": "YEŞİLTEPE MAH",
      "area": "BEYDAĞ",
      "postal_code": "35790"
    },
    {
      "id": 36186,
      "district_id": 492,
      "name": "YUKARIAKTEPE MAH",
      "area": "BEYDAĞ",
      "postal_code": "35790"
    },
    {
      "id": 36187,
      "district_id": 492,
      "name": "YUKARITOSUNLAR MAH",
      "area": "BEYDAĞ",
      "postal_code": "35790"
    },
    {
      "id": 36188,
      "district_id": 493,
      "name": "ATATÜRK MAH",
      "area": "ATATÜRK",
      "postal_code": "35030"
    },
    {
      "id": 36189,
      "district_id": 493,
      "name": "BARBAROS MAH",
      "area": "ÇAMDİBİ",
      "postal_code": "35090"
    },
    {
      "id": 36190,
      "district_id": 493,
      "name": "BEŞYOL MAH",
      "area": "BORNOVA",
      "postal_code": "35040"
    },
    {
      "id": 36191,
      "district_id": 493,
      "name": "BİRLİK MAH",
      "area": "ALTINDAĞ",
      "postal_code": "35080"
    },
    {
      "id": 36192,
      "district_id": 493,
      "name": "ÇAMİÇİ MAH",
      "area": "BORNOVA",
      "postal_code": "35040"
    },
    {
      "id": 36193,
      "district_id": 493,
      "name": "ÇAMKULE MAH",
      "area": "ALTINDAĞ",
      "postal_code": "35080"
    },
    {
      "id": 36194,
      "district_id": 493,
      "name": "ÇİÇEKLİ MAH",
      "area": "BORNOVA",
      "postal_code": "35040"
    },
    {
      "id": 36195,
      "district_id": 493,
      "name": "ÇINAR MAH",
      "area": "ÇAMDİBİ",
      "postal_code": "35090"
    },
    {
      "id": 36196,
      "district_id": 493,
      "name": "DOĞANLAR MAH",
      "area": "NALDÖKEN",
      "postal_code": "35050"
    },
    {
      "id": 36197,
      "district_id": 493,
      "name": "EGEMENLİK MAH",
      "area": "IŞIKKENT",
      "postal_code": "35070"
    },
    {
      "id": 36198,
      "district_id": 493,
      "name": "EĞRİDERE MAH",
      "area": "BORNOVA",
      "postal_code": "35040"
    },
    {
      "id": 36199,
      "district_id": 493,
      "name": "ERGENE MAH",
      "area": "BORNOVA",
      "postal_code": "35040"
    },
    {
      "id": 36200,
      "district_id": 493,
      "name": "ERZENE MAH",
      "area": "BORNOVA",
      "postal_code": "35040"
    },
    {
      "id": 36201,
      "district_id": 493,
      "name": "EVKA 3 MAH",
      "area": "NALDÖKEN",
      "postal_code": "35050"
    },
    {
      "id": 36202,
      "district_id": 493,
      "name": "EVKA 4 MAH",
      "area": "ATATÜRK",
      "postal_code": "35030"
    },
    {
      "id": 36203,
      "district_id": 493,
      "name": "GAZİ OSMAN PAŞA MAH",
      "area": "ÇAMDİBİ",
      "postal_code": "35090"
    },
    {
      "id": 36204,
      "district_id": 493,
      "name": "GÖKDERE MAH",
      "area": "BORNOVA",
      "postal_code": "35040"
    },
    {
      "id": 36205,
      "district_id": 493,
      "name": "GÜRPINAR MAH",
      "area": "PINARBAŞI",
      "postal_code": "35060"
    },
    {
      "id": 36206,
      "district_id": 493,
      "name": "İNÖNÜ MAH",
      "area": "ATATÜRK",
      "postal_code": "35030"
    },
    {
      "id": 36207,
      "district_id": 493,
      "name": "IŞIKLAR MAH",
      "area": "IŞIKKENT",
      "postal_code": "35070"
    },
    {
      "id": 36208,
      "district_id": 493,
      "name": "KARAÇAM MAH",
      "area": "BORNOVA",
      "postal_code": "35040"
    },
    {
      "id": 36209,
      "district_id": 493,
      "name": "KARACAOĞLAN MAH",
      "area": "IŞIKKENT",
      "postal_code": "35070"
    },
    {
      "id": 36210,
      "district_id": 493,
      "name": "KAVAKLIDERE MAH",
      "area": "BORNOVA",
      "postal_code": "35040"
    },
    {
      "id": 36211,
      "district_id": 493,
      "name": "KAYADİBİ MAH",
      "area": "BORNOVA",
      "postal_code": "35040"
    },
    {
      "id": 36212,
      "district_id": 493,
      "name": "KAZIMDİRİK MAH",
      "area": "KAZIMDİRİK",
      "postal_code": "35100"
    },
    {
      "id": 36213,
      "district_id": 493,
      "name": "KEMALPAŞA MAH",
      "area": "PINARBAŞI",
      "postal_code": "35060"
    },
    {
      "id": 36214,
      "district_id": 493,
      "name": "KIZILAY MAH",
      "area": "ATATÜRK",
      "postal_code": "35030"
    },
    {
      "id": 36215,
      "district_id": 493,
      "name": "KOŞUKAVAK MAH",
      "area": "ALTINDAĞ",
      "postal_code": "35080"
    },
    {
      "id": 36216,
      "district_id": 493,
      "name": "KURUDERE MAH",
      "area": "BORNOVA",
      "postal_code": "35040"
    },
    {
      "id": 36217,
      "district_id": 493,
      "name": "LAKA MAH",
      "area": "BORNOVA",
      "postal_code": "35040"
    },
    {
      "id": 36218,
      "district_id": 493,
      "name": "MERİÇ MAH",
      "area": "ÇAMDİBİ",
      "postal_code": "35090"
    },
    {
      "id": 36219,
      "district_id": 493,
      "name": "MERKEZ MAH",
      "area": "ALTINDAĞ",
      "postal_code": "35080"
    },
    {
      "id": 36220,
      "district_id": 493,
      "name": "MEVLANA MAH",
      "area": "NALDÖKEN",
      "postal_code": "35050"
    },
    {
      "id": 36221,
      "district_id": 493,
      "name": "NALDÖKEN MAH",
      "area": "NALDÖKEN",
      "postal_code": "35050"
    },
    {
      "id": 36222,
      "district_id": 493,
      "name": "RAFET PAŞA MAH",
      "area": "ÇAMDİBİ",
      "postal_code": "35090"
    },
    {
      "id": 36223,
      "district_id": 493,
      "name": "SARNIÇKÖY MAH",
      "area": "BORNOVA",
      "postal_code": "35040"
    },
    {
      "id": 36224,
      "district_id": 493,
      "name": "SERİNTEPE MAH",
      "area": "ALTINDAĞ",
      "postal_code": "35080"
    },
    {
      "id": 36225,
      "district_id": 493,
      "name": "TUNA MAH",
      "area": "ÇAMDİBİ",
      "postal_code": "35090"
    },
    {
      "id": 36226,
      "district_id": 493,
      "name": "ÜMİT MAH",
      "area": "PINARBAŞI",
      "postal_code": "35060"
    },
    {
      "id": 36227,
      "district_id": 493,
      "name": "YAKAKÖY MAH",
      "area": "BORNOVA",
      "postal_code": "35040"
    },
    {
      "id": 36228,
      "district_id": 493,
      "name": "YEŞİLÇAM MAH",
      "area": "NALDÖKEN",
      "postal_code": "35050"
    },
    {
      "id": 36229,
      "district_id": 493,
      "name": "YEŞİLOVA MAH",
      "area": "ALTINDAĞ",
      "postal_code": "35080"
    },
    {
      "id": 36230,
      "district_id": 493,
      "name": "YILDIRIM BEYAZIT MAH",
      "area": "ÇAMDİBİ",
      "postal_code": "35090"
    },
    {
      "id": 36231,
      "district_id": 493,
      "name": "YUNUS EMRE MAH",
      "area": "PINARBAŞI",
      "postal_code": "35060"
    },
    {
      "id": 36232,
      "district_id": 493,
      "name": "ZAFER MAH",
      "area": "ALTINDAĞ",
      "postal_code": "35080"
    },
    {
      "id": 36233,
      "district_id": 494,
      "name": "29 EKİM MAH",
      "area": "KAYNAKLAR",
      "postal_code": "35395"
    },
    {
      "id": 36234,
      "district_id": 494,
      "name": "ADATEPE MAH",
      "area": "EVKA1",
      "postal_code": "35400"
    },
    {
      "id": 36235,
      "district_id": 494,
      "name": "AKINCILAR MAH",
      "area": "ŞİRİNYER",
      "postal_code": "35380"
    },
    {
      "id": 36236,
      "district_id": 494,
      "name": "ATATÜRK MAH",
      "area": "BUCA",
      "postal_code": "35390"
    },
    {
      "id": 36237,
      "district_id": 494,
      "name": "AYDOĞDU MAH",
      "area": "EVKA1",
      "postal_code": "35400"
    },
    {
      "id": 36238,
      "district_id": 494,
      "name": "BARIŞ MAH",
      "area": "İŞÇİEVLERİ",
      "postal_code": "35370"
    },
    {
      "id": 36239,
      "district_id": 494,
      "name": "BELENBAŞI MAH",
      "area": "BUCA",
      "postal_code": "35390"
    },
    {
      "id": 36240,
      "district_id": 494,
      "name": "BUCA KOOP MAH",
      "area": "BUCA",
      "postal_code": "35390"
    },
    {
      "id": 36241,
      "district_id": 494,
      "name": "BUCAOSB MAH",
      "area": "EVKA1",
      "postal_code": "35400"
    },
    {
      "id": 36242,
      "district_id": 494,
      "name": "ÇAĞDAŞ MAH",
      "area": "EVKA1",
      "postal_code": "35400"
    },
    {
      "id": 36243,
      "district_id": 494,
      "name": "ÇALDIRAN MAH",
      "area": "İŞÇİEVLERİ",
      "postal_code": "35370"
    },
    {
      "id": 36244,
      "district_id": 494,
      "name": "ÇAMLIK MAH",
      "area": "İŞÇİEVLERİ",
      "postal_code": "35370"
    },
    {
      "id": 36245,
      "district_id": 494,
      "name": "ÇAMLIKULE MAH",
      "area": "BUCA",
      "postal_code": "35390"
    },
    {
      "id": 36246,
      "district_id": 494,
      "name": "ÇAMLIPINAR MAH",
      "area": "BUCA",
      "postal_code": "35390"
    },
    {
      "id": 36247,
      "district_id": 494,
      "name": "CUMHURİYET MAH",
      "area": "EVKA1",
      "postal_code": "35400"
    },
    {
      "id": 36248,
      "district_id": 494,
      "name": "DİCLE MAH",
      "area": "İŞÇİEVLERİ",
      "postal_code": "35370"
    },
    {
      "id": 36249,
      "district_id": 494,
      "name": "DOĞANCILAR MAH",
      "area": "BUCA",
      "postal_code": "35390"
    },
    {
      "id": 36250,
      "district_id": 494,
      "name": "DUMLUPINAR MAH",
      "area": "EVKA1",
      "postal_code": "35400"
    },
    {
      "id": 36251,
      "district_id": 494,
      "name": "EFELER MAH",
      "area": "ŞİRİNYER",
      "postal_code": "35380"
    },
    {
      "id": 36252,
      "district_id": 494,
      "name": "FIRAT MAH",
      "area": "ŞİRİNYER",
      "postal_code": "35380"
    },
    {
      "id": 36253,
      "district_id": 494,
      "name": "GAZİLER MAH",
      "area": "EVKA1",
      "postal_code": "35400"
    },
    {
      "id": 36254,
      "district_id": 494,
      "name": "GÖKSU MAH",
      "area": "ŞİRİNYER",
      "postal_code": "35380"
    },
    {
      "id": 36255,
      "district_id": 494,
      "name": "GÜVEN MAH",
      "area": "İŞÇİEVLERİ",
      "postal_code": "35370"
    },
    {
      "id": 36256,
      "district_id": 494,
      "name": "HÜRRİYET MAH",
      "area": "İŞÇİEVLERİ",
      "postal_code": "35370"
    },
    {
      "id": 36257,
      "district_id": 494,
      "name": "İNKILAP MAH",
      "area": "ŞİRİNYER",
      "postal_code": "35380"
    },
    {
      "id": 36258,
      "district_id": 494,
      "name": "İNÖNÜ MAH",
      "area": "ŞİRİNYER",
      "postal_code": "35380"
    },
    {
      "id": 36259,
      "district_id": 494,
      "name": "İZKENT MAH",
      "area": "EVKA1",
      "postal_code": "35400"
    },
    {
      "id": 36260,
      "district_id": 494,
      "name": "KARACAAĞAÇ MAH",
      "area": "BUCA",
      "postal_code": "35390"
    },
    {
      "id": 36261,
      "district_id": 494,
      "name": "KARANFİL MAH",
      "area": "EVKA1",
      "postal_code": "35400"
    },
    {
      "id": 36262,
      "district_id": 494,
      "name": "KAYNAKLAR MERKEZ MAH",
      "area": "BUCA",
      "postal_code": "35390"
    },
    {
      "id": 36263,
      "district_id": 494,
      "name": "KIRKLAR MAH",
      "area": "BUCA",
      "postal_code": "35390"
    },
    {
      "id": 36264,
      "district_id": 494,
      "name": "KOZAĞAÇ MAH",
      "area": "BUCA",
      "postal_code": "35390"
    },
    {
      "id": 36265,
      "district_id": 494,
      "name": "KURUÇEŞME MAH",
      "area": "BUCA",
      "postal_code": "35390"
    },
    {
      "id": 36266,
      "district_id": 494,
      "name": "LALELİ MAH",
      "area": "İŞÇİEVLERİ",
      "postal_code": "35370"
    },
    {
      "id": 36267,
      "district_id": 494,
      "name": "MENDERES MAH",
      "area": "İŞÇİEVLERİ",
      "postal_code": "35370"
    },
    {
      "id": 36268,
      "district_id": 494,
      "name": "MURATHAN MAH",
      "area": "EVKA1",
      "postal_code": "35400"
    },
    {
      "id": 36269,
      "district_id": 494,
      "name": "MUSTAFA KEMAL MAH",
      "area": "ŞİRİNYER",
      "postal_code": "35380"
    },
    {
      "id": 36270,
      "district_id": 494,
      "name": "SEYHAN MAH",
      "area": "ŞİRİNYER",
      "postal_code": "35380"
    },
    {
      "id": 36271,
      "district_id": 494,
      "name": "ŞİRİNKAPI MAH",
      "area": "EVKA1",
      "postal_code": "35400"
    },
    {
      "id": 36272,
      "district_id": 494,
      "name": "UFUK MAH",
      "area": "İŞÇİEVLERİ",
      "postal_code": "35370"
    },
    {
      "id": 36273,
      "district_id": 494,
      "name": "VALİ RAHMİ BEY MAH",
      "area": "ŞİRİNYER",
      "postal_code": "35380"
    },
    {
      "id": 36274,
      "district_id": 494,
      "name": "YAYLACIK MAH",
      "area": "EVKA1",
      "postal_code": "35400"
    },
    {
      "id": 36275,
      "district_id": 494,
      "name": "YENİGÜN MAH",
      "area": "BUCA",
      "postal_code": "35390"
    },
    {
      "id": 36276,
      "district_id": 494,
      "name": "YEŞİLBAĞLAR MAH",
      "area": "ŞİRİNYER",
      "postal_code": "35380"
    },
    {
      "id": 36277,
      "district_id": 494,
      "name": "YİĞİTLER MAH",
      "area": "İŞÇİEVLERİ",
      "postal_code": "35370"
    },
    {
      "id": 36278,
      "district_id": 494,
      "name": "YILDIZ MAH",
      "area": "BUCA",
      "postal_code": "35390"
    },
    {
      "id": 36279,
      "district_id": 494,
      "name": "YILDIZLAR MAH",
      "area": "KAYNAKLAR",
      "postal_code": "35395"
    },
    {
      "id": 36280,
      "district_id": 494,
      "name": "ZAFER MAH",
      "area": "KAYNAKLAR",
      "postal_code": "35395"
    },
    {
      "id": 36281,
      "district_id": 495,
      "name": "16 EYLÜL MAH",
      "area": "ÇEŞME",
      "postal_code": "35930"
    },
    {
      "id": 36282,
      "district_id": 495,
      "name": "ALAÇATI MAH",
      "area": "ALAÇATI",
      "postal_code": "35937"
    },
    {
      "id": 36283,
      "district_id": 495,
      "name": "ALTINKUM MAH",
      "area": "ÇEŞME",
      "postal_code": "35930"
    },
    {
      "id": 36284,
      "district_id": 495,
      "name": "ALTINYUNUS MAH",
      "area": "ÇEŞME",
      "postal_code": "35930"
    },
    {
      "id": 36285,
      "district_id": 495,
      "name": "ARDIÇ MAH",
      "area": "ÇEŞME",
      "postal_code": "35930"
    },
    {
      "id": 36286,
      "district_id": 495,
      "name": "BOYALIK MAH",
      "area": "ÇEŞME",
      "postal_code": "35930"
    },
    {
      "id": 36287,
      "district_id": 495,
      "name": "ÇAKABEY MAH",
      "area": "ÇEŞME",
      "postal_code": "35930"
    },
    {
      "id": 36288,
      "district_id": 495,
      "name": "CELAL BAYAR MAH",
      "area": "ÇEŞME",
      "postal_code": "35930"
    },
    {
      "id": 36289,
      "district_id": 495,
      "name": "ÇİFTLİK MAH",
      "area": "ÇEŞME",
      "postal_code": "35930"
    },
    {
      "id": 36290,
      "district_id": 495,
      "name": "CUMHURİYET MAH",
      "area": "DALYAN",
      "postal_code": "35932"
    },
    {
      "id": 36291,
      "district_id": 495,
      "name": "DALYAN MAH",
      "area": "DALYAN",
      "postal_code": "35932"
    },
    {
      "id": 36292,
      "district_id": 495,
      "name": "FAHRETTİNPAŞA MAH",
      "area": "ÇEŞME",
      "postal_code": "35930"
    },
    {
      "id": 36293,
      "district_id": 495,
      "name": "GERMİYAN MAH",
      "area": "ÇEŞME",
      "postal_code": "35930"
    },
    {
      "id": 36294,
      "district_id": 495,
      "name": "ILDIR MAH",
      "area": "ÇEŞME",
      "postal_code": "35930"
    },
    {
      "id": 36295,
      "district_id": 495,
      "name": "ILICA MAH",
      "area": "ÇEŞME",
      "postal_code": "35930"
    },
    {
      "id": 36296,
      "district_id": 495,
      "name": "İSMET İNÖNÜ MAH",
      "area": "ÇEŞME",
      "postal_code": "35930"
    },
    {
      "id": 36297,
      "district_id": 495,
      "name": "KARAKÖY MAH",
      "area": "ÇEŞME",
      "postal_code": "35930"
    },
    {
      "id": 36298,
      "district_id": 495,
      "name": "MUSALLA MAH",
      "area": "ÇEŞME",
      "postal_code": "35930"
    },
    {
      "id": 36299,
      "district_id": 495,
      "name": "OVACIK MAH",
      "area": "ÇEŞME",
      "postal_code": "35930"
    },
    {
      "id": 36300,
      "district_id": 495,
      "name": "REİSDERE MAH",
      "area": "ÇEŞME",
      "postal_code": "35930"
    },
    {
      "id": 36301,
      "district_id": 495,
      "name": "SAKARYA MAH",
      "area": "ÇEŞME",
      "postal_code": "35930"
    },
    {
      "id": 36302,
      "district_id": 495,
      "name": "ŞEHİT MEHMET MAH",
      "area": "ÇEŞME",
      "postal_code": "35930"
    },
    {
      "id": 36303,
      "district_id": 495,
      "name": "ŞİFNE MAH",
      "area": "ÇEŞME",
      "postal_code": "35930"
    },
    {
      "id": 36304,
      "district_id": 495,
      "name": "ÜNİVERSİTE MAH",
      "area": "DALYAN",
      "postal_code": "35932"
    },
    {
      "id": 36305,
      "district_id": 495,
      "name": "YALI MAH",
      "area": "ÇEŞME",
      "postal_code": "35930"
    },
    {
      "id": 36306,
      "district_id": 496,
      "name": "AHMET EFENDİ MAH",
      "area": "HARMANDALI",
      "postal_code": "35650"
    },
    {
      "id": 36307,
      "district_id": 496,
      "name": "AHMET TANER KIŞLALI MAH",
      "area": "BÜYÜKÇİĞLİ",
      "postal_code": "35640"
    },
    {
      "id": 36308,
      "district_id": 496,
      "name": "AOSB MAH",
      "area": "ÇİĞLİ",
      "postal_code": "35620"
    },
    {
      "id": 36309,
      "district_id": 496,
      "name": "ATAŞEHİR MAH",
      "area": "ÇİĞLİ",
      "postal_code": "35620"
    },
    {
      "id": 36310,
      "district_id": 496,
      "name": "ATATÜRK MAH",
      "area": "EGEKENT",
      "postal_code": "35610"
    },
    {
      "id": 36311,
      "district_id": 496,
      "name": "AYDINLIKEVLER MAH",
      "area": "BÜYÜKÇİĞLİ",
      "postal_code": "35640"
    },
    {
      "id": 36312,
      "district_id": 496,
      "name": "BALATÇIK MAH",
      "area": "ÇİĞLİ",
      "postal_code": "35620"
    },
    {
      "id": 36313,
      "district_id": 496,
      "name": "ÇAĞDAŞ MAH",
      "area": "EGEKENT",
      "postal_code": "35610"
    },
    {
      "id": 36314,
      "district_id": 496,
      "name": "CUMHURİYET MAH",
      "area": "HARMANDALI",
      "postal_code": "35650"
    },
    {
      "id": 36315,
      "district_id": 496,
      "name": "EGEKENT MAH",
      "area": "EGEKENT",
      "postal_code": "35610"
    },
    {
      "id": 36316,
      "district_id": 496,
      "name": "ESENTEPE MAH",
      "area": "EGEKENT",
      "postal_code": "35610"
    },
    {
      "id": 36317,
      "district_id": 496,
      "name": "EVKA-2 MAH",
      "area": "BÜYÜKÇİĞLİ",
      "postal_code": "35640"
    },
    {
      "id": 36318,
      "district_id": 496,
      "name": "EVKA-5 MAH",
      "area": "EGEKENT",
      "postal_code": "35610"
    },
    {
      "id": 36319,
      "district_id": 496,
      "name": "EVKA-6 MAH",
      "area": "BÜYÜKÇİĞLİ",
      "postal_code": "35640"
    },
    {
      "id": 36320,
      "district_id": 496,
      "name": "GÜZELTEPE MAH",
      "area": "BÜYÜKÇİĞLİ",
      "postal_code": "35640"
    },
    {
      "id": 36321,
      "district_id": 496,
      "name": "HARMANDALI GAZİ MUSTAFA KEMAL ATATÜRK MAH",
      "area": "HARMANDALI",
      "postal_code": "35650"
    },
    {
      "id": 36322,
      "district_id": 496,
      "name": "İNÖNÜ MAH",
      "area": "HARMANDALI",
      "postal_code": "35650"
    },
    {
      "id": 36323,
      "district_id": 496,
      "name": "İZKENT MAH",
      "area": "EGEKENT",
      "postal_code": "35610"
    },
    {
      "id": 36324,
      "district_id": 496,
      "name": "KAKLIÇ MAH",
      "area": "ÇİĞLİ",
      "postal_code": "35620"
    },
    {
      "id": 36325,
      "district_id": 496,
      "name": "KÖYİÇİ MAH",
      "area": "BÜYÜKÇİĞLİ",
      "postal_code": "35640"
    },
    {
      "id": 36326,
      "district_id": 496,
      "name": "KÜÇÜK ÇİĞLİ MAH",
      "area": "ÇİĞLİ",
      "postal_code": "35620"
    },
    {
      "id": 36327,
      "district_id": 496,
      "name": "MALTEPE MAH",
      "area": "BÜYÜKÇİĞLİ",
      "postal_code": "35640"
    },
    {
      "id": 36328,
      "district_id": 496,
      "name": "SASALI MERKEZ MAH",
      "area": "ÇİĞLİ",
      "postal_code": "35620"
    },
    {
      "id": 36329,
      "district_id": 496,
      "name": "ŞİRİNTEPE MAH",
      "area": "BÜYÜKÇİĞLİ",
      "postal_code": "35640"
    },
    {
      "id": 36330,
      "district_id": 496,
      "name": "UĞUR MUMCU MAH",
      "area": "HARMANDALI",
      "postal_code": "35650"
    },
    {
      "id": 36331,
      "district_id": 496,
      "name": "YAKAKENT MAH",
      "area": "BÜYÜKÇİĞLİ",
      "postal_code": "35640"
    },
    {
      "id": 36332,
      "district_id": 496,
      "name": "YENİ MAHALLE MAH",
      "area": "ÇİĞLİ",
      "postal_code": "35620"
    },
    {
      "id": 36333,
      "district_id": 497,
      "name": "BADEMLİ MAH",
      "area": "DİKİLİ",
      "postal_code": "35980"
    },
    {
      "id": 36334,
      "district_id": 497,
      "name": "BAHÇELİ MAH",
      "area": "DİKİLİ",
      "postal_code": "35980"
    },
    {
      "id": 36335,
      "district_id": 497,
      "name": "ÇAĞLAN MAH",
      "area": "DİKİLİ",
      "postal_code": "35980"
    },
    {
      "id": 36336,
      "district_id": 497,
      "name": "ÇANDARLI MAH",
      "area": "DİKİLİ",
      "postal_code": "35980"
    },
    {
      "id": 36337,
      "district_id": 497,
      "name": "ÇUKURALANI MAH",
      "area": "DİKİLİ",
      "postal_code": "35980"
    },
    {
      "id": 36338,
      "district_id": 497,
      "name": "CUMHURİYET MAH",
      "area": "DİKİLİ",
      "postal_code": "35980"
    },
    {
      "id": 36339,
      "district_id": 497,
      "name": "DELİKTAŞ MAH",
      "area": "DİKİLİ",
      "postal_code": "35980"
    },
    {
      "id": 36340,
      "district_id": 497,
      "name": "DEMİRTAŞ MAH",
      "area": "DİKİLİ",
      "postal_code": "35980"
    },
    {
      "id": 36341,
      "district_id": 497,
      "name": "DENİZKÖY MAH",
      "area": "DİKİLİ",
      "postal_code": "35980"
    },
    {
      "id": 36342,
      "district_id": 497,
      "name": "ESENTEPE MAH",
      "area": "DİKİLİ",
      "postal_code": "35980"
    },
    {
      "id": 36343,
      "district_id": 497,
      "name": "GAZİPAŞA MAH",
      "area": "DİKİLİ",
      "postal_code": "35980"
    },
    {
      "id": 36344,
      "district_id": 497,
      "name": "GÖKÇEAĞIL MAH",
      "area": "DİKİLİ",
      "postal_code": "35980"
    },
    {
      "id": 36345,
      "district_id": 497,
      "name": "İSLAMLAR MAH",
      "area": "DİKİLİ",
      "postal_code": "35980"
    },
    {
      "id": 36346,
      "district_id": 497,
      "name": "İSMETPAŞA MAH",
      "area": "DİKİLİ",
      "postal_code": "35980"
    },
    {
      "id": 36347,
      "district_id": 497,
      "name": "KABAKUM MAH",
      "area": "DİKİLİ",
      "postal_code": "35980"
    },
    {
      "id": 36348,
      "district_id": 497,
      "name": "KATIRALANI MAH",
      "area": "DİKİLİ",
      "postal_code": "35980"
    },
    {
      "id": 36349,
      "district_id": 497,
      "name": "KIRATLI MAH",
      "area": "DİKİLİ",
      "postal_code": "35980"
    },
    {
      "id": 36350,
      "district_id": 497,
      "name": "KIROBA MAH",
      "area": "DİKİLİ",
      "postal_code": "35980"
    },
    {
      "id": 36351,
      "district_id": 497,
      "name": "KIZILÇUKUR MAH",
      "area": "DİKİLİ",
      "postal_code": "35980"
    },
    {
      "id": 36352,
      "district_id": 497,
      "name": "KOCAOBA MAH",
      "area": "DİKİLİ",
      "postal_code": "35980"
    },
    {
      "id": 36353,
      "district_id": 497,
      "name": "MAZILI MAH",
      "area": "DİKİLİ",
      "postal_code": "35980"
    },
    {
      "id": 36354,
      "district_id": 497,
      "name": "MERDİVENLİ MAH",
      "area": "DİKİLİ",
      "postal_code": "35980"
    },
    {
      "id": 36355,
      "district_id": 497,
      "name": "NEBİLER MAH",
      "area": "DİKİLİ",
      "postal_code": "35980"
    },
    {
      "id": 36356,
      "district_id": 497,
      "name": "SALİHLER MAH",
      "area": "DİKİLİ",
      "postal_code": "35980"
    },
    {
      "id": 36357,
      "district_id": 497,
      "name": "SALİMBEY MAH",
      "area": "DİKİLİ",
      "postal_code": "35980"
    },
    {
      "id": 36358,
      "district_id": 497,
      "name": "SAMANLIKKÖY MAH",
      "area": "DİKİLİ",
      "postal_code": "35980"
    },
    {
      "id": 36359,
      "district_id": 497,
      "name": "UZUNBURUN MAH",
      "area": "DİKİLİ",
      "postal_code": "35980"
    },
    {
      "id": 36360,
      "district_id": 497,
      "name": "YAHŞİBEY MAH",
      "area": "DİKİLİ",
      "postal_code": "35980"
    },
    {
      "id": 36361,
      "district_id": 497,
      "name": "YAYLAYURT MAH",
      "area": "DİKİLİ",
      "postal_code": "35980"
    },
    {
      "id": 36362,
      "district_id": 497,
      "name": "YENİCE MAH",
      "area": "DİKİLİ",
      "postal_code": "35980"
    },
    {
      "id": 36363,
      "district_id": 498,
      "name": "ATATÜRK MAH",
      "area": "FOÇA",
      "postal_code": "35680"
    },
    {
      "id": 36364,
      "district_id": 498,
      "name": "CUMHURİYET MAH",
      "area": "YENİFOÇA",
      "postal_code": "35687"
    },
    {
      "id": 36365,
      "district_id": 498,
      "name": "FATİH MAH",
      "area": "YENİFOÇA",
      "postal_code": "35687"
    },
    {
      "id": 36366,
      "district_id": 498,
      "name": "FEVZİ ÇAKMAK MAH",
      "area": "YENİFOÇA",
      "postal_code": "35687"
    },
    {
      "id": 36367,
      "district_id": 498,
      "name": "FEVZİPAŞA MAH",
      "area": "FOÇA",
      "postal_code": "35680"
    },
    {
      "id": 36368,
      "district_id": 498,
      "name": "HACIVELİ MAH",
      "area": "BAĞARASI",
      "postal_code": "35683"
    },
    {
      "id": 36369,
      "district_id": 498,
      "name": "ILIPINAR MAH",
      "area": "FOÇA",
      "postal_code": "35680"
    },
    {
      "id": 36370,
      "district_id": 498,
      "name": "İSMETPAŞA MAH",
      "area": "FOÇA",
      "postal_code": "35680"
    },
    {
      "id": 36371,
      "district_id": 498,
      "name": "KAZIM DİRİK MAH",
      "area": "BAĞARASI",
      "postal_code": "35683"
    },
    {
      "id": 36372,
      "district_id": 498,
      "name": "KEMAL ATATÜRK MAH",
      "area": "FOÇA",
      "postal_code": "35680"
    },
    {
      "id": 36373,
      "district_id": 498,
      "name": "KOCA MEHMETLER MAH",
      "area": "FOÇA",
      "postal_code": "35680"
    },
    {
      "id": 36374,
      "district_id": 498,
      "name": "KOZBEYLİ MAH",
      "area": "FOÇA",
      "postal_code": "35680"
    },
    {
      "id": 36375,
      "district_id": 498,
      "name": "MAREŞAL FEVZİ ÇAKMAK MAH",
      "area": "FOÇA",
      "postal_code": "35680"
    },
    {
      "id": 36376,
      "district_id": 498,
      "name": "MUSTAFA KEMAL ATATÜRK MAH",
      "area": "FOÇA",
      "postal_code": "35680"
    },
    {
      "id": 36377,
      "district_id": 498,
      "name": "YENİBAĞARASI MAH",
      "area": "FOÇA",
      "postal_code": "35680"
    },
    {
      "id": 36378,
      "district_id": 498,
      "name": "YENİKÖY MAH",
      "area": "FOÇA",
      "postal_code": "35680"
    },
    {
      "id": 36379,
      "district_id": 499,
      "name": "AKTEPE MAH",
      "area": "GAZİEMİR",
      "postal_code": "35410"
    },
    {
      "id": 36380,
      "district_id": 499,
      "name": "ATATÜRK MAH",
      "area": "GAZİEMİR",
      "postal_code": "35410"
    },
    {
      "id": 36381,
      "district_id": 499,
      "name": "ATIFBEY MAH",
      "area": "GAZİEMİR",
      "postal_code": "35410"
    },
    {
      "id": 36382,
      "district_id": 499,
      "name": "BEYAZEVLER MAH",
      "area": "GAZİEMİR",
      "postal_code": "35410"
    },
    {
      "id": 36383,
      "district_id": 499,
      "name": "BİNBAŞI REŞATBEY MAH",
      "area": "GAZİEMİR",
      "postal_code": "35410"
    },
    {
      "id": 36384,
      "district_id": 499,
      "name": "DOKUZ EYLÜL MAH",
      "area": "GAZİEMİR",
      "postal_code": "35410"
    },
    {
      "id": 36385,
      "district_id": 499,
      "name": "EMREZ MAH",
      "area": "GAZİEMİR",
      "postal_code": "35410"
    },
    {
      "id": 36386,
      "district_id": 499,
      "name": "FATİH MAH",
      "area": "GAZİEMİR",
      "postal_code": "35410"
    },
    {
      "id": 36387,
      "district_id": 499,
      "name": "GAZİ MAH",
      "area": "GAZİEMİR",
      "postal_code": "35410"
    },
    {
      "id": 36388,
      "district_id": 499,
      "name": "GAZİKENT MAH",
      "area": "GAZİEMİR",
      "postal_code": "35410"
    },
    {
      "id": 36389,
      "district_id": 499,
      "name": "HÜRRİYET MAH",
      "area": "GAZİEMİR",
      "postal_code": "35410"
    },
    {
      "id": 36390,
      "district_id": 499,
      "name": "IRMAK MAH",
      "area": "GAZİEMİR",
      "postal_code": "35410"
    },
    {
      "id": 36391,
      "district_id": 499,
      "name": "MENDERES MAH",
      "area": "GAZİEMİR",
      "postal_code": "35410"
    },
    {
      "id": 36392,
      "district_id": 499,
      "name": "SEVGİ MAH",
      "area": "GAZİEMİR",
      "postal_code": "35410"
    },
    {
      "id": 36393,
      "district_id": 499,
      "name": "YEŞİL MAH",
      "area": "GAZİEMİR",
      "postal_code": "35410"
    },
    {
      "id": 36394,
      "district_id": 499,
      "name": "ZAFER MAH",
      "area": "GAZİEMİR",
      "postal_code": "35410"
    },
    {
      "id": 36395,
      "district_id": 499,
      "name": "ZAFER SB MAH",
      "area": "GAZİEMİR",
      "postal_code": "35410"
    },
    {
      "id": 36396,
      "district_id": 500,
      "name": "ATATÜRK MAH",
      "area": "GÜZELBAHÇE",
      "postal_code": "35310"
    },
    {
      "id": 36397,
      "district_id": 500,
      "name": "ÇAMLI MAH",
      "area": "GÜZELBAHÇE",
      "postal_code": "35310"
    },
    {
      "id": 36398,
      "district_id": 500,
      "name": "ÇELEBİ MAH",
      "area": "GÜZELBAHÇE",
      "postal_code": "35310"
    },
    {
      "id": 36399,
      "district_id": 500,
      "name": "KAHRAMANDERE MAH",
      "area": "GÜZELBAHÇE",
      "postal_code": "35310"
    },
    {
      "id": 36400,
      "district_id": 500,
      "name": "KÜÇÜKKAYA MAH",
      "area": "GÜZELBAHÇE",
      "postal_code": "35310"
    },
    {
      "id": 36401,
      "district_id": 500,
      "name": "MALTEPE MAH",
      "area": "GÜZELBAHÇE",
      "postal_code": "35310"
    },
    {
      "id": 36402,
      "district_id": 500,
      "name": "MUSTAFA KEMAL PAŞA MAH",
      "area": "GÜZELBAHÇE",
      "postal_code": "35310"
    },
    {
      "id": 36403,
      "district_id": 500,
      "name": "PAYAMLI MAH",
      "area": "GÜZELBAHÇE",
      "postal_code": "35310"
    },
    {
      "id": 36404,
      "district_id": 500,
      "name": "SİTELER MAH",
      "area": "GÜZELBAHÇE",
      "postal_code": "35310"
    },
    {
      "id": 36405,
      "district_id": 500,
      "name": "YAKA MAH",
      "area": "GÜZELBAHÇE",
      "postal_code": "35310"
    },
    {
      "id": 36406,
      "district_id": 500,
      "name": "YALI MAH",
      "area": "GÜZELBAHÇE",
      "postal_code": "35310"
    },
    {
      "id": 36407,
      "district_id": 500,
      "name": "YELKİ MAH",
      "area": "GÜZELBAHÇE",
      "postal_code": "35310"
    },
    {
      "id": 36408,
      "district_id": 501,
      "name": "ABDİ İPEKÇİ MAH",
      "area": "KİBAR",
      "postal_code": "35120"
    },
    {
      "id": 36409,
      "district_id": 501,
      "name": "ADNAN SÜVARİ MAH",
      "area": "FAHRETTİNALTAY",
      "postal_code": "35140"
    },
    {
      "id": 36410,
      "district_id": 501,
      "name": "ALİ FUAT CEBESOY MAH",
      "area": "YEŞİLYURT",
      "postal_code": "35160"
    },
    {
      "id": 36411,
      "district_id": 501,
      "name": "ALİ FUAT ERDEN MAH",
      "area": "YEŞİLYURT",
      "postal_code": "35160"
    },
    {
      "id": 36412,
      "district_id": 501,
      "name": "ARAP HASAN MAH",
      "area": "HATAY",
      "postal_code": "35150"
    },
    {
      "id": 36413,
      "district_id": 501,
      "name": "AŞIK VEYSEL MAH",
      "area": "ZİNCİRLİKUYU",
      "postal_code": "35110"
    },
    {
      "id": 36414,
      "district_id": 501,
      "name": "AYDIN MAH",
      "area": "KARABAĞLAR",
      "postal_code": "35130"
    },
    {
      "id": 36415,
      "district_id": 501,
      "name": "BAHAR MAH",
      "area": "ZİNCİRLİKUYU",
      "postal_code": "35110"
    },
    {
      "id": 36416,
      "district_id": 501,
      "name": "BAHÇELİEVLER MAH",
      "area": "HATAY",
      "postal_code": "35150"
    },
    {
      "id": 36417,
      "district_id": 501,
      "name": "BAHRİYE ÜÇOK MAH",
      "area": "YEŞİLYURT",
      "postal_code": "35160"
    },
    {
      "id": 36418,
      "district_id": 501,
      "name": "BARIŞ MAH",
      "area": "KARABAĞLAR",
      "postal_code": "35130"
    },
    {
      "id": 36419,
      "district_id": 501,
      "name": "BASIN SİTESİ MAH",
      "area": "HATAY",
      "postal_code": "35150"
    },
    {
      "id": 36420,
      "district_id": 501,
      "name": "BOZYAKA MAH",
      "area": "ZİNCİRLİKUYU",
      "postal_code": "35110"
    },
    {
      "id": 36421,
      "district_id": 501,
      "name": "ÇALIKUŞU MAH",
      "area": "ZİNCİRLİKUYU",
      "postal_code": "35110"
    },
    {
      "id": 36422,
      "district_id": 501,
      "name": "CENNETÇEŞME MAH",
      "area": "KİBAR",
      "postal_code": "35120"
    },
    {
      "id": 36423,
      "district_id": 501,
      "name": "CENNETOĞLU MAH",
      "area": "ZİNCİRLİKUYU",
      "postal_code": "35110"
    },
    {
      "id": 36424,
      "district_id": 501,
      "name": "DEVRİM MAH",
      "area": "KİBAR",
      "postal_code": "35120"
    },
    {
      "id": 36425,
      "district_id": 501,
      "name": "DOĞANAY MAH",
      "area": "YEŞİLYURT",
      "postal_code": "35160"
    },
    {
      "id": 36426,
      "district_id": 501,
      "name": "ESENLİK MAH",
      "area": "YEŞİLYURT",
      "postal_code": "35160"
    },
    {
      "id": 36427,
      "district_id": 501,
      "name": "ESENTEPE MAH",
      "area": "FAHRETTİNALTAY",
      "postal_code": "35140"
    },
    {
      "id": 36428,
      "district_id": 501,
      "name": "ESENYALI MAH",
      "area": "FAHRETTİNALTAY",
      "postal_code": "35140"
    },
    {
      "id": 36429,
      "district_id": 501,
      "name": "FAHRETTİN ALTAY MAH",
      "area": "FAHRETTİNALTAY",
      "postal_code": "35140"
    },
    {
      "id": 36430,
      "district_id": 501,
      "name": "GAZİ MAH",
      "area": "KİBAR",
      "postal_code": "35120"
    },
    {
      "id": 36431,
      "district_id": 501,
      "name": "GENERAL ASIM GÜNDÜZ MAH",
      "area": "ZİNCİRLİKUYU",
      "postal_code": "35110"
    },
    {
      "id": 36432,
      "district_id": 501,
      "name": "GENERAL KAZIM ÖZALP MAH",
      "area": "FAHRETTİNALTAY",
      "postal_code": "35140"
    },
    {
      "id": 36433,
      "district_id": 501,
      "name": "GÜLYAKA MAH",
      "area": "ZİNCİRLİKUYU",
      "postal_code": "35110"
    },
    {
      "id": 36434,
      "district_id": 501,
      "name": "GÜNALTAY MAH",
      "area": "KARABAĞLAR",
      "postal_code": "35130"
    },
    {
      "id": 36435,
      "district_id": 501,
      "name": "İHSAN ALYANAK MAH",
      "area": "KARABAĞLAR",
      "postal_code": "35130"
    },
    {
      "id": 36436,
      "district_id": 501,
      "name": "KARABAĞLAR MAH",
      "area": "ZİNCİRLİKUYU",
      "postal_code": "35110"
    },
    {
      "id": 36437,
      "district_id": 501,
      "name": "KAVACIK MAH",
      "area": "KARABAĞLAR",
      "postal_code": "35130"
    },
    {
      "id": 36438,
      "district_id": 501,
      "name": "KAZIM KARABEKİR MAH",
      "area": "YEŞİLYURT",
      "postal_code": "35160"
    },
    {
      "id": 36439,
      "district_id": 501,
      "name": "KİBAR MAH",
      "area": "KİBAR",
      "postal_code": "35120"
    },
    {
      "id": 36440,
      "district_id": 501,
      "name": "LİMONTEPE MAH",
      "area": "YEŞİLYURT",
      "postal_code": "35160"
    },
    {
      "id": 36441,
      "district_id": 501,
      "name": "MALİYECİLER MAH",
      "area": "FAHRETTİNALTAY",
      "postal_code": "35140"
    },
    {
      "id": 36442,
      "district_id": 501,
      "name": "METİN OKTAY MAH",
      "area": "FAHRETTİNALTAY",
      "postal_code": "35140"
    },
    {
      "id": 36443,
      "district_id": 501,
      "name": "MUAMMER AKAR MAH",
      "area": "FAHRETTİNALTAY",
      "postal_code": "35140"
    },
    {
      "id": 36444,
      "district_id": 501,
      "name": "OSMAN AKSÜNER MAH",
      "area": "ZİNCİRLİKUYU",
      "postal_code": "35110"
    },
    {
      "id": 36445,
      "district_id": 501,
      "name": "ÖZGÜR MAH",
      "area": "KİBAR",
      "postal_code": "35120"
    },
    {
      "id": 36446,
      "district_id": 501,
      "name": "PEKER MAH",
      "area": "KARABAĞLAR",
      "postal_code": "35130"
    },
    {
      "id": 36447,
      "district_id": 501,
      "name": "POLİGON MAH",
      "area": "FAHRETTİNALTAY",
      "postal_code": "35140"
    },
    {
      "id": 36448,
      "district_id": 501,
      "name": "REFET BELE MAH",
      "area": "YEŞİLYURT",
      "postal_code": "35160"
    },
    {
      "id": 36449,
      "district_id": 501,
      "name": "REİS MAH",
      "area": "YEŞİLYURT",
      "postal_code": "35160"
    },
    {
      "id": 36450,
      "district_id": 501,
      "name": "SALİH OMURTAK MAH",
      "area": "YEŞİLYURT",
      "postal_code": "35160"
    },
    {
      "id": 36451,
      "district_id": 501,
      "name": "SARIYER MAH",
      "area": "ZİNCİRLİKUYU",
      "postal_code": "35110"
    },
    {
      "id": 36452,
      "district_id": 501,
      "name": "ŞEHİTLER MAH",
      "area": "FAHRETTİNALTAY",
      "postal_code": "35140"
    },
    {
      "id": 36453,
      "district_id": 501,
      "name": "SELVİLİ MAH",
      "area": "KARABAĞLAR",
      "postal_code": "35130"
    },
    {
      "id": 36454,
      "district_id": 501,
      "name": "SEVGİ MAH",
      "area": "KARABAĞLAR",
      "postal_code": "35130"
    },
    {
      "id": 36455,
      "district_id": 501,
      "name": "TAHSİN YAZICI MAH",
      "area": "YEŞİLYURT",
      "postal_code": "35160"
    },
    {
      "id": 36456,
      "district_id": 501,
      "name": "TIRAZLI MAH",
      "area": "KARABAĞLAR",
      "postal_code": "35130"
    },
    {
      "id": 36457,
      "district_id": 501,
      "name": "ÜÇKUYULAR MAH",
      "area": "FAHRETTİNALTAY",
      "postal_code": "35140"
    },
    {
      "id": 36458,
      "district_id": 501,
      "name": "UĞUR MUMCU MAH",
      "area": "ZİNCİRLİKUYU",
      "postal_code": "35110"
    },
    {
      "id": 36459,
      "district_id": 501,
      "name": "UMUT MAH",
      "area": "KİBAR",
      "postal_code": "35120"
    },
    {
      "id": 36460,
      "district_id": 501,
      "name": "UZUNDERE MAH",
      "area": "KİBAR",
      "postal_code": "35120"
    },
    {
      "id": 36461,
      "district_id": 501,
      "name": "VATAN MAH",
      "area": "YEŞİLYURT",
      "postal_code": "35160"
    },
    {
      "id": 36462,
      "district_id": 501,
      "name": "YAŞAR KEMAL MAH",
      "area": "KİBAR",
      "postal_code": "35120"
    },
    {
      "id": 36463,
      "district_id": 501,
      "name": "YUNUS EMRE MAH",
      "area": "KARABAĞLAR",
      "postal_code": "35130"
    },
    {
      "id": 36464,
      "district_id": 501,
      "name": "YURDOĞLU MAH",
      "area": "KİBAR",
      "postal_code": "35120"
    },
    {
      "id": 36465,
      "district_id": 501,
      "name": "YÜZBAŞI ŞERAFETTİN MAH",
      "area": "KİBAR",
      "postal_code": "35120"
    },
    {
      "id": 36466,
      "district_id": 502,
      "name": "ANBARSEKİ MAH",
      "area": "KARABURUN",
      "postal_code": "35960"
    },
    {
      "id": 36467,
      "district_id": 502,
      "name": "BOZKÖY MAH",
      "area": "KARABURUN",
      "postal_code": "35960"
    },
    {
      "id": 36468,
      "district_id": 502,
      "name": "EĞLENHOCA MAH",
      "area": "KARABURUN",
      "postal_code": "35960"
    },
    {
      "id": 36469,
      "district_id": 502,
      "name": "HASSEKİ MAH",
      "area": "KARABURUN",
      "postal_code": "35960"
    },
    {
      "id": 36470,
      "district_id": 502,
      "name": "İNECİK MAH",
      "area": "KARABURUN",
      "postal_code": "35960"
    },
    {
      "id": 36471,
      "district_id": 502,
      "name": "İSKELE MAH",
      "area": "KARABURUN",
      "postal_code": "35960"
    },
    {
      "id": 36472,
      "district_id": 502,
      "name": "KÖSEDERE MAH",
      "area": "KARABURUN",
      "postal_code": "35960"
    },
    {
      "id": 36473,
      "district_id": 502,
      "name": "KÜÇÜKBAHÇE MAH",
      "area": "KARABURUN",
      "postal_code": "35960"
    },
    {
      "id": 36474,
      "district_id": 502,
      "name": "MERKEZ MAH",
      "area": "KARABURUN",
      "postal_code": "35960"
    },
    {
      "id": 36475,
      "district_id": 502,
      "name": "MORDOĞAN MAH",
      "area": "MORDOĞAN",
      "postal_code": "35970"
    },
    {
      "id": 36476,
      "district_id": 502,
      "name": "PARLAK MAH",
      "area": "KARABURUN",
      "postal_code": "35960"
    },
    {
      "id": 36477,
      "district_id": 502,
      "name": "SAİP MAH",
      "area": "KARABURUN",
      "postal_code": "35960"
    },
    {
      "id": 36478,
      "district_id": 502,
      "name": "SALMAN MAH",
      "area": "KARABURUN",
      "postal_code": "35960"
    },
    {
      "id": 36479,
      "district_id": 502,
      "name": "SARPINCIK MAH",
      "area": "KARABURUN",
      "postal_code": "35960"
    },
    {
      "id": 36480,
      "district_id": 502,
      "name": "TEPEBOZ MAH",
      "area": "KARABURUN",
      "postal_code": "35960"
    },
    {
      "id": 36481,
      "district_id": 502,
      "name": "YAYLA MAH",
      "area": "KARABURUN",
      "postal_code": "35960"
    },
    {
      "id": 36482,
      "district_id": 503,
      "name": "AKSOY MAH",
      "area": "KARŞIYAKA",
      "postal_code": "35580"
    },
    {
      "id": 36483,
      "district_id": 503,
      "name": "ALAYBEY MAH",
      "area": "ALAYBEY",
      "postal_code": "35600"
    },
    {
      "id": 36484,
      "district_id": 503,
      "name": "ATAKENT MAH",
      "area": "DENİZBOSTANLISI",
      "postal_code": "35590"
    },
    {
      "id": 36485,
      "district_id": 503,
      "name": "BAHARİYE MAH",
      "area": "ALAYBEY",
      "postal_code": "35600"
    },
    {
      "id": 36486,
      "district_id": 503,
      "name": "BAHÇELİEVLER MAH",
      "area": "ALAYBEY",
      "postal_code": "35600"
    },
    {
      "id": 36487,
      "district_id": 503,
      "name": "BAHRİYE ÜÇOK MAH",
      "area": "KARŞIYAKA",
      "postal_code": "35580"
    },
    {
      "id": 36488,
      "district_id": 503,
      "name": "BOSTANLI MAH",
      "area": "DENİZBOSTANLISI",
      "postal_code": "35590"
    },
    {
      "id": 36489,
      "district_id": 503,
      "name": "CUMHURİYET MAH",
      "area": "CUMHURİYET",
      "postal_code": "35570"
    },
    {
      "id": 36490,
      "district_id": 503,
      "name": "DEDEBAŞI MAH",
      "area": "NERGİZ",
      "postal_code": "35560"
    },
    {
      "id": 36491,
      "district_id": 503,
      "name": "DEMİRKÖPRÜ MAH",
      "area": "NERGİZ",
      "postal_code": "35560"
    },
    {
      "id": 36492,
      "district_id": 503,
      "name": "DONANMACI MAH",
      "area": "KARŞIYAKA",
      "postal_code": "35580"
    },
    {
      "id": 36493,
      "district_id": 503,
      "name": "FİKRİ ALTAY MAH",
      "area": "NERGİZ",
      "postal_code": "35560"
    },
    {
      "id": 36494,
      "district_id": 503,
      "name": "GONCALAR MAH",
      "area": "NERGİZ",
      "postal_code": "35560"
    },
    {
      "id": 36495,
      "district_id": 503,
      "name": "İMBATLI MAH",
      "area": "İMBATLI",
      "postal_code": "35575"
    },
    {
      "id": 36496,
      "district_id": 503,
      "name": "İNÖNÜ MAH",
      "area": "CUMHURİYET",
      "postal_code": "35570"
    },
    {
      "id": 36497,
      "district_id": 503,
      "name": "LATİFE HANIM MAH",
      "area": "İMBATLI",
      "postal_code": "35575"
    },
    {
      "id": 36498,
      "district_id": 503,
      "name": "MAVİŞEHİR MAH",
      "area": "DENİZBOSTANLISI",
      "postal_code": "35590"
    },
    {
      "id": 36499,
      "district_id": 503,
      "name": "MUSTAFA KEMAL MAH",
      "area": "CUMHURİYET",
      "postal_code": "35570"
    },
    {
      "id": 36500,
      "district_id": 503,
      "name": "NERGİZ MAH",
      "area": "NERGİZ",
      "postal_code": "35560"
    },
    {
      "id": 36501,
      "district_id": 503,
      "name": "ÖRNEKKÖY MAH",
      "area": "İMBATLI",
      "postal_code": "35575"
    },
    {
      "id": 36502,
      "district_id": 503,
      "name": "SANCAKLI MAH",
      "area": "KARŞIYAKA",
      "postal_code": "35580"
    },
    {
      "id": 36503,
      "district_id": 503,
      "name": "ŞEMİKLER MAH",
      "area": "NERGİZ",
      "postal_code": "35560"
    },
    {
      "id": 36504,
      "district_id": 503,
      "name": "TERSANE MAH",
      "area": "ALAYBEY",
      "postal_code": "35600"
    },
    {
      "id": 36505,
      "district_id": 503,
      "name": "TUNA MAH",
      "area": "ALAYBEY",
      "postal_code": "35600"
    },
    {
      "id": 36506,
      "district_id": 503,
      "name": "YALI MAH",
      "area": "YALI",
      "postal_code": "35550"
    },
    {
      "id": 36507,
      "district_id": 503,
      "name": "YAMANLAR MAH",
      "area": "KARŞIYAKA",
      "postal_code": "35580"
    },
    {
      "id": 36508,
      "district_id": 503,
      "name": "ZÜBEYDE HANIM MAH",
      "area": "CUMHURİYET",
      "postal_code": "35570"
    },
    {
      "id": 36509,
      "district_id": 504,
      "name": "AKALAN MAH",
      "area": "KEMALPAŞA",
      "postal_code": "35730"
    },
    {
      "id": 36510,
      "district_id": 504,
      "name": "ANSIZCA MAH",
      "area": "KEMALPAŞA",
      "postal_code": "35730"
    },
    {
      "id": 36511,
      "district_id": 504,
      "name": "ARMUTLU 85.YIL CUMHURİYET MAH",
      "area": "ARMUTLU",
      "postal_code": "35737"
    },
    {
      "id": 36512,
      "district_id": 504,
      "name": "ARMUTLU HÜRRİYET MAH",
      "area": "ARMUTLU",
      "postal_code": "35737"
    },
    {
      "id": 36513,
      "district_id": 504,
      "name": "AŞAĞI YENMİŞ MAH",
      "area": "KEMALPAŞA",
      "postal_code": "35730"
    },
    {
      "id": 36514,
      "district_id": 504,
      "name": "AŞAĞIKIZILCA MAH",
      "area": "KEMALPAŞA",
      "postal_code": "35730"
    },
    {
      "id": 36515,
      "district_id": 504,
      "name": "ATATÜRK MAH",
      "area": "KEMALPAŞA",
      "postal_code": "35730"
    },
    {
      "id": 36516,
      "district_id": 504,
      "name": "BAĞYURDU 29 EKİM MAH",
      "area": "BAĞYURDU",
      "postal_code": "35743"
    },
    {
      "id": 36517,
      "district_id": 504,
      "name": "BAĞYURDU KAZIMPAŞA MAH",
      "area": "BAĞYURDU",
      "postal_code": "35743"
    },
    {
      "id": 36518,
      "district_id": 504,
      "name": "BAĞYURDU KEMAL ATATÜRK MAH",
      "area": "BAĞYURDU",
      "postal_code": "35743"
    },
    {
      "id": 36519,
      "district_id": 504,
      "name": "BAĞYURDU YENİ MAH",
      "area": "BAĞYURDU",
      "postal_code": "35743"
    },
    {
      "id": 36520,
      "district_id": 504,
      "name": "BAYRAMLI MAH",
      "area": "KEMALPAŞA",
      "postal_code": "35730"
    },
    {
      "id": 36521,
      "district_id": 504,
      "name": "BEŞPINAR MAH",
      "area": "KEMALPAŞA",
      "postal_code": "35730"
    },
    {
      "id": 36522,
      "district_id": 504,
      "name": "ÇAMBEL MAH",
      "area": "KEMALPAŞA",
      "postal_code": "35730"
    },
    {
      "id": 36523,
      "district_id": 504,
      "name": "ÇINARKÖY MAH",
      "area": "KEMALPAŞA",
      "postal_code": "35730"
    },
    {
      "id": 36524,
      "district_id": 504,
      "name": "ÇİNİLİKÖY MAH",
      "area": "KEMALPAŞA",
      "postal_code": "35730"
    },
    {
      "id": 36525,
      "district_id": 504,
      "name": "CUMALI MAH",
      "area": "KEMALPAŞA",
      "postal_code": "35730"
    },
    {
      "id": 36526,
      "district_id": 504,
      "name": "DAMLACIK MAH",
      "area": "KEMALPAŞA",
      "postal_code": "35730"
    },
    {
      "id": 36527,
      "district_id": 504,
      "name": "DEREKÖY MAH",
      "area": "KEMALPAŞA",
      "postal_code": "35730"
    },
    {
      "id": 36528,
      "district_id": 504,
      "name": "GÖKÇEYURT MAH",
      "area": "KEMALPAŞA",
      "postal_code": "35730"
    },
    {
      "id": 36529,
      "district_id": 504,
      "name": "GÖKYAKA MAH",
      "area": "KEMALPAŞA",
      "postal_code": "35730"
    },
    {
      "id": 36530,
      "district_id": 504,
      "name": "HALİLBEYLİ MAH",
      "area": "BAĞYURDU",
      "postal_code": "35743"
    },
    {
      "id": 36531,
      "district_id": 504,
      "name": "HALİLBEYLİ OSB MAH",
      "area": "KEMALPAŞA",
      "postal_code": "35730"
    },
    {
      "id": 36532,
      "district_id": 504,
      "name": "HAMZABABA MAH",
      "area": "KEMALPAŞA",
      "postal_code": "35730"
    },
    {
      "id": 36533,
      "district_id": 504,
      "name": "KAMBERLER MAH",
      "area": "KEMALPAŞA",
      "postal_code": "35730"
    },
    {
      "id": 36534,
      "district_id": 504,
      "name": "KEMALPAŞA OSB MAH",
      "area": "KEMALPAŞA",
      "postal_code": "35730"
    },
    {
      "id": 36535,
      "district_id": 504,
      "name": "KIZILÜZÜM MAH",
      "area": "KEMALPAŞA",
      "postal_code": "35730"
    },
    {
      "id": 36536,
      "district_id": 504,
      "name": "KUYUCAK MAH",
      "area": "KEMALPAŞA",
      "postal_code": "35730"
    },
    {
      "id": 36537,
      "district_id": 504,
      "name": "MEHMET AKİF ERSOY MAH",
      "area": "KEMALPAŞA",
      "postal_code": "35730"
    },
    {
      "id": 36538,
      "district_id": 504,
      "name": "NAZARKÖY MAH",
      "area": "KEMALPAŞA",
      "postal_code": "35730"
    },
    {
      "id": 36539,
      "district_id": 504,
      "name": "ÖREN 75.YIL CUMHURİYET MAH",
      "area": "KEMALPAŞA",
      "postal_code": "35730"
    },
    {
      "id": 36540,
      "district_id": 504,
      "name": "ÖREN EGEMEN MAH",
      "area": "ÖREN",
      "postal_code": "35733"
    },
    {
      "id": 36541,
      "district_id": 504,
      "name": "ÖRNEKKÖY MAH",
      "area": "KEMALPAŞA",
      "postal_code": "35730"
    },
    {
      "id": 36542,
      "district_id": 504,
      "name": "OVACIK MAH",
      "area": "KEMALPAŞA",
      "postal_code": "35730"
    },
    {
      "id": 36543,
      "district_id": 504,
      "name": "SARIÇALI MAH",
      "area": "KEMALPAŞA",
      "postal_code": "35730"
    },
    {
      "id": 36544,
      "district_id": 504,
      "name": "SARILAR MAH",
      "area": "KEMALPAŞA",
      "postal_code": "35730"
    },
    {
      "id": 36545,
      "district_id": 504,
      "name": "SEKİZ EYLÜL MAH",
      "area": "KEMALPAŞA",
      "postal_code": "35730"
    },
    {
      "id": 36546,
      "district_id": 504,
      "name": "SİNANCILAR MAH",
      "area": "KEMALPAŞA",
      "postal_code": "35730"
    },
    {
      "id": 36547,
      "district_id": 504,
      "name": "SOĞUKPINAR MAH",
      "area": "KEMALPAŞA",
      "postal_code": "35730"
    },
    {
      "id": 36548,
      "district_id": 504,
      "name": "SÜTÇÜLER MAH",
      "area": "KEMALPAŞA",
      "postal_code": "35730"
    },
    {
      "id": 36549,
      "district_id": 504,
      "name": "ULUCAK CUMHURİYET MAH",
      "area": "ULUCAK",
      "postal_code": "35735"
    },
    {
      "id": 36550,
      "district_id": 504,
      "name": "ULUCAK İSTİKLAL MAH",
      "area": "ULUCAK",
      "postal_code": "35735"
    },
    {
      "id": 36551,
      "district_id": 504,
      "name": "ULUCAK MUSTAFA KEMAL ATATÜRK MAH",
      "area": "ULUCAK",
      "postal_code": "35735"
    },
    {
      "id": 36552,
      "district_id": 504,
      "name": "VİŞNELİ MAH",
      "area": "KEMALPAŞA",
      "postal_code": "35730"
    },
    {
      "id": 36553,
      "district_id": 504,
      "name": "YENİKURUDERE MAH",
      "area": "KEMALPAŞA",
      "postal_code": "35730"
    },
    {
      "id": 36554,
      "district_id": 504,
      "name": "YENMİŞ MAH",
      "area": "KEMALPAŞA",
      "postal_code": "35730"
    },
    {
      "id": 36555,
      "district_id": 504,
      "name": "YEŞİLKÖY MAH",
      "area": "KEMALPAŞA",
      "postal_code": "35730"
    },
    {
      "id": 36556,
      "district_id": 504,
      "name": "YEŞİLYURT MAH",
      "area": "KEMALPAŞA",
      "postal_code": "35730"
    },
    {
      "id": 36557,
      "district_id": 504,
      "name": "YİĞİTLER MAH",
      "area": "KEMALPAŞA",
      "postal_code": "35730"
    },
    {
      "id": 36558,
      "district_id": 504,
      "name": "YUKARIKIZILCA MERKEZ MAH",
      "area": "KEMALPAŞA",
      "postal_code": "35730"
    },
    {
      "id": 36559,
      "district_id": 504,
      "name": "ZEAMET MAH",
      "area": "KEMALPAŞA",
      "postal_code": "35730"
    },
    {
      "id": 36560,
      "district_id": 505,
      "name": "ARPADERE MAH",
      "area": "KINIK",
      "postal_code": "35990"
    },
    {
      "id": 36561,
      "district_id": 505,
      "name": "ARPASEKİ MAH",
      "area": "KINIK",
      "postal_code": "35990"
    },
    {
      "id": 36562,
      "district_id": 505,
      "name": "AŞAĞI MAH",
      "area": "KINIK",
      "postal_code": "35990"
    },
    {
      "id": 36563,
      "district_id": 505,
      "name": "AZİZİYE MAH",
      "area": "KINIK",
      "postal_code": "35990"
    },
    {
      "id": 36564,
      "district_id": 505,
      "name": "BADEMALAN MAH",
      "area": "KINIK",
      "postal_code": "35990"
    },
    {
      "id": 36565,
      "district_id": 505,
      "name": "BAĞALAN MAH",
      "area": "KINIK",
      "postal_code": "35990"
    },
    {
      "id": 36566,
      "district_id": 505,
      "name": "BALABAN MAH",
      "area": "KINIK",
      "postal_code": "35990"
    },
    {
      "id": 36567,
      "district_id": 505,
      "name": "BÜYÜKOBA MAH",
      "area": "KINIK",
      "postal_code": "35990"
    },
    {
      "id": 36568,
      "district_id": 505,
      "name": "ÇALTI MAH",
      "area": "KINIK",
      "postal_code": "35990"
    },
    {
      "id": 36569,
      "district_id": 505,
      "name": "ÇANKÖY MAH",
      "area": "KINIK",
      "postal_code": "35990"
    },
    {
      "id": 36570,
      "district_id": 505,
      "name": "ÇİFTLİKKÖY MAH",
      "area": "KINIK",
      "postal_code": "35990"
    },
    {
      "id": 36571,
      "district_id": 505,
      "name": "CUMALI MAH",
      "area": "KINIK",
      "postal_code": "35990"
    },
    {
      "id": 36572,
      "district_id": 505,
      "name": "DEĞİRMENCİELİ MAH",
      "area": "KINIK",
      "postal_code": "35990"
    },
    {
      "id": 36573,
      "district_id": 505,
      "name": "DÜNDARLI MAH",
      "area": "KINIK",
      "postal_code": "35990"
    },
    {
      "id": 36574,
      "district_id": 505,
      "name": "ELMADERE MAH",
      "area": "KINIK",
      "postal_code": "35990"
    },
    {
      "id": 36575,
      "district_id": 505,
      "name": "FATİH MAH",
      "area": "KINIK",
      "postal_code": "35990"
    },
    {
      "id": 36576,
      "district_id": 505,
      "name": "HAMZAHOCALI MAH",
      "area": "KINIK",
      "postal_code": "35990"
    },
    {
      "id": 36577,
      "district_id": 505,
      "name": "İBRAHİMAĞA MAH",
      "area": "KINIK",
      "postal_code": "35990"
    },
    {
      "id": 36578,
      "district_id": 505,
      "name": "IŞIKLAR MAH",
      "area": "KINIK",
      "postal_code": "35990"
    },
    {
      "id": 36579,
      "district_id": 505,
      "name": "KALEMKÖY MAH",
      "area": "KINIK",
      "postal_code": "35990"
    },
    {
      "id": 36580,
      "district_id": 505,
      "name": "KARADERE MAH",
      "area": "KINIK",
      "postal_code": "35990"
    },
    {
      "id": 36581,
      "district_id": 505,
      "name": "KARATEKELİ MAH",
      "area": "KINIK",
      "postal_code": "35990"
    },
    {
      "id": 36582,
      "district_id": 505,
      "name": "KINIK OSB MAH",
      "area": "KINIK",
      "postal_code": "35990"
    },
    {
      "id": 36583,
      "district_id": 505,
      "name": "KOCAÖMER MAH",
      "area": "KINIK",
      "postal_code": "35990"
    },
    {
      "id": 36584,
      "district_id": 505,
      "name": "KODUKBURUN MAH",
      "area": "KINIK",
      "postal_code": "35990"
    },
    {
      "id": 36585,
      "district_id": 505,
      "name": "KÖSELER MAH",
      "area": "KINIK",
      "postal_code": "35990"
    },
    {
      "id": 36586,
      "district_id": 505,
      "name": "MISTIKLAR MAH",
      "area": "KINIK",
      "postal_code": "35990"
    },
    {
      "id": 36587,
      "district_id": 505,
      "name": "MUSACALI MAH",
      "area": "KINIK",
      "postal_code": "35990"
    },
    {
      "id": 36588,
      "district_id": 505,
      "name": "ÖRTÜLÜ MAH",
      "area": "KINIK",
      "postal_code": "35990"
    },
    {
      "id": 36589,
      "district_id": 505,
      "name": "OSMANİYE MAH",
      "area": "KINIK",
      "postal_code": "35990"
    },
    {
      "id": 36590,
      "district_id": 505,
      "name": "POYRACIK MAH",
      "area": "KINIK",
      "postal_code": "35990"
    },
    {
      "id": 36591,
      "district_id": 505,
      "name": "SUCAHLI MAH",
      "area": "KINIK",
      "postal_code": "35990"
    },
    {
      "id": 36592,
      "district_id": 505,
      "name": "TAŞTEPE MAH",
      "area": "KINIK",
      "postal_code": "35990"
    },
    {
      "id": 36593,
      "district_id": 505,
      "name": "TÜRKCEDİT MAH",
      "area": "KINIK",
      "postal_code": "35990"
    },
    {
      "id": 36594,
      "district_id": 505,
      "name": "YAYAKENT MAH",
      "area": "KINIK",
      "postal_code": "35990"
    },
    {
      "id": 36595,
      "district_id": 505,
      "name": "YAYLAKÖY MAH",
      "area": "KINIK",
      "postal_code": "35990"
    },
    {
      "id": 36596,
      "district_id": 505,
      "name": "YENİ MAH",
      "area": "KINIK",
      "postal_code": "35990"
    },
    {
      "id": 36597,
      "district_id": 505,
      "name": "YUKARI MAH",
      "area": "KINIK",
      "postal_code": "35990"
    },
    {
      "id": 36598,
      "district_id": 506,
      "name": "AHMETLER MAH",
      "area": "KİRAZ",
      "postal_code": "35890"
    },
    {
      "id": 36599,
      "district_id": 506,
      "name": "AKPINAR MAH",
      "area": "KİRAZ",
      "postal_code": "35890"
    },
    {
      "id": 36600,
      "district_id": 506,
      "name": "ALTINOLUK MAH",
      "area": "KİRAZ",
      "postal_code": "35890"
    },
    {
      "id": 36601,
      "district_id": 506,
      "name": "ARKACILAR MAH",
      "area": "KİRAZ",
      "postal_code": "35890"
    },
    {
      "id": 36602,
      "district_id": 506,
      "name": "AVUNDURUK MAH",
      "area": "KİRAZ",
      "postal_code": "35890"
    },
    {
      "id": 36603,
      "district_id": 506,
      "name": "AYDOĞDU MAH",
      "area": "KİRAZ",
      "postal_code": "35890"
    },
    {
      "id": 36604,
      "district_id": 506,
      "name": "BAHÇEARASI MAH",
      "area": "KİRAZ",
      "postal_code": "35890"
    },
    {
      "id": 36605,
      "district_id": 506,
      "name": "BAŞARAN MAH",
      "area": "KİRAZ",
      "postal_code": "35890"
    },
    {
      "id": 36606,
      "district_id": 506,
      "name": "ÇANAKÇI MAH",
      "area": "KİRAZ",
      "postal_code": "35890"
    },
    {
      "id": 36607,
      "district_id": 506,
      "name": "ÇATAK MAH",
      "area": "KİRAZ",
      "postal_code": "35890"
    },
    {
      "id": 36608,
      "district_id": 506,
      "name": "ÇAYAĞZI MAH",
      "area": "KİRAZ",
      "postal_code": "35890"
    },
    {
      "id": 36609,
      "district_id": 506,
      "name": "CERİTLER MAH",
      "area": "KİRAZ",
      "postal_code": "35890"
    },
    {
      "id": 36610,
      "district_id": 506,
      "name": "CEVİZLİ MAH",
      "area": "KİRAZ",
      "postal_code": "35890"
    },
    {
      "id": 36611,
      "district_id": 506,
      "name": "ÇÖMLEKÇİ MAH",
      "area": "KİRAZ",
      "postal_code": "35890"
    },
    {
      "id": 36612,
      "district_id": 506,
      "name": "CUMHURİYET MAH",
      "area": "KİRAZ",
      "postal_code": "35890"
    },
    {
      "id": 36613,
      "district_id": 506,
      "name": "DOĞANCILAR MAH",
      "area": "KİRAZ",
      "postal_code": "35890"
    },
    {
      "id": 36614,
      "district_id": 506,
      "name": "DOKUZLAR MAH",
      "area": "KİRAZ",
      "postal_code": "35890"
    },
    {
      "id": 36615,
      "district_id": 506,
      "name": "EMENLER MAH",
      "area": "KİRAZ",
      "postal_code": "35890"
    },
    {
      "id": 36616,
      "district_id": 506,
      "name": "GEDİK MAH",
      "area": "KİRAZ",
      "postal_code": "35890"
    },
    {
      "id": 36617,
      "district_id": 506,
      "name": "HALİLLER MAH",
      "area": "KİRAZ",
      "postal_code": "35890"
    },
    {
      "id": 36618,
      "district_id": 506,
      "name": "HİSAR MAH",
      "area": "KİRAZ",
      "postal_code": "35890"
    },
    {
      "id": 36619,
      "district_id": 506,
      "name": "İĞDELİ MAH",
      "area": "KİRAZ",
      "postal_code": "35890"
    },
    {
      "id": 36620,
      "district_id": 506,
      "name": "İSTİKLAL MAH",
      "area": "KİRAZ",
      "postal_code": "35890"
    },
    {
      "id": 36621,
      "district_id": 506,
      "name": "KALEKÖY MAH",
      "area": "KİRAZ",
      "postal_code": "35890"
    },
    {
      "id": 36622,
      "district_id": 506,
      "name": "KARABAĞ MAH",
      "area": "KİRAZ",
      "postal_code": "35890"
    },
    {
      "id": 36623,
      "district_id": 506,
      "name": "KARABULU MAH",
      "area": "KİRAZ",
      "postal_code": "35890"
    },
    {
      "id": 36624,
      "district_id": 506,
      "name": "KARABURÇ MAH",
      "area": "KİRAZ",
      "postal_code": "35890"
    },
    {
      "id": 36625,
      "district_id": 506,
      "name": "KARAMAN MAH",
      "area": "KİRAZ",
      "postal_code": "35890"
    },
    {
      "id": 36626,
      "district_id": 506,
      "name": "KİBAR MAH",
      "area": "KİRAZ",
      "postal_code": "35890"
    },
    {
      "id": 36627,
      "district_id": 506,
      "name": "KIRKÖY MAH",
      "area": "KİRAZ",
      "postal_code": "35890"
    },
    {
      "id": 36628,
      "district_id": 506,
      "name": "MAVİDERE MAH",
      "area": "KİRAZ",
      "postal_code": "35890"
    },
    {
      "id": 36629,
      "district_id": 506,
      "name": "MERSİNLİDERE MAH",
      "area": "KİRAZ",
      "postal_code": "35890"
    },
    {
      "id": 36630,
      "district_id": 506,
      "name": "OLGUNLAR MAH",
      "area": "KİRAZ",
      "postal_code": "35890"
    },
    {
      "id": 36631,
      "district_id": 506,
      "name": "ÖREN MAH",
      "area": "KİRAZ",
      "postal_code": "35890"
    },
    {
      "id": 36632,
      "district_id": 506,
      "name": "ÖRENCİK MAH",
      "area": "KİRAZ",
      "postal_code": "35890"
    },
    {
      "id": 36633,
      "district_id": 506,
      "name": "OVACIK MAH",
      "area": "KİRAZ",
      "postal_code": "35890"
    },
    {
      "id": 36634,
      "district_id": 506,
      "name": "PINARBAŞI MAH",
      "area": "KİRAZ",
      "postal_code": "35890"
    },
    {
      "id": 36635,
      "district_id": 506,
      "name": "SAÇLI MAH",
      "area": "KİRAZ",
      "postal_code": "35890"
    },
    {
      "id": 36636,
      "district_id": 506,
      "name": "SARIKAYA MAH",
      "area": "KİRAZ",
      "postal_code": "35890"
    },
    {
      "id": 36637,
      "district_id": 506,
      "name": "SARISU MAH",
      "area": "KİRAZ",
      "postal_code": "35890"
    },
    {
      "id": 36638,
      "district_id": 506,
      "name": "ŞEMSİLER MAH",
      "area": "KİRAZ",
      "postal_code": "35890"
    },
    {
      "id": 36639,
      "district_id": 506,
      "name": "SIRIMLI MAH",
      "area": "KİRAZ",
      "postal_code": "35890"
    },
    {
      "id": 36640,
      "district_id": 506,
      "name": "SOLAKLAR MAH",
      "area": "KİRAZ",
      "postal_code": "35890"
    },
    {
      "id": 36641,
      "district_id": 506,
      "name": "SULUDERE MAH",
      "area": "KİRAZ",
      "postal_code": "35890"
    },
    {
      "id": 36642,
      "district_id": 506,
      "name": "TAŞLIYATAK MAH",
      "area": "KİRAZ",
      "postal_code": "35890"
    },
    {
      "id": 36643,
      "district_id": 506,
      "name": "TEKBIÇAKLAR MAH",
      "area": "KİRAZ",
      "postal_code": "35890"
    },
    {
      "id": 36644,
      "district_id": 506,
      "name": "TUMBULLAR MAH",
      "area": "KİRAZ",
      "postal_code": "35890"
    },
    {
      "id": 36645,
      "district_id": 506,
      "name": "UMURCALI MAH",
      "area": "KİRAZ",
      "postal_code": "35890"
    },
    {
      "id": 36646,
      "district_id": 506,
      "name": "UMURLU MAH",
      "area": "KİRAZ",
      "postal_code": "35890"
    },
    {
      "id": 36647,
      "district_id": 506,
      "name": "UZUNKÖY MAH",
      "area": "KİRAZ",
      "postal_code": "35890"
    },
    {
      "id": 36648,
      "district_id": 506,
      "name": "VELİLER MAH",
      "area": "KİRAZ",
      "postal_code": "35890"
    },
    {
      "id": 36649,
      "district_id": 506,
      "name": "YAĞLAR MAH",
      "area": "KİRAZ",
      "postal_code": "35890"
    },
    {
      "id": 36650,
      "district_id": 506,
      "name": "YENİ MAH",
      "area": "KİRAZ",
      "postal_code": "35890"
    },
    {
      "id": 36651,
      "district_id": 506,
      "name": "YENİKÖY MAH",
      "area": "KİRAZ",
      "postal_code": "35890"
    },
    {
      "id": 36652,
      "district_id": 506,
      "name": "YENİŞEHİR MAH",
      "area": "KİRAZ",
      "postal_code": "35890"
    },
    {
      "id": 36653,
      "district_id": 506,
      "name": "YEŞİLDERE MAH",
      "area": "KİRAZ",
      "postal_code": "35890"
    },
    {
      "id": 36654,
      "district_id": 507,
      "name": "1.KADRİYE MAH",
      "area": "EŞREFPAŞA",
      "postal_code": "35270"
    },
    {
      "id": 36655,
      "district_id": 507,
      "name": "19 MAYIS MAH",
      "area": "EŞREFPAŞA",
      "postal_code": "35270"
    },
    {
      "id": 36656,
      "district_id": 507,
      "name": "2.KADRİYE MAH",
      "area": "EŞREFPAŞA",
      "postal_code": "35270"
    },
    {
      "id": 36657,
      "district_id": 507,
      "name": "26 AĞUSTOS MAH",
      "area": "GÜLTEPE",
      "postal_code": "35190"
    },
    {
      "id": 36658,
      "district_id": 507,
      "name": "AKARCALI MAH",
      "area": "BASMANE",
      "postal_code": "35240"
    },
    {
      "id": 36659,
      "district_id": 507,
      "name": "AKDENİZ MAH",
      "area": "PASAPORT",
      "postal_code": "35210"
    },
    {
      "id": 36660,
      "district_id": 507,
      "name": "AKIN SİMAV MAH",
      "area": "KÜÇÜKYALI",
      "postal_code": "35280"
    },
    {
      "id": 36661,
      "district_id": 507,
      "name": "AKINCI MAH",
      "area": "BASMANE",
      "postal_code": "35240"
    },
    {
      "id": 36662,
      "district_id": 507,
      "name": "ALİ REİS MAH",
      "area": "BASMANE",
      "postal_code": "35240"
    },
    {
      "id": 36663,
      "district_id": 507,
      "name": "ALSANCAK MAH",
      "area": "ALSANCAK",
      "postal_code": "35220"
    },
    {
      "id": 36664,
      "district_id": 507,
      "name": "ALTAY MAH",
      "area": "BASMANE",
      "postal_code": "35240"
    },
    {
      "id": 36665,
      "district_id": 507,
      "name": "ALTINORDU MAH",
      "area": "BASMANE",
      "postal_code": "35240"
    },
    {
      "id": 36666,
      "district_id": 507,
      "name": "ALTINTAŞ MAH",
      "area": "KONAK",
      "postal_code": "35260"
    },
    {
      "id": 36667,
      "district_id": 507,
      "name": "ANADOLU MAH",
      "area": "GÜLTEPE",
      "postal_code": "35190"
    },
    {
      "id": 36668,
      "district_id": 507,
      "name": "ATAMER MAH",
      "area": "GÜLTEPE",
      "postal_code": "35190"
    },
    {
      "id": 36669,
      "district_id": 507,
      "name": "ATİLLA MAH",
      "area": "EŞREFPAŞA",
      "postal_code": "35270"
    },
    {
      "id": 36670,
      "district_id": 507,
      "name": "AZİZİYE MAH",
      "area": "EŞREFPAŞA",
      "postal_code": "35270"
    },
    {
      "id": 36671,
      "district_id": 507,
      "name": "BALLIKUYU MAH",
      "area": "EŞREFPAŞA",
      "postal_code": "35270"
    },
    {
      "id": 36672,
      "district_id": 507,
      "name": "BARBAROS MAH",
      "area": "KONAK",
      "postal_code": "35260"
    },
    {
      "id": 36673,
      "district_id": 507,
      "name": "BOĞAZİÇİ MAH",
      "area": "GÜRÇEŞME",
      "postal_code": "35180"
    },
    {
      "id": 36674,
      "district_id": 507,
      "name": "BOZKURT MAH",
      "area": "KONAK",
      "postal_code": "35260"
    },
    {
      "id": 36675,
      "district_id": 507,
      "name": "ÇAHABEY MAH",
      "area": "KONAK",
      "postal_code": "35260"
    },
    {
      "id": 36676,
      "district_id": 507,
      "name": "ÇANKAYA MAH",
      "area": "KÜÇÜKYALI",
      "postal_code": "35280"
    },
    {
      "id": 36677,
      "district_id": 507,
      "name": "CENGİZ TOPEL MAH",
      "area": "GÜRÇEŞME",
      "postal_code": "35180"
    },
    {
      "id": 36678,
      "district_id": 507,
      "name": "ÇİMENTEPE MAH",
      "area": "EŞREFPAŞA",
      "postal_code": "35270"
    },
    {
      "id": 36679,
      "district_id": 507,
      "name": "ÇINARLI MAH",
      "area": "YENİŞEHİR",
      "postal_code": "35170"
    },
    {
      "id": 36680,
      "district_id": 507,
      "name": "ÇINARTEPE MAH",
      "area": "GÜLTEPE",
      "postal_code": "35190"
    },
    {
      "id": 36681,
      "district_id": 507,
      "name": "DAYIEMİR MAH",
      "area": "BASMANE",
      "postal_code": "35240"
    },
    {
      "id": 36682,
      "district_id": 507,
      "name": "DOLAPLIKUYU MAH",
      "area": "BASMANE",
      "postal_code": "35240"
    },
    {
      "id": 36683,
      "district_id": 507,
      "name": "DUATEPE MAH",
      "area": "EŞREFPAŞA",
      "postal_code": "35270"
    },
    {
      "id": 36684,
      "district_id": 507,
      "name": "EGE MAH",
      "area": "KAHRAMANLAR",
      "postal_code": "35230"
    },
    {
      "id": 36685,
      "district_id": 507,
      "name": "EMİR SULTAN MAH",
      "area": "GÜRÇEŞME",
      "postal_code": "35180"
    },
    {
      "id": 36686,
      "district_id": 507,
      "name": "ETİLER MAH",
      "area": "BASMANE",
      "postal_code": "35240"
    },
    {
      "id": 36687,
      "district_id": 507,
      "name": "FAİK PAŞA MAH",
      "area": "BASMANE",
      "postal_code": "35240"
    },
    {
      "id": 36688,
      "district_id": 507,
      "name": "FATİH MAH",
      "area": "KONAK",
      "postal_code": "35260"
    },
    {
      "id": 36689,
      "district_id": 507,
      "name": "FERAHLI MAH",
      "area": "GÜRÇEŞME",
      "postal_code": "35180"
    },
    {
      "id": 36690,
      "district_id": 507,
      "name": "FEVZİ PAŞA MAH",
      "area": "KONAK",
      "postal_code": "35260"
    },
    {
      "id": 36691,
      "district_id": 507,
      "name": "GÖZTEPE MAH",
      "area": "GÜZELYALI",
      "postal_code": "35290"
    },
    {
      "id": 36692,
      "district_id": 507,
      "name": "GÜNEŞ MAH",
      "area": "KEMERALTI",
      "postal_code": "35250"
    },
    {
      "id": 36693,
      "district_id": 507,
      "name": "GÜNEŞLİ MAH",
      "area": "EŞREFPAŞA",
      "postal_code": "35270"
    },
    {
      "id": 36694,
      "district_id": 507,
      "name": "GÜNEY MAH",
      "area": "GÜRÇEŞME",
      "postal_code": "35180"
    },
    {
      "id": 36695,
      "district_id": 507,
      "name": "GÜNGÖR MAH",
      "area": "KONAK",
      "postal_code": "35260"
    },
    {
      "id": 36696,
      "district_id": 507,
      "name": "GÜZELYALI MAH",
      "area": "GÜZELYALI",
      "postal_code": "35290"
    },
    {
      "id": 36697,
      "district_id": 507,
      "name": "GÜZELYURT MAH",
      "area": "KEMERALTI",
      "postal_code": "35250"
    },
    {
      "id": 36698,
      "district_id": 507,
      "name": "HALKAPINAR MAH",
      "area": "YENİŞEHİR",
      "postal_code": "35170"
    },
    {
      "id": 36699,
      "district_id": 507,
      "name": "HASAN ÖZDEMİR MAH",
      "area": "EŞREFPAŞA",
      "postal_code": "35270"
    },
    {
      "id": 36700,
      "district_id": 507,
      "name": "HİLAL MAH",
      "area": "YENİŞEHİR",
      "postal_code": "35170"
    },
    {
      "id": 36701,
      "district_id": 507,
      "name": "HURŞİDİYE MAH",
      "area": "BASMANE",
      "postal_code": "35240"
    },
    {
      "id": 36702,
      "district_id": 507,
      "name": "HUZUR MAH",
      "area": "GÜLTEPE",
      "postal_code": "35190"
    },
    {
      "id": 36703,
      "district_id": 507,
      "name": "İMARİYE MAH",
      "area": "EŞREFPAŞA",
      "postal_code": "35270"
    },
    {
      "id": 36704,
      "district_id": 507,
      "name": "İSMET KAPTAN MAH",
      "area": "PASAPORT",
      "postal_code": "35210"
    },
    {
      "id": 36705,
      "district_id": 507,
      "name": "İSMET PAŞA MAH",
      "area": "GÜRÇEŞME",
      "postal_code": "35180"
    },
    {
      "id": 36706,
      "district_id": 507,
      "name": "KADİFEKALE MAH",
      "area": "EŞREFPAŞA",
      "postal_code": "35270"
    },
    {
      "id": 36707,
      "district_id": 507,
      "name": "KAHRAMAN MESCİT MAH",
      "area": "KONAK",
      "postal_code": "35260"
    },
    {
      "id": 36708,
      "district_id": 507,
      "name": "KAHRAMANLAR MAH",
      "area": "KAHRAMANLAR",
      "postal_code": "35230"
    },
    {
      "id": 36709,
      "district_id": 507,
      "name": "KEMAL REİS MAH",
      "area": "KÜÇÜKYALI",
      "postal_code": "35280"
    },
    {
      "id": 36710,
      "district_id": 507,
      "name": "KESTELLİ MAH",
      "area": "KEMERALTI",
      "postal_code": "35250"
    },
    {
      "id": 36711,
      "district_id": 507,
      "name": "KILIÇ REİS MAH",
      "area": "KÜÇÜKYALI",
      "postal_code": "35280"
    },
    {
      "id": 36712,
      "district_id": 507,
      "name": "KOCAKAPI MAH",
      "area": "BASMANE",
      "postal_code": "35240"
    },
    {
      "id": 36713,
      "district_id": 507,
      "name": "KOCATEPE MAH",
      "area": "EŞREFPAŞA",
      "postal_code": "35270"
    },
    {
      "id": 36714,
      "district_id": 507,
      "name": "KONAK MAH",
      "area": "KEMERALTI",
      "postal_code": "35250"
    },
    {
      "id": 36715,
      "district_id": 507,
      "name": "KOSOVA MAH",
      "area": "EŞREFPAŞA",
      "postal_code": "35270"
    },
    {
      "id": 36716,
      "district_id": 507,
      "name": "KUBİLAY MAH",
      "area": "BASMANE",
      "postal_code": "35240"
    },
    {
      "id": 36717,
      "district_id": 507,
      "name": "KÜÇÜKADA MAH",
      "area": "GÜRÇEŞME",
      "postal_code": "35180"
    },
    {
      "id": 36718,
      "district_id": 507,
      "name": "KÜLTÜR MAH",
      "area": "ALSANCAK",
      "postal_code": "35220"
    },
    {
      "id": 36719,
      "district_id": 507,
      "name": "KURTULUŞ MAH",
      "area": "BASMANE",
      "postal_code": "35240"
    },
    {
      "id": 36720,
      "district_id": 507,
      "name": "LALE MAH",
      "area": "GÜRÇEŞME",
      "postal_code": "35180"
    },
    {
      "id": 36721,
      "district_id": 507,
      "name": "LEVENT MAH",
      "area": "GÜRÇEŞME",
      "postal_code": "35180"
    },
    {
      "id": 36722,
      "district_id": 507,
      "name": "MECİDİYE MAH",
      "area": "KONAK",
      "postal_code": "35260"
    },
    {
      "id": 36723,
      "district_id": 507,
      "name": "MEHMET AKİF MAH",
      "area": "GÜLTEPE",
      "postal_code": "35190"
    },
    {
      "id": 36724,
      "district_id": 507,
      "name": "MEHMET ALİ AKMAN MAH",
      "area": "GÜZELYALI",
      "postal_code": "35290"
    },
    {
      "id": 36725,
      "district_id": 507,
      "name": "MEHTAP MAH",
      "area": "GÜRÇEŞME",
      "postal_code": "35180"
    },
    {
      "id": 36726,
      "district_id": 507,
      "name": "MERSİNLİ MAH",
      "area": "YENİŞEHİR",
      "postal_code": "35170"
    },
    {
      "id": 36727,
      "district_id": 507,
      "name": "MİLLET MAH",
      "area": "GÜLTEPE",
      "postal_code": "35190"
    },
    {
      "id": 36728,
      "district_id": 507,
      "name": "MİMAR SİNAN MAH",
      "area": "ALSANCAK",
      "postal_code": "35220"
    },
    {
      "id": 36729,
      "district_id": 507,
      "name": "MİRALİ MAH",
      "area": "BASMANE",
      "postal_code": "35240"
    },
    {
      "id": 36730,
      "district_id": 507,
      "name": "MİTHATPAŞA MAH",
      "area": "KÜÇÜKYALI",
      "postal_code": "35280"
    },
    {
      "id": 36731,
      "district_id": 507,
      "name": "MURAT MAH",
      "area": "GÜLTEPE",
      "postal_code": "35190"
    },
    {
      "id": 36732,
      "district_id": 507,
      "name": "MURAT REİS MAH",
      "area": "KÜÇÜKYALI",
      "postal_code": "35280"
    },
    {
      "id": 36733,
      "district_id": 507,
      "name": "NAMAZGAH MAH",
      "area": "BASMANE",
      "postal_code": "35240"
    },
    {
      "id": 36734,
      "district_id": 507,
      "name": "NAMIK KEMAL MAH",
      "area": "KONAK",
      "postal_code": "35260"
    },
    {
      "id": 36735,
      "district_id": 507,
      "name": "ODUNKAPI MAH",
      "area": "KONAK",
      "postal_code": "35260"
    },
    {
      "id": 36736,
      "district_id": 507,
      "name": "OĞUZLAR MAH",
      "area": "KAHRAMANLAR",
      "postal_code": "35230"
    },
    {
      "id": 36737,
      "district_id": 507,
      "name": "PAZARYERİ MAH",
      "area": "BASMANE",
      "postal_code": "35240"
    },
    {
      "id": 36738,
      "district_id": 507,
      "name": "PİRİ REİS MAH",
      "area": "KÜÇÜKYALI",
      "postal_code": "35280"
    },
    {
      "id": 36739,
      "district_id": 507,
      "name": "SAKARYA MAH",
      "area": "BASMANE",
      "postal_code": "35240"
    },
    {
      "id": 36740,
      "district_id": 507,
      "name": "SAYGI MAH",
      "area": "GÜLTEPE",
      "postal_code": "35190"
    },
    {
      "id": 36741,
      "district_id": 507,
      "name": "ŞEHİT NEDİM TUĞALTAY MAH",
      "area": "KONAK",
      "postal_code": "35260"
    },
    {
      "id": 36742,
      "district_id": 507,
      "name": "SELÇUK MAH",
      "area": "BASMANE",
      "postal_code": "35240"
    },
    {
      "id": 36743,
      "district_id": 507,
      "name": "SÜMER MAH",
      "area": "KONAK",
      "postal_code": "35260"
    },
    {
      "id": 36744,
      "district_id": 507,
      "name": "SÜVARİ MAH",
      "area": "BASMANE",
      "postal_code": "35240"
    },
    {
      "id": 36745,
      "district_id": 507,
      "name": "TAN MAH",
      "area": "KONAK",
      "postal_code": "35260"
    },
    {
      "id": 36746,
      "district_id": 507,
      "name": "TINAZTEPE MAH",
      "area": "EŞREFPAŞA",
      "postal_code": "35270"
    },
    {
      "id": 36747,
      "district_id": 507,
      "name": "TRAKYA MAH",
      "area": "GÜLTEPE",
      "postal_code": "35190"
    },
    {
      "id": 36748,
      "district_id": 507,
      "name": "TURGUT REİS MAH",
      "area": "KÜÇÜKYALI",
      "postal_code": "35280"
    },
    {
      "id": 36749,
      "district_id": 507,
      "name": "TÜRKYILMAZ MAH",
      "area": "KONAK",
      "postal_code": "35260"
    },
    {
      "id": 36750,
      "district_id": 507,
      "name": "TUZCU MAH",
      "area": "BASMANE",
      "postal_code": "35240"
    },
    {
      "id": 36751,
      "district_id": 507,
      "name": "UĞUR MAH",
      "area": "KONAK",
      "postal_code": "35260"
    },
    {
      "id": 36752,
      "district_id": 507,
      "name": "ÜLKÜ MAH",
      "area": "BASMANE",
      "postal_code": "35240"
    },
    {
      "id": 36753,
      "district_id": 507,
      "name": "ULUBATLI MAH",
      "area": "GÜLTEPE",
      "postal_code": "35190"
    },
    {
      "id": 36754,
      "district_id": 507,
      "name": "UMURBEY MAH",
      "area": "KAHRAMANLAR",
      "postal_code": "35230"
    },
    {
      "id": 36755,
      "district_id": 507,
      "name": "VEZİRAĞA MAH",
      "area": "EŞREFPAŞA",
      "postal_code": "35270"
    },
    {
      "id": 36756,
      "district_id": 507,
      "name": "YAVUZ SELİM MAH",
      "area": "GÜLTEPE",
      "postal_code": "35190"
    },
    {
      "id": 36757,
      "district_id": 507,
      "name": "YENİ MAH",
      "area": "BASMANE",
      "postal_code": "35240"
    },
    {
      "id": 36758,
      "district_id": 507,
      "name": "YENİDOĞAN MAH",
      "area": "GÜRÇEŞME",
      "postal_code": "35180"
    },
    {
      "id": 36759,
      "district_id": 507,
      "name": "YENİGÜN MAH",
      "area": "KEMERALTI",
      "postal_code": "35250"
    },
    {
      "id": 36760,
      "district_id": 507,
      "name": "YENİŞEHİR MAH",
      "area": "YENİŞEHİR",
      "postal_code": "35170"
    },
    {
      "id": 36761,
      "district_id": 507,
      "name": "YEŞİLDERE MAH",
      "area": "EŞREFPAŞA",
      "postal_code": "35270"
    },
    {
      "id": 36762,
      "district_id": 507,
      "name": "YEŞİLTEPE MAH",
      "area": "KONAK",
      "postal_code": "35260"
    },
    {
      "id": 36763,
      "district_id": 507,
      "name": "YILDIZ MAH",
      "area": "KONAK",
      "postal_code": "35260"
    },
    {
      "id": 36764,
      "district_id": 507,
      "name": "ZAFERTEPE MAH",
      "area": "EŞREFPAŞA",
      "postal_code": "35270"
    },
    {
      "id": 36765,
      "district_id": 507,
      "name": "ZEYBEK MAH",
      "area": "GÜLTEPE",
      "postal_code": "35190"
    },
    {
      "id": 36766,
      "district_id": 507,
      "name": "ZEYTİNLİK MAH",
      "area": "GÜRÇEŞME",
      "postal_code": "35180"
    },
    {
      "id": 36767,
      "district_id": 508,
      "name": "AHMETBEYLİ MAH",
      "area": "MENDERES",
      "postal_code": "35471"
    },
    {
      "id": 36768,
      "district_id": 508,
      "name": "AKÇAKÖY MAH",
      "area": "MENDERES",
      "postal_code": "35471"
    },
    {
      "id": 36769,
      "district_id": 508,
      "name": "ALTINTEPE MAH",
      "area": "MENDERES",
      "postal_code": "35471"
    },
    {
      "id": 36770,
      "district_id": 508,
      "name": "ATA MAH",
      "area": "GÖRECE",
      "postal_code": "35473"
    },
    {
      "id": 36771,
      "district_id": 508,
      "name": "ATAKÖY MAH",
      "area": "ATAKÖY",
      "postal_code": "35479"
    },
    {
      "id": 36772,
      "district_id": 508,
      "name": "BARBAROS MAH",
      "area": "MENDERES",
      "postal_code": "35471"
    },
    {
      "id": 36773,
      "district_id": 508,
      "name": "BULGURCA MAH",
      "area": "MENDERES",
      "postal_code": "35471"
    },
    {
      "id": 36774,
      "district_id": 508,
      "name": "ÇAKALTEPE MAH",
      "area": "MENDERES",
      "postal_code": "35471"
    },
    {
      "id": 36775,
      "district_id": 508,
      "name": "ÇAMÖNÜ MAH",
      "area": "MENDERES",
      "postal_code": "35471"
    },
    {
      "id": 36776,
      "district_id": 508,
      "name": "ÇATALCA MAH",
      "area": "MENDERES",
      "postal_code": "35471"
    },
    {
      "id": 36777,
      "district_id": 508,
      "name": "ÇİLE MAH",
      "area": "MENDERES",
      "postal_code": "35471"
    },
    {
      "id": 36778,
      "district_id": 508,
      "name": "ÇİLEME MAH",
      "area": "MENDERES",
      "postal_code": "35471"
    },
    {
      "id": 36779,
      "district_id": 508,
      "name": "ÇUKURALTI MAH",
      "area": "ÖZDERE",
      "postal_code": "35495"
    },
    {
      "id": 36780,
      "district_id": 508,
      "name": "CÜNEYTBEY MAH",
      "area": "MENDERES",
      "postal_code": "35471"
    },
    {
      "id": 36781,
      "district_id": 508,
      "name": "DEĞİRMENDERE MAH",
      "area": "DEĞİRMENDERE",
      "postal_code": "35472"
    },
    {
      "id": 36782,
      "district_id": 508,
      "name": "DEREKÖY MAH",
      "area": "MENDERES",
      "postal_code": "35471"
    },
    {
      "id": 36783,
      "district_id": 508,
      "name": "DEVELİ MAH",
      "area": "DEVELİ",
      "postal_code": "35474"
    },
    {
      "id": 36784,
      "district_id": 508,
      "name": "EFEMÇUKURU MAH",
      "area": "MENDERES",
      "postal_code": "35471"
    },
    {
      "id": 36785,
      "district_id": 508,
      "name": "GAZİPAŞA MAH",
      "area": "MENDERES",
      "postal_code": "35471"
    },
    {
      "id": 36786,
      "district_id": 508,
      "name": "GÖLCÜKLER MAH",
      "area": "MENDERES",
      "postal_code": "35471"
    },
    {
      "id": 36787,
      "district_id": 508,
      "name": "GÖLOVA MAH",
      "area": "MENDERES",
      "postal_code": "35471"
    },
    {
      "id": 36788,
      "district_id": 508,
      "name": "GÖRECE CUMHURİYET MAH",
      "area": "GÖRECE",
      "postal_code": "35473"
    },
    {
      "id": 36789,
      "district_id": 508,
      "name": "GÜMÜLDÜR ATATÜRK MAH",
      "area": "GÜMÜLDÜR",
      "postal_code": "35480"
    },
    {
      "id": 36790,
      "district_id": 508,
      "name": "GÜMÜLDÜR CUMHURİYET MAH",
      "area": "GÜMÜLDÜR",
      "postal_code": "35480"
    },
    {
      "id": 36791,
      "district_id": 508,
      "name": "GÜMÜLDÜR FEVZİ ÇAKMAK MAH",
      "area": "GÜMÜLDÜR",
      "postal_code": "35480"
    },
    {
      "id": 36792,
      "district_id": 508,
      "name": "GÜMÜLDÜR İNÖNÜ MAH",
      "area": "GÜMÜLDÜR",
      "postal_code": "35480"
    },
    {
      "id": 36793,
      "district_id": 508,
      "name": "HÜRRİYET MAH",
      "area": "GÖRECE",
      "postal_code": "35473"
    },
    {
      "id": 36794,
      "district_id": 508,
      "name": "İTOB OSB MAH",
      "area": "MENDERES",
      "postal_code": "35471"
    },
    {
      "id": 36795,
      "district_id": 508,
      "name": "KARAKUYU MAH",
      "area": "MENDERES",
      "postal_code": "35471"
    },
    {
      "id": 36796,
      "district_id": 508,
      "name": "KASIMPAŞA MAH",
      "area": "MENDERES",
      "postal_code": "35471"
    },
    {
      "id": 36797,
      "district_id": 508,
      "name": "KELER MAH",
      "area": "MENDERES",
      "postal_code": "35471"
    },
    {
      "id": 36798,
      "district_id": 508,
      "name": "KEMALPAŞA MAH",
      "area": "MENDERES",
      "postal_code": "35471"
    },
    {
      "id": 36799,
      "district_id": 508,
      "name": "KISIK MAH",
      "area": "KISIK",
      "postal_code": "35476"
    },
    {
      "id": 36800,
      "district_id": 508,
      "name": "KÜNER MAH",
      "area": "MENDERES",
      "postal_code": "35471"
    },
    {
      "id": 36801,
      "district_id": 508,
      "name": "KUYUCAK MAH",
      "area": "MENDERES",
      "postal_code": "35471"
    },
    {
      "id": 36802,
      "district_id": 508,
      "name": "MİTHATPAŞA MAH",
      "area": "MENDERES",
      "postal_code": "35471"
    },
    {
      "id": 36803,
      "district_id": 508,
      "name": "OĞLANANASI ATATÜRK MAH",
      "area": "MENDERES",
      "postal_code": "35471"
    },
    {
      "id": 36804,
      "district_id": 508,
      "name": "OĞLANANASI CUMHURİYET MAH",
      "area": "MENDERES",
      "postal_code": "35471"
    },
    {
      "id": 36805,
      "district_id": 508,
      "name": "ORTA MAH",
      "area": "ÖZDERE",
      "postal_code": "35495"
    },
    {
      "id": 36806,
      "district_id": 508,
      "name": "ÖZDERE CUMHURİYET MAH",
      "area": "ÖZDERE",
      "postal_code": "35495"
    },
    {
      "id": 36807,
      "district_id": 508,
      "name": "SANCAKLI MAH",
      "area": "MENDERES",
      "postal_code": "35471"
    },
    {
      "id": 36808,
      "district_id": 508,
      "name": "ŞAŞAL MAH",
      "area": "MENDERES",
      "postal_code": "35471"
    },
    {
      "id": 36809,
      "district_id": 508,
      "name": "TEKELİ ATATÜRK MAH",
      "area": "TEKELİ",
      "postal_code": "35477"
    },
    {
      "id": 36810,
      "district_id": 508,
      "name": "TEKELİ FEVZİ ÇAKMAK MAH",
      "area": "TEKELİ",
      "postal_code": "35477"
    },
    {
      "id": 36811,
      "district_id": 508,
      "name": "YENİKÖY MAH",
      "area": "MENDERES",
      "postal_code": "35471"
    },
    {
      "id": 36812,
      "district_id": 509,
      "name": "29 EKİM MAH",
      "area": "MENEMEN",
      "postal_code": "35660"
    },
    {
      "id": 36813,
      "district_id": 509,
      "name": "30 AĞUSTOS MAH",
      "area": "MENEMEN",
      "postal_code": "35660"
    },
    {
      "id": 36814,
      "district_id": 509,
      "name": "75.YIL CUMHURİYET MAH",
      "area": "MENEMEN",
      "postal_code": "35660"
    },
    {
      "id": 36815,
      "district_id": 509,
      "name": "85.YIL CUMHURİYET MAH",
      "area": "MENEMEN",
      "postal_code": "35660"
    },
    {
      "id": 36816,
      "district_id": 509,
      "name": "9 EYLÜL MAH",
      "area": "MENEMEN",
      "postal_code": "35660"
    },
    {
      "id": 36817,
      "district_id": 509,
      "name": "AHIHIDIR MAH",
      "area": "MENEMEN",
      "postal_code": "35660"
    },
    {
      "id": 36818,
      "district_id": 509,
      "name": "ALANİÇİ MAH",
      "area": "MENEMEN",
      "postal_code": "35660"
    },
    {
      "id": 36819,
      "district_id": 509,
      "name": "ATATÜRK MAH",
      "area": "MENEMEN",
      "postal_code": "35660"
    },
    {
      "id": 36820,
      "district_id": 509,
      "name": "ATATÜRK PLASTİKOSB MAH",
      "area": "MENEMEN",
      "postal_code": "35660"
    },
    {
      "id": 36821,
      "district_id": 509,
      "name": "AYVACIK MAH",
      "area": "MENEMEN",
      "postal_code": "35660"
    },
    {
      "id": 36822,
      "district_id": 509,
      "name": "BAĞCILAR MAH",
      "area": "MENEMEN",
      "postal_code": "35660"
    },
    {
      "id": 36823,
      "district_id": 509,
      "name": "BELEN MAH",
      "area": "MENEMEN",
      "postal_code": "35660"
    },
    {
      "id": 36824,
      "district_id": 509,
      "name": "BOZALAN MAH",
      "area": "MENEMEN",
      "postal_code": "35660"
    },
    {
      "id": 36825,
      "district_id": 509,
      "name": "BURUNCUK MAH",
      "area": "MENEMEN",
      "postal_code": "35660"
    },
    {
      "id": 36826,
      "district_id": 509,
      "name": "ÇALTI MAH",
      "area": "MENEMEN",
      "postal_code": "35660"
    },
    {
      "id": 36827,
      "district_id": 509,
      "name": "CAMİİKEBİR MAH",
      "area": "MENEMEN",
      "postal_code": "35660"
    },
    {
      "id": 36828,
      "district_id": 509,
      "name": "ÇAVUŞ MAH",
      "area": "MENEMEN",
      "postal_code": "35660"
    },
    {
      "id": 36829,
      "district_id": 509,
      "name": "ÇUKURKÖY MAH",
      "area": "MENEMEN",
      "postal_code": "35660"
    },
    {
      "id": 36830,
      "district_id": 509,
      "name": "CUMHURİYET MAH",
      "area": "MENEMEN",
      "postal_code": "35660"
    },
    {
      "id": 36831,
      "district_id": 509,
      "name": "DEĞİRMENDERE MAH",
      "area": "MENEMEN",
      "postal_code": "35660"
    },
    {
      "id": 36832,
      "district_id": 509,
      "name": "DOĞA MAH",
      "area": "MENEMEN",
      "postal_code": "35660"
    },
    {
      "id": 36833,
      "district_id": 509,
      "name": "EMİRALEM MERKEZ MAH",
      "area": "MENEMEN",
      "postal_code": "35660"
    },
    {
      "id": 36834,
      "district_id": 509,
      "name": "ESATPAŞA MAH",
      "area": "MENEMEN",
      "postal_code": "35660"
    },
    {
      "id": 36835,
      "district_id": 509,
      "name": "FATİH MAH",
      "area": "MENEMEN",
      "postal_code": "35660"
    },
    {
      "id": 36836,
      "district_id": 509,
      "name": "GAYBİ MAH",
      "area": "MENEMEN",
      "postal_code": "35660"
    },
    {
      "id": 36837,
      "district_id": 509,
      "name": "GAZİ MAH",
      "area": "MENEMEN",
      "postal_code": "35660"
    },
    {
      "id": 36838,
      "district_id": 509,
      "name": "GAZİ MUSTAFA KEMAL MAH",
      "area": "MENEMEN",
      "postal_code": "35660"
    },
    {
      "id": 36839,
      "district_id": 509,
      "name": "GÖKTEPE MAH",
      "area": "MENEMEN",
      "postal_code": "35660"
    },
    {
      "id": 36840,
      "district_id": 509,
      "name": "GÖLCÜK MAH",
      "area": "MENEMEN",
      "postal_code": "35660"
    },
    {
      "id": 36841,
      "district_id": 509,
      "name": "GÖRECE MAH",
      "area": "MENEMEN",
      "postal_code": "35660"
    },
    {
      "id": 36842,
      "district_id": 509,
      "name": "GÜNERLİ MAH",
      "area": "MENEMEN",
      "postal_code": "35660"
    },
    {
      "id": 36843,
      "district_id": 509,
      "name": "HASANLAR MAH",
      "area": "MENEMEN",
      "postal_code": "35660"
    },
    {
      "id": 36844,
      "district_id": 509,
      "name": "HATUNDERE MAH",
      "area": "MENEMEN",
      "postal_code": "35660"
    },
    {
      "id": 36845,
      "district_id": 509,
      "name": "HAYKIRAN MAH",
      "area": "MENEMEN",
      "postal_code": "35660"
    },
    {
      "id": 36846,
      "district_id": 509,
      "name": "İĞNEDERE MAH",
      "area": "MENEMEN",
      "postal_code": "35660"
    },
    {
      "id": 36847,
      "district_id": 509,
      "name": "İNCİRLİ PINAR MAH",
      "area": "MENEMEN",
      "postal_code": "35660"
    },
    {
      "id": 36848,
      "district_id": 509,
      "name": "İNÖNÜ MAH",
      "area": "MENEMEN",
      "postal_code": "35660"
    },
    {
      "id": 36849,
      "district_id": 509,
      "name": "IRMAK MAH",
      "area": "MENEMEN",
      "postal_code": "35660"
    },
    {
      "id": 36850,
      "district_id": 509,
      "name": "İSMET İNÖNÜ MAH",
      "area": "MENEMEN",
      "postal_code": "35660"
    },
    {
      "id": 36851,
      "district_id": 509,
      "name": "İSTİKLAL MAH",
      "area": "MENEMEN",
      "postal_code": "35660"
    },
    {
      "id": 36852,
      "district_id": 509,
      "name": "KARAORMAN MAH",
      "area": "MENEMEN",
      "postal_code": "35660"
    },
    {
      "id": 36853,
      "district_id": 509,
      "name": "KASIMPAŞA MAH",
      "area": "MENEMEN",
      "postal_code": "35660"
    },
    {
      "id": 36854,
      "district_id": 509,
      "name": "KAZIMPAŞA MAH",
      "area": "MENEMEN",
      "postal_code": "35660"
    },
    {
      "id": 36855,
      "district_id": 509,
      "name": "KEMAL ATATÜRK MAH",
      "area": "MENEMEN",
      "postal_code": "35660"
    },
    {
      "id": 36856,
      "district_id": 509,
      "name": "KESİK MAH",
      "area": "MENEMEN",
      "postal_code": "35660"
    },
    {
      "id": 36857,
      "district_id": 509,
      "name": "KIR MAH",
      "area": "MENEMEN",
      "postal_code": "35660"
    },
    {
      "id": 36858,
      "district_id": 509,
      "name": "MALTEPE SB MAH",
      "area": "MENEMEN",
      "postal_code": "35660"
    },
    {
      "id": 36859,
      "district_id": 509,
      "name": "MERMERLİ MAH",
      "area": "MENEMEN",
      "postal_code": "35660"
    },
    {
      "id": 36860,
      "district_id": 509,
      "name": "MUSABEY MAH",
      "area": "MENEMEN",
      "postal_code": "35660"
    },
    {
      "id": 36861,
      "district_id": 509,
      "name": "MUSTAFA KEMAL ATATÜRK MAH",
      "area": "MENEMEN",
      "postal_code": "35660"
    },
    {
      "id": 36862,
      "district_id": 509,
      "name": "SEYDİNNASRULLAH MAH",
      "area": "MENEMEN",
      "postal_code": "35660"
    },
    {
      "id": 36863,
      "district_id": 509,
      "name": "SÜLEYMANLI MAH",
      "area": "MENEMEN",
      "postal_code": "35660"
    },
    {
      "id": 36864,
      "district_id": 509,
      "name": "SÜZBEYLİ MAH",
      "area": "MENEMEN",
      "postal_code": "35660"
    },
    {
      "id": 36865,
      "district_id": 509,
      "name": "TELEKLER MAH",
      "area": "MENEMEN",
      "postal_code": "35660"
    },
    {
      "id": 36866,
      "district_id": 509,
      "name": "TÜLBENTLİ MAH",
      "area": "MENEMEN",
      "postal_code": "35660"
    },
    {
      "id": 36867,
      "district_id": 509,
      "name": "TURGUTLAR MAH",
      "area": "MENEMEN",
      "postal_code": "35660"
    },
    {
      "id": 36868,
      "district_id": 509,
      "name": "TUZÇULLU MAH",
      "area": "MENEMEN",
      "postal_code": "35660"
    },
    {
      "id": 36869,
      "district_id": 509,
      "name": "UĞUR MUMCU MAH",
      "area": "MENEMEN",
      "postal_code": "35660"
    },
    {
      "id": 36870,
      "district_id": 509,
      "name": "ULUS MAH",
      "area": "MENEMEN",
      "postal_code": "35660"
    },
    {
      "id": 36871,
      "district_id": 509,
      "name": "VİLLAKENT MAH",
      "area": "MENEMEN",
      "postal_code": "35660"
    },
    {
      "id": 36872,
      "district_id": 509,
      "name": "YAHŞELLİ MAH",
      "area": "MENEMEN",
      "postal_code": "35660"
    },
    {
      "id": 36873,
      "district_id": 509,
      "name": "YANIKKÖY MAH",
      "area": "MENEMEN",
      "postal_code": "35660"
    },
    {
      "id": 36874,
      "district_id": 509,
      "name": "YAYLA MAH",
      "area": "MENEMEN",
      "postal_code": "35660"
    },
    {
      "id": 36875,
      "district_id": 509,
      "name": "YEŞİL PINAR MAH",
      "area": "MENEMEN",
      "postal_code": "35660"
    },
    {
      "id": 36876,
      "district_id": 509,
      "name": "YILDIRIM MAH",
      "area": "MENEMEN",
      "postal_code": "35660"
    },
    {
      "id": 36877,
      "district_id": 509,
      "name": "ZAFER MAH",
      "area": "MENEMEN",
      "postal_code": "35660"
    },
    {
      "id": 36878,
      "district_id": 509,
      "name": "ZEYTİNLİK MAH",
      "area": "MENEMEN",
      "postal_code": "35660"
    },
    {
      "id": 36879,
      "district_id": 510,
      "name": "2. İNÖNÜ MAH",
      "area": "NARLIDERE",
      "postal_code": "35320"
    },
    {
      "id": 36880,
      "district_id": 510,
      "name": "ALTIEVLER MAH",
      "area": "NARLIDERE",
      "postal_code": "35320"
    },
    {
      "id": 36881,
      "district_id": 510,
      "name": "ATATÜRK MAH",
      "area": "NARLIDERE",
      "postal_code": "35320"
    },
    {
      "id": 36882,
      "district_id": 510,
      "name": "ÇAMTEPE MAH",
      "area": "NARLIDERE",
      "postal_code": "35320"
    },
    {
      "id": 36883,
      "district_id": 510,
      "name": "ÇATALKAYA MAH",
      "area": "NARLIDERE",
      "postal_code": "35320"
    },
    {
      "id": 36884,
      "district_id": 510,
      "name": "HUZUR MAH",
      "area": "NARLIDERE",
      "postal_code": "35320"
    },
    {
      "id": 36885,
      "district_id": 510,
      "name": "ILICA MAH",
      "area": "NARLIDERE",
      "postal_code": "35320"
    },
    {
      "id": 36886,
      "district_id": 510,
      "name": "LİMANREİS MAH",
      "area": "NARLIDERE",
      "postal_code": "35320"
    },
    {
      "id": 36887,
      "district_id": 510,
      "name": "NARLI MAH",
      "area": "NARLIDERE",
      "postal_code": "35320"
    },
    {
      "id": 36888,
      "district_id": 510,
      "name": "SAHİLEVLERİ MAH",
      "area": "NARLIDERE",
      "postal_code": "35320"
    },
    {
      "id": 36889,
      "district_id": 510,
      "name": "YENİKALE MAH",
      "area": "NARLIDERE",
      "postal_code": "35320"
    },
    {
      "id": 36890,
      "district_id": 511,
      "name": "AKINCILAR MAH",
      "area": "ÖDEMİŞ",
      "postal_code": "35750"
    },
    {
      "id": 36891,
      "district_id": 511,
      "name": "ALAŞARLI MAH",
      "area": "ÖDEMİŞ",
      "postal_code": "35750"
    },
    {
      "id": 36892,
      "district_id": 511,
      "name": "ANAFARTALAR MAH",
      "area": "ÖDEMİŞ",
      "postal_code": "35750"
    },
    {
      "id": 36893,
      "district_id": 511,
      "name": "ARTICAK MAH",
      "area": "ÖDEMİŞ",
      "postal_code": "35750"
    },
    {
      "id": 36894,
      "district_id": 511,
      "name": "ATATÜRK MAH",
      "area": "ÖDEMİŞ",
      "postal_code": "35750"
    },
    {
      "id": 36895,
      "district_id": 511,
      "name": "BADEMLİ MAH",
      "area": "ÖDEMİŞ",
      "postal_code": "35750"
    },
    {
      "id": 36896,
      "district_id": 511,
      "name": "BALABANLI MAH",
      "area": "ÖDEMİŞ",
      "postal_code": "35750"
    },
    {
      "id": 36897,
      "district_id": 511,
      "name": "BAYIRLI MAH",
      "area": "ÖDEMİŞ",
      "postal_code": "35750"
    },
    {
      "id": 36898,
      "district_id": 511,
      "name": "BEBEKLER MAH",
      "area": "ÖDEMİŞ",
      "postal_code": "35750"
    },
    {
      "id": 36899,
      "district_id": 511,
      "name": "BENGİSU MAH",
      "area": "ÖDEMİŞ",
      "postal_code": "35750"
    },
    {
      "id": 36900,
      "district_id": 511,
      "name": "BEYAZITLAR MAH",
      "area": "ÖDEMİŞ",
      "postal_code": "35750"
    },
    {
      "id": 36901,
      "district_id": 511,
      "name": "BIÇAKÇI MAH",
      "area": "ÖDEMİŞ",
      "postal_code": "35750"
    },
    {
      "id": 36902,
      "district_id": 511,
      "name": "BİRGİ MAH",
      "area": "ÖDEMİŞ",
      "postal_code": "35750"
    },
    {
      "id": 36903,
      "district_id": 511,
      "name": "BOZCAYAKA MAH",
      "area": "ÖDEMİŞ",
      "postal_code": "35750"
    },
    {
      "id": 36904,
      "district_id": 511,
      "name": "BOZDAĞ MAH",
      "area": "ÖDEMİŞ",
      "postal_code": "35750"
    },
    {
      "id": 36905,
      "district_id": 511,
      "name": "BUCAK MAH",
      "area": "ÖDEMİŞ",
      "postal_code": "35750"
    },
    {
      "id": 36906,
      "district_id": 511,
      "name": "BÜLBÜLLER MAH",
      "area": "ÖDEMİŞ",
      "postal_code": "35750"
    },
    {
      "id": 36907,
      "district_id": 511,
      "name": "BÜYÜKAVULCUK MAH",
      "area": "ÖDEMİŞ",
      "postal_code": "35750"
    },
    {
      "id": 36908,
      "district_id": 511,
      "name": "ÇAĞLAYAN MAH",
      "area": "ÖDEMİŞ",
      "postal_code": "35750"
    },
    {
      "id": 36909,
      "district_id": 511,
      "name": "ÇAMLICA MAH",
      "area": "ÖDEMİŞ",
      "postal_code": "35750"
    },
    {
      "id": 36910,
      "district_id": 511,
      "name": "ÇAMYAYLA MAH",
      "area": "ÖDEMİŞ",
      "postal_code": "35750"
    },
    {
      "id": 36911,
      "district_id": 511,
      "name": "ÇAYIR MAH",
      "area": "ÖDEMİŞ",
      "postal_code": "35750"
    },
    {
      "id": 36912,
      "district_id": 511,
      "name": "ÇAYLI MAH",
      "area": "ÖDEMİŞ",
      "postal_code": "35750"
    },
    {
      "id": 36913,
      "district_id": 511,
      "name": "CEVİZALAN MAH",
      "area": "ÖDEMİŞ",
      "postal_code": "35750"
    },
    {
      "id": 36914,
      "district_id": 511,
      "name": "ÇOBANLAR MAH",
      "area": "ÖDEMİŞ",
      "postal_code": "35750"
    },
    {
      "id": 36915,
      "district_id": 511,
      "name": "CUMHURİYET MAH",
      "area": "ÖDEMİŞ",
      "postal_code": "35750"
    },
    {
      "id": 36916,
      "district_id": 511,
      "name": "DEMİRCİLİ MAH",
      "area": "ÖDEMİŞ",
      "postal_code": "35750"
    },
    {
      "id": 36917,
      "district_id": 511,
      "name": "DEMİRDERE MAH",
      "area": "ÖDEMİŞ",
      "postal_code": "35750"
    },
    {
      "id": 36918,
      "district_id": 511,
      "name": "DEREUZUNYER MAH",
      "area": "ÖDEMİŞ",
      "postal_code": "35750"
    },
    {
      "id": 36919,
      "district_id": 511,
      "name": "DOLAYLAR MAH",
      "area": "ÖDEMİŞ",
      "postal_code": "35750"
    },
    {
      "id": 36920,
      "district_id": 511,
      "name": "EMİRLİ MAH",
      "area": "ÖDEMİŞ",
      "postal_code": "35750"
    },
    {
      "id": 36921,
      "district_id": 511,
      "name": "EMMİOĞLU MAH",
      "area": "ÖDEMİŞ",
      "postal_code": "35750"
    },
    {
      "id": 36922,
      "district_id": 511,
      "name": "ERTUĞRUL MAH",
      "area": "ÖDEMİŞ",
      "postal_code": "35750"
    },
    {
      "id": 36923,
      "district_id": 511,
      "name": "GERÇEKLİ MAH",
      "area": "ÖDEMİŞ",
      "postal_code": "35750"
    },
    {
      "id": 36924,
      "district_id": 511,
      "name": "GERELİ MAH",
      "area": "ÖDEMİŞ",
      "postal_code": "35750"
    },
    {
      "id": 36925,
      "district_id": 511,
      "name": "GÖLCÜK MAH",
      "area": "ÖDEMİŞ",
      "postal_code": "35750"
    },
    {
      "id": 36926,
      "district_id": 511,
      "name": "GÜNEY MAH",
      "area": "ÖDEMİŞ",
      "postal_code": "35750"
    },
    {
      "id": 36927,
      "district_id": 511,
      "name": "GÜNLÜCE MAH",
      "area": "ÖDEMİŞ",
      "postal_code": "35750"
    },
    {
      "id": 36928,
      "district_id": 511,
      "name": "HACIHASAN MAH",
      "area": "ÖDEMİŞ",
      "postal_code": "35750"
    },
    {
      "id": 36929,
      "district_id": 511,
      "name": "HAMAM MAH",
      "area": "ÖDEMİŞ",
      "postal_code": "35750"
    },
    {
      "id": 36930,
      "district_id": 511,
      "name": "HORZUM MAH",
      "area": "ÖDEMİŞ",
      "postal_code": "35750"
    },
    {
      "id": 36931,
      "district_id": 511,
      "name": "HÜRRİYET MAH",
      "area": "ÖDEMİŞ",
      "postal_code": "35750"
    },
    {
      "id": 36932,
      "district_id": 511,
      "name": "İLKKURŞUN MAH",
      "area": "ÖDEMİŞ",
      "postal_code": "35750"
    },
    {
      "id": 36933,
      "district_id": 511,
      "name": "İNÖNÜ MAH",
      "area": "ÖDEMİŞ",
      "postal_code": "35750"
    },
    {
      "id": 36934,
      "district_id": 511,
      "name": "IŞIK MAH",
      "area": "ÖDEMİŞ",
      "postal_code": "35750"
    },
    {
      "id": 36935,
      "district_id": 511,
      "name": "KARADOĞAN MAH",
      "area": "ÖDEMİŞ",
      "postal_code": "35750"
    },
    {
      "id": 36936,
      "district_id": 511,
      "name": "KARAKOVA MAH",
      "area": "ÖDEMİŞ",
      "postal_code": "35750"
    },
    {
      "id": 36937,
      "district_id": 511,
      "name": "KAYAKÖY MAH",
      "area": "ÖDEMİŞ",
      "postal_code": "35750"
    },
    {
      "id": 36938,
      "district_id": 511,
      "name": "KAYMAKÇI MAH",
      "area": "ÖDEMİŞ",
      "postal_code": "35750"
    },
    {
      "id": 36939,
      "district_id": 511,
      "name": "KAZANLI MAH",
      "area": "ÖDEMİŞ",
      "postal_code": "35750"
    },
    {
      "id": 36940,
      "district_id": 511,
      "name": "KEMENLER MAH",
      "area": "ÖDEMİŞ",
      "postal_code": "35750"
    },
    {
      "id": 36941,
      "district_id": 511,
      "name": "KEMER MAH",
      "area": "ÖDEMİŞ",
      "postal_code": "35750"
    },
    {
      "id": 36942,
      "district_id": 511,
      "name": "KERPİÇLİK MAH",
      "area": "ÖDEMİŞ",
      "postal_code": "35750"
    },
    {
      "id": 36943,
      "district_id": 511,
      "name": "KIŞLA MAH",
      "area": "ÖDEMİŞ",
      "postal_code": "35750"
    },
    {
      "id": 36944,
      "district_id": 511,
      "name": "KIZILCA MAH",
      "area": "ÖDEMİŞ",
      "postal_code": "35750"
    },
    {
      "id": 36945,
      "district_id": 511,
      "name": "KIZILCAAVLU MAH",
      "area": "ÖDEMİŞ",
      "postal_code": "35750"
    },
    {
      "id": 36946,
      "district_id": 511,
      "name": "KÖFÜNDERE MAH",
      "area": "ÖDEMİŞ",
      "postal_code": "35750"
    },
    {
      "id": 36947,
      "district_id": 511,
      "name": "KONAKLI MAH",
      "area": "ÖDEMİŞ",
      "postal_code": "35750"
    },
    {
      "id": 36948,
      "district_id": 511,
      "name": "KÖSELER MAH",
      "area": "ÖDEMİŞ",
      "postal_code": "35750"
    },
    {
      "id": 36949,
      "district_id": 511,
      "name": "KÜÇÜKAVULCUK MAH",
      "area": "ÖDEMİŞ",
      "postal_code": "35750"
    },
    {
      "id": 36950,
      "district_id": 511,
      "name": "KÜÇÜKÖREN MAH",
      "area": "ÖDEMİŞ",
      "postal_code": "35750"
    },
    {
      "id": 36951,
      "district_id": 511,
      "name": "KÜRE MAH",
      "area": "ÖDEMİŞ",
      "postal_code": "35750"
    },
    {
      "id": 36952,
      "district_id": 511,
      "name": "KURUCUOVA MAH",
      "area": "ÖDEMİŞ",
      "postal_code": "35750"
    },
    {
      "id": 36953,
      "district_id": 511,
      "name": "KUTLUBEYLER MAH",
      "area": "ÖDEMİŞ",
      "postal_code": "35750"
    },
    {
      "id": 36954,
      "district_id": 511,
      "name": "KUVVETLİ MAH",
      "area": "ÖDEMİŞ",
      "postal_code": "35750"
    },
    {
      "id": 36955,
      "district_id": 511,
      "name": "MESCİTLİ MAH",
      "area": "ÖDEMİŞ",
      "postal_code": "35750"
    },
    {
      "id": 36956,
      "district_id": 511,
      "name": "MEŞRUTİYET MAH",
      "area": "ÖDEMİŞ",
      "postal_code": "35750"
    },
    {
      "id": 36957,
      "district_id": 511,
      "name": "MİMAR SİNAN MAH",
      "area": "ÖDEMİŞ",
      "postal_code": "35750"
    },
    {
      "id": 36958,
      "district_id": 511,
      "name": "MURSALLI MAH",
      "area": "ÖDEMİŞ",
      "postal_code": "35750"
    },
    {
      "id": 36959,
      "district_id": 511,
      "name": "OCAKLI MAH",
      "area": "ÖDEMİŞ",
      "postal_code": "35750"
    },
    {
      "id": 36960,
      "district_id": 511,
      "name": "OĞUZLAR MAH",
      "area": "ÖDEMİŞ",
      "postal_code": "35750"
    },
    {
      "id": 36961,
      "district_id": 511,
      "name": "ORHANGAZİ MAH",
      "area": "ÖDEMİŞ",
      "postal_code": "35750"
    },
    {
      "id": 36962,
      "district_id": 511,
      "name": "ORTAKÖY MAH",
      "area": "ÖDEMİŞ",
      "postal_code": "35750"
    },
    {
      "id": 36963,
      "district_id": 511,
      "name": "OVACIK MAH",
      "area": "ÖDEMİŞ",
      "postal_code": "35750"
    },
    {
      "id": 36964,
      "district_id": 511,
      "name": "OVAKENT MAH",
      "area": "ÖDEMİŞ",
      "postal_code": "35750"
    },
    {
      "id": 36965,
      "district_id": 511,
      "name": "PİRİNÇÇİ MAH",
      "area": "ÖDEMİŞ",
      "postal_code": "35750"
    },
    {
      "id": 36966,
      "district_id": 511,
      "name": "SEKİKÖY MAH",
      "area": "ÖDEMİŞ",
      "postal_code": "35750"
    },
    {
      "id": 36967,
      "district_id": 511,
      "name": "SEYREKLİ MAH",
      "area": "ÖDEMİŞ",
      "postal_code": "35750"
    },
    {
      "id": 36968,
      "district_id": 511,
      "name": "ŞİRİNKÖY MAH",
      "area": "ÖDEMİŞ",
      "postal_code": "35750"
    },
    {
      "id": 36969,
      "district_id": 511,
      "name": "SUÇIKTI MAH",
      "area": "ÖDEMİŞ",
      "postal_code": "35750"
    },
    {
      "id": 36970,
      "district_id": 511,
      "name": "SÜLEYMAN DEMİREL MAH",
      "area": "ÖDEMİŞ",
      "postal_code": "35750"
    },
    {
      "id": 36971,
      "district_id": 511,
      "name": "SÜLEYMANLAR MAH",
      "area": "ÖDEMİŞ",
      "postal_code": "35750"
    },
    {
      "id": 36972,
      "district_id": 511,
      "name": "TEKKE MAH",
      "area": "ÖDEMİŞ",
      "postal_code": "35750"
    },
    {
      "id": 36973,
      "district_id": 511,
      "name": "TOSUNLAR MAH",
      "area": "ÖDEMİŞ",
      "postal_code": "35750"
    },
    {
      "id": 36974,
      "district_id": 511,
      "name": "TÜRKMEN MAH",
      "area": "ÖDEMİŞ",
      "postal_code": "35750"
    },
    {
      "id": 36975,
      "district_id": 511,
      "name": "TÜRKÖNÜ MAH",
      "area": "ÖDEMİŞ",
      "postal_code": "35750"
    },
    {
      "id": 36976,
      "district_id": 511,
      "name": "ÜÇ EYLÜL MAH",
      "area": "ÖDEMİŞ",
      "postal_code": "35750"
    },
    {
      "id": 36977,
      "district_id": 511,
      "name": "ÜÇKONAK MAH",
      "area": "ÖDEMİŞ",
      "postal_code": "35750"
    },
    {
      "id": 36978,
      "district_id": 511,
      "name": "UMURBEY MAH",
      "area": "ÖDEMİŞ",
      "postal_code": "35750"
    },
    {
      "id": 36979,
      "district_id": 511,
      "name": "ÜZÜMLÜ MAH",
      "area": "ÖDEMİŞ",
      "postal_code": "35750"
    },
    {
      "id": 36980,
      "district_id": 511,
      "name": "UZUNDERE MAH",
      "area": "ÖDEMİŞ",
      "postal_code": "35750"
    },
    {
      "id": 36981,
      "district_id": 511,
      "name": "VELİLER MAH",
      "area": "ÖDEMİŞ",
      "postal_code": "35750"
    },
    {
      "id": 36982,
      "district_id": 511,
      "name": "YENİCEKÖY MAH",
      "area": "ÖDEMİŞ",
      "postal_code": "35750"
    },
    {
      "id": 36983,
      "district_id": 511,
      "name": "YENİKÖY MAH",
      "area": "ÖDEMİŞ",
      "postal_code": "35750"
    },
    {
      "id": 36984,
      "district_id": 511,
      "name": "YEŞİLKÖY MAH",
      "area": "ÖDEMİŞ",
      "postal_code": "35750"
    },
    {
      "id": 36985,
      "district_id": 511,
      "name": "YILANLI MAH",
      "area": "ÖDEMİŞ",
      "postal_code": "35750"
    },
    {
      "id": 36986,
      "district_id": 511,
      "name": "YOLÜSTÜ MAH",
      "area": "ÖDEMİŞ",
      "postal_code": "35750"
    },
    {
      "id": 36987,
      "district_id": 511,
      "name": "YUSUFDERE MAH",
      "area": "ÖDEMİŞ",
      "postal_code": "35750"
    },
    {
      "id": 36988,
      "district_id": 511,
      "name": "ZAFER MAH",
      "area": "ÖDEMİŞ",
      "postal_code": "35750"
    },
    {
      "id": 36989,
      "district_id": 512,
      "name": "AKARCA MAH",
      "area": "SEFERİHİSAR",
      "postal_code": "35460"
    },
    {
      "id": 36990,
      "district_id": 512,
      "name": "ATATÜRK MAH",
      "area": "DOĞANBEY",
      "postal_code": "35465"
    },
    {
      "id": 36991,
      "district_id": 512,
      "name": "BENGİLER MAH",
      "area": "ÜRKMEZ",
      "postal_code": "35485"
    },
    {
      "id": 36992,
      "district_id": 512,
      "name": "BEYLER MAH",
      "area": "SEFERİHİSAR",
      "postal_code": "35460"
    },
    {
      "id": 36993,
      "district_id": 512,
      "name": "CAMİKEBİR MAH",
      "area": "SEFERİHİSAR",
      "postal_code": "35460"
    },
    {
      "id": 36994,
      "district_id": 512,
      "name": "ÇAMTEPE MAH",
      "area": "SEFERİHİSAR",
      "postal_code": "35460"
    },
    {
      "id": 36995,
      "district_id": 512,
      "name": "ÇOLAK İBRAHİM BEY MAH",
      "area": "SEFERİHİSAR",
      "postal_code": "35460"
    },
    {
      "id": 36996,
      "district_id": 512,
      "name": "CUMHURİYET MAH",
      "area": "DOĞANBEY",
      "postal_code": "35465"
    },
    {
      "id": 36997,
      "district_id": 512,
      "name": "DÜZCE MAH",
      "area": "SEFERİHİSAR",
      "postal_code": "35460"
    },
    {
      "id": 36998,
      "district_id": 512,
      "name": "GÖDENCE MAH",
      "area": "SEFERİHİSAR",
      "postal_code": "35460"
    },
    {
      "id": 36999,
      "district_id": 512,
      "name": "GÖLCÜK MAH",
      "area": "SEFERİHİSAR",
      "postal_code": "35460"
    },
    {
      "id": 37000,
      "district_id": 512,
      "name": "HIDIRLIK MAH",
      "area": "SEFERİHİSAR",
      "postal_code": "35460"
    },
    {
      "id": 37001,
      "district_id": 512,
      "name": "İHSANİYE MAH",
      "area": "SEFERİHİSAR",
      "postal_code": "35460"
    },
    {
      "id": 37002,
      "district_id": 512,
      "name": "KAVAKDERE MAH",
      "area": "SEFERİHİSAR",
      "postal_code": "35460"
    },
    {
      "id": 37003,
      "district_id": 512,
      "name": "MERSİN ALANI MAH",
      "area": "ÜRKMEZ",
      "postal_code": "35485"
    },
    {
      "id": 37004,
      "district_id": 512,
      "name": "ORHANLI MAH",
      "area": "SEFERİHİSAR",
      "postal_code": "35460"
    },
    {
      "id": 37005,
      "district_id": 512,
      "name": "PAYAMLI MAH",
      "area": "DOĞANBEY",
      "postal_code": "35465"
    },
    {
      "id": 37006,
      "district_id": 512,
      "name": "SIĞACIK MAH",
      "area": "SEFERİHİSAR",
      "postal_code": "35460"
    },
    {
      "id": 37007,
      "district_id": 512,
      "name": "TEPECİK MAH",
      "area": "SEFERİHİSAR",
      "postal_code": "35460"
    },
    {
      "id": 37008,
      "district_id": 512,
      "name": "TURABİYE MAH",
      "area": "SEFERİHİSAR",
      "postal_code": "35460"
    },
    {
      "id": 37009,
      "district_id": 512,
      "name": "TURGUT MAH",
      "area": "SEFERİHİSAR",
      "postal_code": "35460"
    },
    {
      "id": 37010,
      "district_id": 512,
      "name": "ULAMIŞ MAH",
      "area": "SEFERİHİSAR",
      "postal_code": "35460"
    },
    {
      "id": 37011,
      "district_id": 513,
      "name": "14 MAYIS MAH",
      "area": "SELÇUK",
      "postal_code": "35920"
    },
    {
      "id": 37012,
      "district_id": 513,
      "name": "ACARLAR MAH",
      "area": "SELÇUK",
      "postal_code": "35920"
    },
    {
      "id": 37013,
      "district_id": 513,
      "name": "ATATÜRK MAH",
      "area": "SELÇUK",
      "postal_code": "35920"
    },
    {
      "id": 37014,
      "district_id": 513,
      "name": "BARUTÇU MAH",
      "area": "SELÇUK",
      "postal_code": "35920"
    },
    {
      "id": 37015,
      "district_id": 513,
      "name": "BELEVİ MAH",
      "area": "SELÇUK",
      "postal_code": "35920"
    },
    {
      "id": 37016,
      "district_id": 513,
      "name": "ÇAMLIK MAH",
      "area": "SELÇUK",
      "postal_code": "35920"
    },
    {
      "id": 37017,
      "district_id": 513,
      "name": "CUMHURİYET MAH",
      "area": "SELÇUK",
      "postal_code": "35920"
    },
    {
      "id": 37018,
      "district_id": 513,
      "name": "GÖKÇEALAN MAH",
      "area": "SELÇUK",
      "postal_code": "35920"
    },
    {
      "id": 37019,
      "district_id": 513,
      "name": "HAVUTÇULU MAH",
      "area": "SELÇUK",
      "postal_code": "35920"
    },
    {
      "id": 37020,
      "district_id": 513,
      "name": "İSA BEY MAH",
      "area": "SELÇUK",
      "postal_code": "35920"
    },
    {
      "id": 37021,
      "district_id": 513,
      "name": "ŞİRİNCE MAH",
      "area": "SELÇUK",
      "postal_code": "35920"
    },
    {
      "id": 37022,
      "district_id": 513,
      "name": "SULTANİYE MAH",
      "area": "SELÇUK",
      "postal_code": "35920"
    },
    {
      "id": 37023,
      "district_id": 513,
      "name": "ZAFER MAH",
      "area": "SELÇUK",
      "postal_code": "35920"
    },
    {
      "id": 37024,
      "district_id": 513,
      "name": "ZEYTİNKÖY MAH",
      "area": "SELÇUK",
      "postal_code": "35920"
    },
    {
      "id": 37025,
      "district_id": 514,
      "name": "4 EYLÜL MAH",
      "area": "TİRE",
      "postal_code": "35900"
    },
    {
      "id": 37026,
      "district_id": 514,
      "name": "ADNAN MENDERES MAH",
      "area": "TİRE",
      "postal_code": "35900"
    },
    {
      "id": 37027,
      "district_id": 514,
      "name": "AKÇAŞEHİR MAH",
      "area": "TİRE",
      "postal_code": "35900"
    },
    {
      "id": 37028,
      "district_id": 514,
      "name": "AKKOYUNLU MAH",
      "area": "TİRE",
      "postal_code": "35900"
    },
    {
      "id": 37029,
      "district_id": 514,
      "name": "AKMESCİT MAH",
      "area": "TİRE",
      "postal_code": "35900"
    },
    {
      "id": 37030,
      "district_id": 514,
      "name": "AKYURT MAH",
      "area": "TİRE",
      "postal_code": "35900"
    },
    {
      "id": 37031,
      "district_id": 514,
      "name": "ALACALI MAH",
      "area": "TİRE",
      "postal_code": "35900"
    },
    {
      "id": 37032,
      "district_id": 514,
      "name": "ALAYLI MAH",
      "area": "TİRE",
      "postal_code": "35900"
    },
    {
      "id": 37033,
      "district_id": 514,
      "name": "ARMUTLU MAH",
      "area": "TİRE",
      "postal_code": "35900"
    },
    {
      "id": 37034,
      "district_id": 514,
      "name": "ATATÜRK MAH",
      "area": "TİRE",
      "postal_code": "35900"
    },
    {
      "id": 37035,
      "district_id": 514,
      "name": "AYAKLIKIRI MAH",
      "area": "TİRE",
      "postal_code": "35900"
    },
    {
      "id": 37036,
      "district_id": 514,
      "name": "BAHARİYE MAH",
      "area": "TİRE",
      "postal_code": "35900"
    },
    {
      "id": 37037,
      "district_id": 514,
      "name": "BAŞKÖY MAH",
      "area": "TİRE",
      "postal_code": "35900"
    },
    {
      "id": 37038,
      "district_id": 514,
      "name": "BOYNUYOĞUN MAH",
      "area": "TİRE",
      "postal_code": "35900"
    },
    {
      "id": 37039,
      "district_id": 514,
      "name": "BÜYÜKKALE MAH",
      "area": "TİRE",
      "postal_code": "35900"
    },
    {
      "id": 37040,
      "district_id": 514,
      "name": "BÜYÜKKEMERDERE MAH",
      "area": "TİRE",
      "postal_code": "35900"
    },
    {
      "id": 37041,
      "district_id": 514,
      "name": "BÜYÜKKÖMÜRCÜ MAH",
      "area": "TİRE",
      "postal_code": "35900"
    },
    {
      "id": 37042,
      "district_id": 514,
      "name": "CAMBAZLI MAH",
      "area": "TİRE",
      "postal_code": "35900"
    },
    {
      "id": 37043,
      "district_id": 514,
      "name": "ÇAYIRLI MAH",
      "area": "TİRE",
      "postal_code": "35900"
    },
    {
      "id": 37044,
      "district_id": 514,
      "name": "ÇERİKÖZÜ MAH",
      "area": "TİRE",
      "postal_code": "35900"
    },
    {
      "id": 37045,
      "district_id": 514,
      "name": "ÇİNİYERİ MAH",
      "area": "TİRE",
      "postal_code": "35900"
    },
    {
      "id": 37046,
      "district_id": 514,
      "name": "ÇOBANKÖY MAH",
      "area": "TİRE",
      "postal_code": "35900"
    },
    {
      "id": 37047,
      "district_id": 514,
      "name": "ÇUKURKÖY MAH",
      "area": "TİRE",
      "postal_code": "35900"
    },
    {
      "id": 37048,
      "district_id": 514,
      "name": "CUMHURİYET MAH",
      "area": "TİRE",
      "postal_code": "35900"
    },
    {
      "id": 37049,
      "district_id": 514,
      "name": "DAĞDERE MAH",
      "area": "TİRE",
      "postal_code": "35900"
    },
    {
      "id": 37050,
      "district_id": 514,
      "name": "DALLIK MAH",
      "area": "TİRE",
      "postal_code": "35900"
    },
    {
      "id": 37051,
      "district_id": 514,
      "name": "DERE MAH",
      "area": "TİRE",
      "postal_code": "35900"
    },
    {
      "id": 37052,
      "district_id": 514,
      "name": "DEREBAŞI MAH",
      "area": "TİRE",
      "postal_code": "35900"
    },
    {
      "id": 37053,
      "district_id": 514,
      "name": "DERELİ MAH",
      "area": "TİRE",
      "postal_code": "35900"
    },
    {
      "id": 37054,
      "district_id": 514,
      "name": "DİBEKÇİ MAH",
      "area": "TİRE",
      "postal_code": "35900"
    },
    {
      "id": 37055,
      "district_id": 514,
      "name": "DOYRANLI MAH",
      "area": "TİRE",
      "postal_code": "35900"
    },
    {
      "id": 37056,
      "district_id": 514,
      "name": "DUATEPE MAH",
      "area": "TİRE",
      "postal_code": "35900"
    },
    {
      "id": 37057,
      "district_id": 514,
      "name": "DUMLUPINAR MAH",
      "area": "TİRE",
      "postal_code": "35900"
    },
    {
      "id": 37058,
      "district_id": 514,
      "name": "DÜNDARLI MAH",
      "area": "TİRE",
      "postal_code": "35900"
    },
    {
      "id": 37059,
      "district_id": 514,
      "name": "EĞRİDERE MAH",
      "area": "TİRE",
      "postal_code": "35900"
    },
    {
      "id": 37060,
      "district_id": 514,
      "name": "ERTUĞRUL MAH",
      "area": "TİRE",
      "postal_code": "35900"
    },
    {
      "id": 37061,
      "district_id": 514,
      "name": "ESKİOBA MAH",
      "area": "TİRE",
      "postal_code": "35900"
    },
    {
      "id": 37062,
      "district_id": 514,
      "name": "FATİH MAH",
      "area": "TİRE",
      "postal_code": "35900"
    },
    {
      "id": 37063,
      "district_id": 514,
      "name": "GÖKÇEN MAH",
      "area": "TİRE",
      "postal_code": "35900"
    },
    {
      "id": 37064,
      "district_id": 514,
      "name": "HALKAPINAR MAH",
      "area": "TİRE",
      "postal_code": "35900"
    },
    {
      "id": 37065,
      "district_id": 514,
      "name": "HASANÇAVUŞLAR MAH",
      "area": "TİRE",
      "postal_code": "35900"
    },
    {
      "id": 37066,
      "district_id": 514,
      "name": "HİSARLIK MAH",
      "area": "TİRE",
      "postal_code": "35900"
    },
    {
      "id": 37067,
      "district_id": 514,
      "name": "HÜRRİYET MAH",
      "area": "TİRE",
      "postal_code": "35900"
    },
    {
      "id": 37068,
      "district_id": 514,
      "name": "İBNİ MELEK MAH",
      "area": "TİRE",
      "postal_code": "35900"
    },
    {
      "id": 37069,
      "district_id": 514,
      "name": "İBNİ MELEK OSB MAH",
      "area": "TİRE",
      "postal_code": "35900"
    },
    {
      "id": 37070,
      "district_id": 514,
      "name": "İHSANİYE MAH",
      "area": "TİRE",
      "postal_code": "35900"
    },
    {
      "id": 37071,
      "district_id": 514,
      "name": "İPEKÇİLER MAH",
      "area": "TİRE",
      "postal_code": "35900"
    },
    {
      "id": 37072,
      "district_id": 514,
      "name": "IŞIKLAR MAH",
      "area": "TİRE",
      "postal_code": "35900"
    },
    {
      "id": 37073,
      "district_id": 514,
      "name": "IŞIKLI MAH",
      "area": "TİRE",
      "postal_code": "35900"
    },
    {
      "id": 37074,
      "district_id": 514,
      "name": "İSTİKLAL MAH",
      "area": "TİRE",
      "postal_code": "35900"
    },
    {
      "id": 37075,
      "district_id": 514,
      "name": "KAHRAT MAH",
      "area": "TİRE",
      "postal_code": "35900"
    },
    {
      "id": 37076,
      "district_id": 514,
      "name": "KAPLAN MAH",
      "area": "TİRE",
      "postal_code": "35900"
    },
    {
      "id": 37077,
      "district_id": 514,
      "name": "KARACA ALİ MAH",
      "area": "TİRE",
      "postal_code": "35900"
    },
    {
      "id": 37078,
      "district_id": 514,
      "name": "KARATEKE MAH",
      "area": "TİRE",
      "postal_code": "35900"
    },
    {
      "id": 37079,
      "district_id": 514,
      "name": "KETENCİ MAH",
      "area": "TİRE",
      "postal_code": "35900"
    },
    {
      "id": 37080,
      "district_id": 514,
      "name": "KİRELİ MAH",
      "area": "TİRE",
      "postal_code": "35900"
    },
    {
      "id": 37081,
      "district_id": 514,
      "name": "KIRTEPE MAH",
      "area": "TİRE",
      "postal_code": "35900"
    },
    {
      "id": 37082,
      "district_id": 514,
      "name": "KIZILCAHAVLU MAH",
      "area": "TİRE",
      "postal_code": "35900"
    },
    {
      "id": 37083,
      "district_id": 514,
      "name": "KOCAALİLER MAH",
      "area": "TİRE",
      "postal_code": "35900"
    },
    {
      "id": 37084,
      "district_id": 514,
      "name": "KÜÇÜKBURUN MAH",
      "area": "TİRE",
      "postal_code": "35900"
    },
    {
      "id": 37085,
      "district_id": 514,
      "name": "KÜÇÜKKALE MAH",
      "area": "TİRE",
      "postal_code": "35900"
    },
    {
      "id": 37086,
      "district_id": 514,
      "name": "KÜÇÜKKEMERDERE MAH",
      "area": "TİRE",
      "postal_code": "35900"
    },
    {
      "id": 37087,
      "district_id": 514,
      "name": "KÜÇÜKKÖMÜRCÜ MAH",
      "area": "TİRE",
      "postal_code": "35900"
    },
    {
      "id": 37088,
      "district_id": 514,
      "name": "KÜRDÜLLÜ MAH",
      "area": "TİRE",
      "postal_code": "35900"
    },
    {
      "id": 37089,
      "district_id": 514,
      "name": "KURŞAK MAH",
      "area": "TİRE",
      "postal_code": "35900"
    },
    {
      "id": 37090,
      "district_id": 514,
      "name": "KURTULUŞ MAH",
      "area": "TİRE",
      "postal_code": "35900"
    },
    {
      "id": 37091,
      "district_id": 514,
      "name": "MAHMUTLAR MAH",
      "area": "TİRE",
      "postal_code": "35900"
    },
    {
      "id": 37092,
      "district_id": 514,
      "name": "MEHMETLER MAH",
      "area": "TİRE",
      "postal_code": "35900"
    },
    {
      "id": 37093,
      "district_id": 514,
      "name": "MUSALAR MAH",
      "area": "TİRE",
      "postal_code": "35900"
    },
    {
      "id": 37094,
      "district_id": 514,
      "name": "ORTAKÖY MAH",
      "area": "TİRE",
      "postal_code": "35900"
    },
    {
      "id": 37095,
      "district_id": 514,
      "name": "OSMANCIK MAH",
      "area": "TİRE",
      "postal_code": "35900"
    },
    {
      "id": 37096,
      "district_id": 514,
      "name": "PAŞA MAH",
      "area": "TİRE",
      "postal_code": "35900"
    },
    {
      "id": 37097,
      "district_id": 514,
      "name": "PEŞREFLİ MAH",
      "area": "TİRE",
      "postal_code": "35900"
    },
    {
      "id": 37098,
      "district_id": 514,
      "name": "SARILAR MAH",
      "area": "TİRE",
      "postal_code": "35900"
    },
    {
      "id": 37099,
      "district_id": 514,
      "name": "SARUHANLI MAH",
      "area": "TİRE",
      "postal_code": "35900"
    },
    {
      "id": 37100,
      "district_id": 514,
      "name": "SOMAK MAH",
      "area": "TİRE",
      "postal_code": "35900"
    },
    {
      "id": 37101,
      "district_id": 514,
      "name": "TOKİ MAH",
      "area": "TİRE",
      "postal_code": "35900"
    },
    {
      "id": 37102,
      "district_id": 514,
      "name": "TOPALAK MAH",
      "area": "TİRE",
      "postal_code": "35900"
    },
    {
      "id": 37103,
      "district_id": 514,
      "name": "TOPARLAR MAH",
      "area": "TİRE",
      "postal_code": "35900"
    },
    {
      "id": 37104,
      "district_id": 514,
      "name": "TURAN MAH",
      "area": "TİRE",
      "postal_code": "35900"
    },
    {
      "id": 37105,
      "district_id": 514,
      "name": "TURGUTLU MAH",
      "area": "TİRE",
      "postal_code": "35900"
    },
    {
      "id": 37106,
      "district_id": 514,
      "name": "ÜZÜMLER MAH",
      "area": "TİRE",
      "postal_code": "35900"
    },
    {
      "id": 37107,
      "district_id": 514,
      "name": "YAMANDERE MAH",
      "area": "TİRE",
      "postal_code": "35900"
    },
    {
      "id": 37108,
      "district_id": 514,
      "name": "YEĞENLİ MAH",
      "area": "TİRE",
      "postal_code": "35900"
    },
    {
      "id": 37109,
      "district_id": 514,
      "name": "YEMİŞLER MAH",
      "area": "TİRE",
      "postal_code": "35900"
    },
    {
      "id": 37110,
      "district_id": 514,
      "name": "YENİ MAH",
      "area": "TİRE",
      "postal_code": "35900"
    },
    {
      "id": 37111,
      "district_id": 514,
      "name": "YENİÇİFTLİK MAH",
      "area": "TİRE",
      "postal_code": "35900"
    },
    {
      "id": 37112,
      "district_id": 514,
      "name": "YENİOBA MAH",
      "area": "TİRE",
      "postal_code": "35900"
    },
    {
      "id": 37113,
      "district_id": 514,
      "name": "YENİŞEHİR MAH",
      "area": "TİRE",
      "postal_code": "35900"
    },
    {
      "id": 37114,
      "district_id": 515,
      "name": "19 MAYIS MAH",
      "area": "SUBAŞI",
      "postal_code": "35885"
    },
    {
      "id": 37115,
      "district_id": 515,
      "name": "AHMETLİ MAH",
      "area": "TORBALI",
      "postal_code": "35860"
    },
    {
      "id": 37116,
      "district_id": 515,
      "name": "ALPKENT MAH",
      "area": "TORBALI",
      "postal_code": "35860"
    },
    {
      "id": 37117,
      "district_id": 515,
      "name": "ARSLANLAR MAH",
      "area": "TORBALI",
      "postal_code": "35860"
    },
    {
      "id": 37118,
      "district_id": 515,
      "name": "ATALAN MAH",
      "area": "TORBALI",
      "postal_code": "35860"
    },
    {
      "id": 37119,
      "district_id": 515,
      "name": "ATATÜRK MAH",
      "area": "TORBALI",
      "postal_code": "35860"
    },
    {
      "id": 37120,
      "district_id": 515,
      "name": "AYRANCILAR MAH",
      "area": "AYRANCILAR",
      "postal_code": "35870"
    },
    {
      "id": 37121,
      "district_id": 515,
      "name": "BAHÇELİEVLER MAH",
      "area": "YAZIBAŞI",
      "postal_code": "35875"
    },
    {
      "id": 37122,
      "district_id": 515,
      "name": "BOZKÖY MAH",
      "area": "TORBALI",
      "postal_code": "35860"
    },
    {
      "id": 37123,
      "district_id": 515,
      "name": "BÜLBÜLDERE MAH",
      "area": "TORBALI",
      "postal_code": "35860"
    },
    {
      "id": 37124,
      "district_id": 515,
      "name": "ÇAKIRBEYLİ MAH",
      "area": "TORBALI",
      "postal_code": "35860"
    },
    {
      "id": 37125,
      "district_id": 515,
      "name": "ÇAMLICA MAH",
      "area": "TORBALI",
      "postal_code": "35860"
    },
    {
      "id": 37126,
      "district_id": 515,
      "name": "ÇAPAK MAH",
      "area": "TORBALI",
      "postal_code": "35860"
    },
    {
      "id": 37127,
      "district_id": 515,
      "name": "ÇAYBAŞI MAH",
      "area": "ÇAYBAŞI",
      "postal_code": "35880"
    },
    {
      "id": 37128,
      "district_id": 515,
      "name": "CUMHURİYET MAH",
      "area": "TORBALI",
      "postal_code": "35860"
    },
    {
      "id": 37129,
      "district_id": 515,
      "name": "DAĞKIZILCA MAH",
      "area": "TORBALI",
      "postal_code": "35860"
    },
    {
      "id": 37130,
      "district_id": 515,
      "name": "DAĞTEKE MAH",
      "area": "TORBALI",
      "postal_code": "35860"
    },
    {
      "id": 37131,
      "district_id": 515,
      "name": "DEMİRCİ MAH",
      "area": "TORBALI",
      "postal_code": "35860"
    },
    {
      "id": 37132,
      "district_id": 515,
      "name": "DİRMİL MAH",
      "area": "TORBALI",
      "postal_code": "35860"
    },
    {
      "id": 37133,
      "district_id": 515,
      "name": "DÜVERLİK MAH",
      "area": "TORBALI",
      "postal_code": "35860"
    },
    {
      "id": 37134,
      "district_id": 515,
      "name": "EĞERCİ MAH",
      "area": "TORBALI",
      "postal_code": "35860"
    },
    {
      "id": 37135,
      "district_id": 515,
      "name": "ERTUĞRUL MAH",
      "area": "TORBALI",
      "postal_code": "35860"
    },
    {
      "id": 37136,
      "district_id": 515,
      "name": "FEVZİ ÇAKMAK MAH",
      "area": "AYRANCILAR",
      "postal_code": "35870"
    },
    {
      "id": 37137,
      "district_id": 515,
      "name": "GAZİ MUSTAFA KEMAL MAH",
      "area": "TORBALI",
      "postal_code": "35860"
    },
    {
      "id": 37138,
      "district_id": 515,
      "name": "GÖLLÜCE MAH",
      "area": "TORBALI",
      "postal_code": "35860"
    },
    {
      "id": 37139,
      "district_id": 515,
      "name": "HELVACI MAH",
      "area": "TORBALI",
      "postal_code": "35860"
    },
    {
      "id": 37140,
      "district_id": 515,
      "name": "İNÖNÜ MAH",
      "area": "AYRANCILAR",
      "postal_code": "35870"
    },
    {
      "id": 37141,
      "district_id": 515,
      "name": "İSTİKLAL MAH",
      "area": "YAZIBAŞI",
      "postal_code": "35875"
    },
    {
      "id": 37142,
      "district_id": 515,
      "name": "KAPLANCIK MAH",
      "area": "TORBALI",
      "postal_code": "35860"
    },
    {
      "id": 37143,
      "district_id": 515,
      "name": "KARAKIZLAR MAH",
      "area": "TORBALI",
      "postal_code": "35860"
    },
    {
      "id": 37144,
      "district_id": 515,
      "name": "KARAKUYU MAH",
      "area": "TORBALI",
      "postal_code": "35860"
    },
    {
      "id": 37145,
      "district_id": 515,
      "name": "KARAOT MAH",
      "area": "TORBALI",
      "postal_code": "35860"
    },
    {
      "id": 37146,
      "district_id": 515,
      "name": "KARŞIYAKA MAH",
      "area": "ÇAYBAŞI",
      "postal_code": "35880"
    },
    {
      "id": 37147,
      "district_id": 515,
      "name": "KAZIM KARABEKİR MAH",
      "area": "PANCAR",
      "postal_code": "35865"
    },
    {
      "id": 37148,
      "district_id": 515,
      "name": "KIRBAŞ MAH",
      "area": "TORBALI",
      "postal_code": "35860"
    },
    {
      "id": 37149,
      "district_id": 515,
      "name": "KUŞÇUBURUN MAH",
      "area": "TORBALI",
      "postal_code": "35860"
    },
    {
      "id": 37150,
      "district_id": 515,
      "name": "MURATBEY MAH",
      "area": "TORBALI",
      "postal_code": "35860"
    },
    {
      "id": 37151,
      "district_id": 515,
      "name": "MUSTAFA KEMAL ATATÜRK MAH",
      "area": "ÇAYBAŞI",
      "postal_code": "35880"
    },
    {
      "id": 37152,
      "district_id": 515,
      "name": "NAİME MAH",
      "area": "TORBALI",
      "postal_code": "35860"
    },
    {
      "id": 37153,
      "district_id": 515,
      "name": "ORGANİZE SANAYİ BÖLGESİ MAH",
      "area": "PANCAR",
      "postal_code": "35865"
    },
    {
      "id": 37154,
      "district_id": 515,
      "name": "ORMANKÖY MAH",
      "area": "TORBALI",
      "postal_code": "35860"
    },
    {
      "id": 37155,
      "district_id": 515,
      "name": "ORTAKÖY MAH",
      "area": "TORBALI",
      "postal_code": "35860"
    },
    {
      "id": 37156,
      "district_id": 515,
      "name": "ÖZBEY MAH",
      "area": "TORBALI",
      "postal_code": "35860"
    },
    {
      "id": 37157,
      "district_id": 515,
      "name": "PAMUKYAZI MAH",
      "area": "SUBAŞI",
      "postal_code": "35885"
    },
    {
      "id": 37158,
      "district_id": 515,
      "name": "PANCAR MAH",
      "area": "PANCAR",
      "postal_code": "35865"
    },
    {
      "id": 37159,
      "district_id": 515,
      "name": "SAĞLIK MAH",
      "area": "TORBALI",
      "postal_code": "35860"
    },
    {
      "id": 37160,
      "district_id": 515,
      "name": "SAİPLER MAH",
      "area": "TORBALI",
      "postal_code": "35860"
    },
    {
      "id": 37161,
      "district_id": 515,
      "name": "ŞEHİTLER MAH",
      "area": "TORBALI",
      "postal_code": "35860"
    },
    {
      "id": 37162,
      "district_id": 515,
      "name": "SUBAŞI MAH",
      "area": "SUBAŞI",
      "postal_code": "35885"
    },
    {
      "id": 37163,
      "district_id": 515,
      "name": "TAŞKESİK MAH",
      "area": "TORBALI",
      "postal_code": "35860"
    },
    {
      "id": 37164,
      "district_id": 515,
      "name": "TEPEKÖY MAH",
      "area": "TORBALI",
      "postal_code": "35860"
    },
    {
      "id": 37165,
      "district_id": 515,
      "name": "TORBALI MAH",
      "area": "TORBALI",
      "postal_code": "35860"
    },
    {
      "id": 37166,
      "district_id": 515,
      "name": "TULUM MAH",
      "area": "TORBALI",
      "postal_code": "35860"
    },
    {
      "id": 37167,
      "district_id": 515,
      "name": "TÜRKMENKÖY MAH",
      "area": "AYRANCILAR",
      "postal_code": "35870"
    },
    {
      "id": 37168,
      "district_id": 515,
      "name": "YAZIBAŞI MAH",
      "area": "YAZIBAŞI",
      "postal_code": "35875"
    },
    {
      "id": 37169,
      "district_id": 515,
      "name": "YEDİ EYLÜL MAH",
      "area": "TORBALI",
      "postal_code": "35860"
    },
    {
      "id": 37170,
      "district_id": 515,
      "name": "YEMİŞLİK MAH",
      "area": "TORBALI",
      "postal_code": "35860"
    },
    {
      "id": 37171,
      "district_id": 515,
      "name": "YENİ MAH",
      "area": "ÇAYBAŞI",
      "postal_code": "35880"
    },
    {
      "id": 37172,
      "district_id": 515,
      "name": "YENİKÖY MAH",
      "area": "TORBALI",
      "postal_code": "35860"
    },
    {
      "id": 37173,
      "district_id": 515,
      "name": "YENİKÖY OSB MAH",
      "area": "YENİKÖYOSB",
      "postal_code": "35862"
    },
    {
      "id": 37174,
      "district_id": 515,
      "name": "YEŞİLKÖY MAH",
      "area": "TORBALI",
      "postal_code": "35860"
    },
    {
      "id": 37175,
      "district_id": 515,
      "name": "YOĞURTÇULAR MAH",
      "area": "TORBALI",
      "postal_code": "35860"
    },
    {
      "id": 37176,
      "district_id": 516,
      "name": "ALTINTAŞ MAH",
      "area": "URLA",
      "postal_code": "35430"
    },
    {
      "id": 37177,
      "district_id": 516,
      "name": "ATATÜRK MAH",
      "area": "İSKELE",
      "postal_code": "35441"
    },
    {
      "id": 37178,
      "district_id": 516,
      "name": "BADEMLER MAH",
      "area": "BADEMLER",
      "postal_code": "35432"
    },
    {
      "id": 37179,
      "district_id": 516,
      "name": "BALIKLIOVA MAH",
      "area": "BALIKLIOVA",
      "postal_code": "35436"
    },
    {
      "id": 37180,
      "district_id": 516,
      "name": "BARBAROS MAH",
      "area": "URLA",
      "postal_code": "35430"
    },
    {
      "id": 37181,
      "district_id": 516,
      "name": "BİRGİ MAH",
      "area": "URLA",
      "postal_code": "35430"
    },
    {
      "id": 37182,
      "district_id": 516,
      "name": "CAMİATİK MAH",
      "area": "URLA",
      "postal_code": "35430"
    },
    {
      "id": 37183,
      "district_id": 516,
      "name": "ÇAMLIÇAY MAH",
      "area": "ZEYTİNALANI",
      "postal_code": "35445"
    },
    {
      "id": 37184,
      "district_id": 516,
      "name": "DEMİRCİLİ MAH",
      "area": "URLA",
      "postal_code": "35430"
    },
    {
      "id": 37185,
      "district_id": 516,
      "name": "DENİZLİ MAH",
      "area": "ÇEŞMEALTI",
      "postal_code": "35450"
    },
    {
      "id": 37186,
      "district_id": 516,
      "name": "GÜLBAHÇE MAH",
      "area": "İYTE",
      "postal_code": "35433"
    },
    {
      "id": 37187,
      "district_id": 516,
      "name": "GÜVENDİK MAH",
      "area": "ÇEŞMEALTI",
      "postal_code": "35450"
    },
    {
      "id": 37188,
      "district_id": 516,
      "name": "HACI İSA MAH",
      "area": "URLA",
      "postal_code": "35430"
    },
    {
      "id": 37189,
      "district_id": 516,
      "name": "İÇMELER MAH",
      "area": "URLA",
      "postal_code": "35430"
    },
    {
      "id": 37190,
      "district_id": 516,
      "name": "İSKELE MAH",
      "area": "İSKELE",
      "postal_code": "35441"
    },
    {
      "id": 37191,
      "district_id": 516,
      "name": "KADIOVACIK MAH",
      "area": "URLA",
      "postal_code": "35430"
    },
    {
      "id": 37192,
      "district_id": 516,
      "name": "KALABAK MAH",
      "area": "İSKELE",
      "postal_code": "35441"
    },
    {
      "id": 37193,
      "district_id": 516,
      "name": "KUŞÇULAR MAH",
      "area": "KUŞÇULAR",
      "postal_code": "35437"
    },
    {
      "id": 37194,
      "district_id": 516,
      "name": "M.FEVZİ ÇAKMAK MAH",
      "area": "ZEYTİNALANI",
      "postal_code": "35445"
    },
    {
      "id": 37195,
      "district_id": 516,
      "name": "NAİPLİ MAH",
      "area": "URLA",
      "postal_code": "35430"
    },
    {
      "id": 37196,
      "district_id": 516,
      "name": "NOHUTALAN MAH",
      "area": "URLA",
      "postal_code": "35430"
    },
    {
      "id": 37197,
      "district_id": 516,
      "name": "OVACIK MAH",
      "area": "URLA",
      "postal_code": "35430"
    },
    {
      "id": 37198,
      "district_id": 516,
      "name": "ÖZBEK MAH",
      "area": "ÖZBEK",
      "postal_code": "35434"
    },
    {
      "id": 37199,
      "district_id": 516,
      "name": "RÜSTEM MAH",
      "area": "URLA",
      "postal_code": "35430"
    },
    {
      "id": 37200,
      "district_id": 516,
      "name": "SIRA MAH",
      "area": "URLA",
      "postal_code": "35430"
    },
    {
      "id": 37201,
      "district_id": 516,
      "name": "ŞİRİNKENT MAH",
      "area": "ZEYTİNALANI",
      "postal_code": "35445"
    },
    {
      "id": 37202,
      "district_id": 516,
      "name": "TORASAN MAH",
      "area": "URLA",
      "postal_code": "35430"
    },
    {
      "id": 37203,
      "district_id": 516,
      "name": "UZUNKUYU MAH",
      "area": "URLA",
      "postal_code": "35430"
    },
    {
      "id": 37204,
      "district_id": 516,
      "name": "YAĞCILAR MAH",
      "area": "URLA",
      "postal_code": "35430"
    },
    {
      "id": 37205,
      "district_id": 516,
      "name": "YAKA MAH",
      "area": "URLA",
      "postal_code": "35430"
    },
    {
      "id": 37206,
      "district_id": 516,
      "name": "YELALTI MAH",
      "area": "URLA",
      "postal_code": "35430"
    },
    {
      "id": 37207,
      "district_id": 516,
      "name": "YENİ MAH",
      "area": "URLA",
      "postal_code": "35430"
    },
    {
      "id": 37208,
      "district_id": 516,
      "name": "YENİCE MAH",
      "area": "URLA",
      "postal_code": "35430"
    },
    {
      "id": 37209,
      "district_id": 516,
      "name": "YENİKENT MAH",
      "area": "URLA",
      "postal_code": "35430"
    },
    {
      "id": 37210,
      "district_id": 516,
      "name": "ZEYTİNALANI MAH",
      "area": "ZEYTİNALANI",
      "postal_code": "35445"
    },
    {
      "id": 37211,
      "district_id": 516,
      "name": "ZEYTİNELİ MAH",
      "area": "URLA",
      "postal_code": "35430"
    },
    {
      "id": 37212,
      "district_id": 516,
      "name": "ZEYTİNLER MAH",
      "area": "URLA",
      "postal_code": "35430"
    }
  ]
}