{
  "neighborhoods": [
    {
      "id": 37213,
      "district_id": 517,
      "name": "AFŞİNBEY MAH",
      "area": "AFŞİN",
      "postal_code": "46500"
    },
    {
      "id": 37214,
      "district_id": 517,
      "name": "AĞCAŞAR MAH",
      "area": "AFŞİN",
      "postal_code": "46500"
    },
    {
      "id": 37215,
      "district_id": 517,
      "name": "ALEMDAR MAH",
      "area": "AFŞİN",
      "postal_code": "46500"
    },
    {
      "id": 37216,
      "district_id": 517,
      "name": "ALİMPINAR MAH",
      "area": "AFŞİN",
      "postal_code": "46500"
    },
    {
      "id": 37217,
      "district_id": 517,
      "name": "ALPASLAN MAH",
      "area": "AFŞİN",
      "postal_code": "46500"
    },
    {
      "id": 37218,
      "district_id": 517,
      "name": "ALTAŞ MAH",
      "area": "AFŞİN",
      "postal_code": "46500"
    },
    {
      "id": 37219,
      "district_id": 517,
      "name": "ALTINELMA MAH",
      "area": "AFŞİN",
      "postal_code": "46500"
    },
    {
      "id": 37220,
      "district_id": 517,
      "name": "ANZOREY MAH",
      "area": "AFŞİN",
      "postal_code": "46500"
    },
    {
      "id": 37221,
      "district_id": 517,
      "name": "ARITAŞ MAH",
      "area": "AFŞİN",
      "postal_code": "46500"
    },
    {
      "id": 37222,
      "district_id": 517,
      "name": "ARMUTALAN MAH",
      "area": "AFŞİN",
      "postal_code": "46500"
    },
    {
      "id": 37223,
      "district_id": 517,
      "name": "BAKRAÇ MAH",
      "area": "AFŞİN",
      "postal_code": "46500"
    },
    {
      "id": 37224,
      "district_id": 517,
      "name": "BAŞÜSTÜ MAH",
      "area": "AFŞİN",
      "postal_code": "46500"
    },
    {
      "id": 37225,
      "district_id": 517,
      "name": "BERÇENEK MAH",
      "area": "AFŞİN",
      "postal_code": "46500"
    },
    {
      "id": 37226,
      "district_id": 517,
      "name": "BEYCEĞİZ MAH",
      "area": "AFŞİN",
      "postal_code": "46500"
    },
    {
      "id": 37227,
      "district_id": 517,
      "name": "BİNBOĞA MAH",
      "area": "AFŞİN",
      "postal_code": "46500"
    },
    {
      "id": 37228,
      "district_id": 517,
      "name": "BÜGET MAH",
      "area": "AFŞİN",
      "postal_code": "46500"
    },
    {
      "id": 37229,
      "district_id": 517,
      "name": "BÜYÜKSEVİN MAH",
      "area": "AFŞİN",
      "postal_code": "46500"
    },
    {
      "id": 37230,
      "district_id": 517,
      "name": "BÜYÜKTATLI MAH",
      "area": "AFŞİN",
      "postal_code": "46500"
    },
    {
      "id": 37231,
      "district_id": 517,
      "name": "ÇAĞILHAN MAH",
      "area": "AFŞİN",
      "postal_code": "46500"
    },
    {
      "id": 37232,
      "district_id": 517,
      "name": "ÇOBANBEYLİ MAH",
      "area": "AFŞİN",
      "postal_code": "46500"
    },
    {
      "id": 37233,
      "district_id": 517,
      "name": "ÇOĞULHAN MAH",
      "area": "AFŞİN",
      "postal_code": "46500"
    },
    {
      "id": 37234,
      "district_id": 517,
      "name": "ÇOMUDÜZ MAH",
      "area": "AFŞİN",
      "postal_code": "46500"
    },
    {
      "id": 37235,
      "district_id": 517,
      "name": "ÇUKURPINAR MAH",
      "area": "AFŞİN",
      "postal_code": "46500"
    },
    {
      "id": 37236,
      "district_id": 517,
      "name": "DEDEBABA MAH",
      "area": "AFŞİN",
      "postal_code": "46500"
    },
    {
      "id": 37237,
      "district_id": 517,
      "name": "DEVEBOYNU MAH",
      "area": "AFŞİN",
      "postal_code": "46500"
    },
    {
      "id": 37238,
      "district_id": 517,
      "name": "DOKUZTAY MAH",
      "area": "AFŞİN",
      "postal_code": "46500"
    },
    {
      "id": 37239,
      "district_id": 517,
      "name": "EFSUS TURAN MAH",
      "area": "AFŞİN",
      "postal_code": "46500"
    },
    {
      "id": 37240,
      "district_id": 517,
      "name": "EMİRİLYAS MAH",
      "area": "AFŞİN",
      "postal_code": "46500"
    },
    {
      "id": 37241,
      "district_id": 517,
      "name": "EMİRLİ MAH",
      "area": "AFŞİN",
      "postal_code": "46500"
    },
    {
      "id": 37242,
      "district_id": 517,
      "name": "ERÇENE MAH",
      "area": "AFŞİN",
      "postal_code": "46500"
    },
    {
      "id": 37243,
      "district_id": 517,
      "name": "ESENCE MAH",
      "area": "AFŞİN",
      "postal_code": "46500"
    },
    {
      "id": 37244,
      "district_id": 517,
      "name": "GAZİOSMANPAŞA MAH",
      "area": "AFŞİN",
      "postal_code": "46500"
    },
    {
      "id": 37245,
      "district_id": 517,
      "name": "GERGER MAH",
      "area": "AFŞİN",
      "postal_code": "46500"
    },
    {
      "id": 37246,
      "district_id": 517,
      "name": "GÖZPINARI MAH",
      "area": "AFŞİN",
      "postal_code": "46500"
    },
    {
      "id": 37247,
      "district_id": 517,
      "name": "GÜZELYURT MAH",
      "area": "AFŞİN",
      "postal_code": "46500"
    },
    {
      "id": 37248,
      "district_id": 517,
      "name": "HATİCEPINARI MAH",
      "area": "AFŞİN",
      "postal_code": "46500"
    },
    {
      "id": 37249,
      "district_id": 517,
      "name": "HURMAN MAH",
      "area": "AFŞİN",
      "postal_code": "46500"
    },
    {
      "id": 37250,
      "district_id": 517,
      "name": "HÜYÜKLÜ MAH",
      "area": "AFŞİN",
      "postal_code": "46500"
    },
    {
      "id": 37251,
      "district_id": 517,
      "name": "İĞDEMLİK MAH",
      "area": "AFŞİN",
      "postal_code": "46500"
    },
    {
      "id": 37252,
      "district_id": 517,
      "name": "İNCİ MAH",
      "area": "AFŞİN",
      "postal_code": "46500"
    },
    {
      "id": 37253,
      "district_id": 517,
      "name": "İNCİRLİ MAH",
      "area": "AFŞİN",
      "postal_code": "46500"
    },
    {
      "id": 37254,
      "district_id": 517,
      "name": "KABAAĞAÇ MAH",
      "area": "AFŞİN",
      "postal_code": "46500"
    },
    {
      "id": 37255,
      "district_id": 517,
      "name": "KALE MAH",
      "area": "AFŞİN",
      "postal_code": "46500"
    },
    {
      "id": 37256,
      "district_id": 517,
      "name": "KANGAL MAH",
      "area": "AFŞİN",
      "postal_code": "46500"
    },
    {
      "id": 37257,
      "district_id": 517,
      "name": "KARAGÖZ MAH",
      "area": "AFŞİN",
      "postal_code": "46500"
    },
    {
      "id": 37258,
      "district_id": 517,
      "name": "KAŞANLI MAH",
      "area": "AFŞİN",
      "postal_code": "46500"
    },
    {
      "id": 37259,
      "district_id": 517,
      "name": "KOÇOVASI MAH",
      "area": "AFŞİN",
      "postal_code": "46500"
    },
    {
      "id": 37260,
      "district_id": 517,
      "name": "KÖTÜRE MAH",
      "area": "AFŞİN",
      "postal_code": "46500"
    },
    {
      "id": 37261,
      "district_id": 517,
      "name": "KUŞKAYASI MAH",
      "area": "AFŞİN",
      "postal_code": "46500"
    },
    {
      "id": 37262,
      "district_id": 517,
      "name": "MARABUZ MAH",
      "area": "AFŞİN",
      "postal_code": "46500"
    },
    {
      "id": 37263,
      "district_id": 517,
      "name": "MEHRE MAH",
      "area": "AFŞİN",
      "postal_code": "46500"
    },
    {
      "id": 37264,
      "district_id": 517,
      "name": "NADIR MAH",
      "area": "AFŞİN",
      "postal_code": "46500"
    },
    {
      "id": 37265,
      "district_id": 517,
      "name": "OĞLAKKAYASI MAH",
      "area": "AFŞİN",
      "postal_code": "46500"
    },
    {
      "id": 37266,
      "district_id": 517,
      "name": "ÖRENDERESİ MAH",
      "area": "AFŞİN",
      "postal_code": "46500"
    },
    {
      "id": 37267,
      "district_id": 517,
      "name": "ÖRENLİ MAH",
      "area": "AFŞİN",
      "postal_code": "46500"
    },
    {
      "id": 37268,
      "district_id": 517,
      "name": "PINARBAŞI MAH",
      "area": "AFŞİN",
      "postal_code": "46500"
    },
    {
      "id": 37269,
      "district_id": 517,
      "name": "SOĞUCAK MAH",
      "area": "AFŞİN",
      "postal_code": "46500"
    },
    {
      "id": 37270,
      "district_id": 517,
      "name": "SÖĞÜTDERESİ MAH",
      "area": "AFŞİN",
      "postal_code": "46500"
    },
    {
      "id": 37271,
      "district_id": 517,
      "name": "TANIR MAH",
      "area": "AFŞİN",
      "postal_code": "46500"
    },
    {
      "id": 37272,
      "district_id": 517,
      "name": "TATLAR MAH",
      "area": "AFŞİN",
      "postal_code": "46500"
    },
    {
      "id": 37273,
      "district_id": 517,
      "name": "TOPAKTAŞ MAH",
      "area": "AFŞİN",
      "postal_code": "46500"
    },
    {
      "id": 37274,
      "district_id": 517,
      "name": "TÜRKÇAYIRI MAH",
      "area": "AFŞİN",
      "postal_code": "46500"
    },
    {
      "id": 37275,
      "district_id": 517,
      "name": "TÜRKSEVİN MAH",
      "area": "AFŞİN",
      "postal_code": "46500"
    },
    {
      "id": 37276,
      "district_id": 517,
      "name": "YAZIDERE MAH",
      "area": "AFŞİN",
      "postal_code": "46500"
    },
    {
      "id": 37277,
      "district_id": 517,
      "name": "YAZIKÖY MAH",
      "area": "AFŞİN",
      "postal_code": "46500"
    },
    {
      "id": 37278,
      "district_id": 517,
      "name": "YEŞİLYURT MAH",
      "area": "AFŞİN",
      "postal_code": "46500"
    },
    {
      "id": 37279,
      "district_id": 518,
      "name": "AKÇAKOYUNLU MAH",
      "area": "ANDIRIN",
      "postal_code": "46400"
    },
    {
      "id": 37280,
      "district_id": 518,
      "name": "AKGÜMÜŞ MAH",
      "area": "ANDIRIN",
      "postal_code": "46400"
    },
    {
      "id": 37281,
      "district_id": 518,
      "name": "AKİFİYE MAH",
      "area": "ANDIRIN",
      "postal_code": "46400"
    },
    {
      "id": 37282,
      "district_id": 518,
      "name": "ALAMEŞE MAH",
      "area": "ANDIRIN",
      "postal_code": "46400"
    },
    {
      "id": 37283,
      "district_id": 518,
      "name": "ALANLI MAH",
      "area": "ANDIRIN",
      "postal_code": "46400"
    },
    {
      "id": 37284,
      "district_id": 518,
      "name": "ALINOLUK MAH",
      "area": "ANDIRIN",
      "postal_code": "46400"
    },
    {
      "id": 37285,
      "district_id": 518,
      "name": "ALTINBOĞA MAH",
      "area": "ANDIRIN",
      "postal_code": "46400"
    },
    {
      "id": 37286,
      "district_id": 518,
      "name": "ALTINYAYLA MAH",
      "area": "ANDIRIN",
      "postal_code": "46400"
    },
    {
      "id": 37287,
      "district_id": 518,
      "name": "ANACIK MAH",
      "area": "ANDIRIN",
      "postal_code": "46400"
    },
    {
      "id": 37288,
      "district_id": 518,
      "name": "ARIKLAR MAH",
      "area": "ANDIRIN",
      "postal_code": "46400"
    },
    {
      "id": 37289,
      "district_id": 518,
      "name": "BAŞDOĞAN MAH",
      "area": "ANDIRIN",
      "postal_code": "46400"
    },
    {
      "id": 37290,
      "district_id": 518,
      "name": "BEKTAŞLI MAH",
      "area": "ANDIRIN",
      "postal_code": "46400"
    },
    {
      "id": 37291,
      "district_id": 518,
      "name": "BEŞBUCAK MAH",
      "area": "ANDIRIN",
      "postal_code": "46400"
    },
    {
      "id": 37292,
      "district_id": 518,
      "name": "BOĞAZÖREN MAH",
      "area": "ANDIRIN",
      "postal_code": "46400"
    },
    {
      "id": 37293,
      "district_id": 518,
      "name": "BOSTANLI MAH",
      "area": "ANDIRIN",
      "postal_code": "46400"
    },
    {
      "id": 37294,
      "district_id": 518,
      "name": "BOYNUYOĞUNLU MAH",
      "area": "ANDIRIN",
      "postal_code": "46400"
    },
    {
      "id": 37295,
      "district_id": 518,
      "name": "BOZTOPRAKLI MAH",
      "area": "ANDIRIN",
      "postal_code": "46400"
    },
    {
      "id": 37296,
      "district_id": 518,
      "name": "BULGURKAYA MAH",
      "area": "ANDIRIN",
      "postal_code": "46400"
    },
    {
      "id": 37297,
      "district_id": 518,
      "name": "CAMBAZ MAH",
      "area": "ÇOKAK",
      "postal_code": "46430"
    },
    {
      "id": 37298,
      "district_id": 518,
      "name": "CAMUZLUK MAH",
      "area": "ANDIRIN",
      "postal_code": "46400"
    },
    {
      "id": 37299,
      "district_id": 518,
      "name": "ÇİÇEKLİ MAH",
      "area": "ANDIRIN",
      "postal_code": "46400"
    },
    {
      "id": 37300,
      "district_id": 518,
      "name": "ÇİĞŞAR MAH",
      "area": "ÇOKAK",
      "postal_code": "46430"
    },
    {
      "id": 37301,
      "district_id": 518,
      "name": "ÇOKAK MAH",
      "area": "ÇOKAK",
      "postal_code": "46430"
    },
    {
      "id": 37302,
      "district_id": 518,
      "name": "ÇUHADARLI MAH",
      "area": "ANDIRIN",
      "postal_code": "46400"
    },
    {
      "id": 37303,
      "district_id": 518,
      "name": "DARIOVASI MAH",
      "area": "ANDIRIN",
      "postal_code": "46400"
    },
    {
      "id": 37304,
      "district_id": 518,
      "name": "EFİRAĞIZLI MAH",
      "area": "ANDIRIN",
      "postal_code": "46400"
    },
    {
      "id": 37305,
      "district_id": 518,
      "name": "EMİRLER MAH",
      "area": "ANDIRIN",
      "postal_code": "46400"
    },
    {
      "id": 37306,
      "district_id": 518,
      "name": "ERENLER MAH",
      "area": "ANDIRIN",
      "postal_code": "46400"
    },
    {
      "id": 37307,
      "district_id": 518,
      "name": "GEBEN MAH",
      "area": "ANDIRIN",
      "postal_code": "46400"
    },
    {
      "id": 37308,
      "district_id": 518,
      "name": "GÖKAHMETLİ MAH",
      "area": "ANDIRIN",
      "postal_code": "46400"
    },
    {
      "id": 37309,
      "district_id": 518,
      "name": "GÖKÇELİ MAH",
      "area": "ANDIRIN",
      "postal_code": "46400"
    },
    {
      "id": 37310,
      "district_id": 518,
      "name": "GÖKGEDİK MAH",
      "area": "ANDIRIN",
      "postal_code": "46400"
    },
    {
      "id": 37311,
      "district_id": 518,
      "name": "HACIVELİUŞAĞI MAH",
      "area": "ANDIRIN",
      "postal_code": "46400"
    },
    {
      "id": 37312,
      "district_id": 518,
      "name": "KABAAĞAÇ MAH",
      "area": "ANDIRIN",
      "postal_code": "46400"
    },
    {
      "id": 37313,
      "district_id": 518,
      "name": "KABAKLAR MAH",
      "area": "ANDIRIN",
      "postal_code": "46400"
    },
    {
      "id": 37314,
      "district_id": 518,
      "name": "KALEBOYNU MAH",
      "area": "ANDIRIN",
      "postal_code": "46400"
    },
    {
      "id": 37315,
      "district_id": 518,
      "name": "KARAPINAR MAH",
      "area": "ANDIRIN",
      "postal_code": "46400"
    },
    {
      "id": 37316,
      "district_id": 518,
      "name": "KARGAÇAYIRI MAH",
      "area": "ANDIRIN",
      "postal_code": "46400"
    },
    {
      "id": 37317,
      "district_id": 518,
      "name": "KIYIKÇI MAH",
      "area": "ANDIRIN",
      "postal_code": "46400"
    },
    {
      "id": 37318,
      "district_id": 518,
      "name": "KIZIK MAH",
      "area": "ANDIRIN",
      "postal_code": "46400"
    },
    {
      "id": 37319,
      "district_id": 518,
      "name": "KÖKLÜ MAH",
      "area": "ANDIRIN",
      "postal_code": "46400"
    },
    {
      "id": 37320,
      "district_id": 518,
      "name": "KÖLELİ MAH",
      "area": "ANDIRIN",
      "postal_code": "46400"
    },
    {
      "id": 37321,
      "district_id": 518,
      "name": "KUMARLI MAH",
      "area": "ANDIRIN",
      "postal_code": "46400"
    },
    {
      "id": 37322,
      "district_id": 518,
      "name": "KUZGUN MAH",
      "area": "ANDIRIN",
      "postal_code": "46400"
    },
    {
      "id": 37323,
      "district_id": 518,
      "name": "ORHANİYE MAH",
      "area": "ÇOKAK",
      "postal_code": "46430"
    },
    {
      "id": 37324,
      "district_id": 518,
      "name": "OSMANCIK MAH",
      "area": "ÇOKAK",
      "postal_code": "46430"
    },
    {
      "id": 37325,
      "district_id": 518,
      "name": "PINARBAŞI MAH",
      "area": "ANDIRIN",
      "postal_code": "46400"
    },
    {
      "id": 37326,
      "district_id": 518,
      "name": "RİFATİYE MAH",
      "area": "ÇOKAK",
      "postal_code": "46430"
    },
    {
      "id": 37327,
      "district_id": 518,
      "name": "SUMAKLI MAH",
      "area": "ANDIRIN",
      "postal_code": "46400"
    },
    {
      "id": 37328,
      "district_id": 518,
      "name": "TATARLI MAH",
      "area": "ANDIRIN",
      "postal_code": "46400"
    },
    {
      "id": 37329,
      "district_id": 518,
      "name": "TORUN MAH",
      "area": "ANDIRIN",
      "postal_code": "46400"
    },
    {
      "id": 37330,
      "district_id": 518,
      "name": "TUFAN PAŞA MAH",
      "area": "ANDIRIN",
      "postal_code": "46400"
    },
    {
      "id": 37331,
      "district_id": 518,
      "name": "YENİ MAH",
      "area": "ANDIRIN",
      "postal_code": "46400"
    },
    {
      "id": 37332,
      "district_id": 518,
      "name": "YENİKÖY MAH",
      "area": "ANDIRIN",
      "postal_code": "46400"
    },
    {
      "id": 37333,
      "district_id": 518,
      "name": "YEŞİLOVA MAH",
      "area": "ANDIRIN",
      "postal_code": "46400"
    },
    {
      "id": 37334,
      "district_id": 518,
      "name": "YEŞİLTEPE MAH",
      "area": "ÇOKAK",
      "postal_code": "46430"
    },
    {
      "id": 37335,
      "district_id": 518,
      "name": "YEŞİLYURT MAH",
      "area": "ANDIRIN",
      "postal_code": "46400"
    },
    {
      "id": 37336,
      "district_id": 519,
      "name": "AKDERE MAH",
      "area": "ÇAĞLAYANCERİT",
      "postal_code": "46720"
    },
    {
      "id": 37337,
      "district_id": 519,
      "name": "AKSU MAH",
      "area": "ÇAĞLAYANCERİT",
      "postal_code": "46720"
    },
    {
      "id": 37338,
      "district_id": 519,
      "name": "BAYIRLI MAH",
      "area": "ÇAĞLAYANCERİT",
      "postal_code": "46720"
    },
    {
      "id": 37339,
      "district_id": 519,
      "name": "BÖLÜKDAMLAR MAH",
      "area": "ÇAĞLAYANCERİT",
      "postal_code": "46720"
    },
    {
      "id": 37340,
      "district_id": 519,
      "name": "BOYLU MAH",
      "area": "ÇAĞLAYANCERİT",
      "postal_code": "46720"
    },
    {
      "id": 37341,
      "district_id": 519,
      "name": "BOZLAR MAH",
      "area": "ÇAĞLAYANCERİT",
      "postal_code": "46720"
    },
    {
      "id": 37342,
      "district_id": 519,
      "name": "EMİRUŞAĞI MAH",
      "area": "ÇAĞLAYANCERİT",
      "postal_code": "46720"
    },
    {
      "id": 37343,
      "district_id": 519,
      "name": "ENGİZEK MAH",
      "area": "ÇAĞLAYANCERİT",
      "postal_code": "46720"
    },
    {
      "id": 37344,
      "district_id": 519,
      "name": "FATİH MAH",
      "area": "ÇAĞLAYANCERİT",
      "postal_code": "46720"
    },
    {
      "id": 37345,
      "district_id": 519,
      "name": "HELETE CUMHURİYET MAH",
      "area": "ÇAĞLAYANCERİT",
      "postal_code": "46720"
    },
    {
      "id": 37346,
      "district_id": 519,
      "name": "HELETE KARADAĞ MAH",
      "area": "ÇAĞLAYANCERİT",
      "postal_code": "46720"
    },
    {
      "id": 37347,
      "district_id": 519,
      "name": "HELETE YEŞİLOBA MAH",
      "area": "ÇAĞLAYANCERİT",
      "postal_code": "46720"
    },
    {
      "id": 37348,
      "district_id": 519,
      "name": "İSTİKLAL MAH",
      "area": "ÇAĞLAYANCERİT",
      "postal_code": "46720"
    },
    {
      "id": 37349,
      "district_id": 519,
      "name": "KALE MAH",
      "area": "ÇAĞLAYANCERİT",
      "postal_code": "46720"
    },
    {
      "id": 37350,
      "district_id": 519,
      "name": "KÜÇÜKCERİT MAH",
      "area": "ÇAĞLAYANCERİT",
      "postal_code": "46720"
    },
    {
      "id": 37351,
      "district_id": 519,
      "name": "KÜÇÜKÜNGÜT MAH",
      "area": "ÇAĞLAYANCERİT",
      "postal_code": "46720"
    },
    {
      "id": 37352,
      "district_id": 519,
      "name": "ORUÇPINAR MAH",
      "area": "ÇAĞLAYANCERİT",
      "postal_code": "46720"
    },
    {
      "id": 37353,
      "district_id": 519,
      "name": "SOĞUKPINAR MAH",
      "area": "ÇAĞLAYANCERİT",
      "postal_code": "46720"
    },
    {
      "id": 37354,
      "district_id": 519,
      "name": "ZEYNEPUŞAĞI MAH",
      "area": "ÇAĞLAYANCERİT",
      "postal_code": "46720"
    },
    {
      "id": 37355,
      "district_id": 520,
      "name": "ABBASLAR MAH",
      "area": "AĞABEYLİ",
      "postal_code": "46130"
    },
    {
      "id": 37356,
      "district_id": 520,
      "name": "AĞABEYLİ MAH",
      "area": "AĞABEYLİ",
      "postal_code": "46130"
    },
    {
      "id": 37357,
      "district_id": 520,
      "name": "AKSU MAH",
      "area": "SANAYİ",
      "postal_code": "46080"
    },
    {
      "id": 37358,
      "district_id": 520,
      "name": "AKYAR MAH",
      "area": "AĞABEYLİ",
      "postal_code": "46130"
    },
    {
      "id": 37359,
      "district_id": 520,
      "name": "ALİBEYUŞAĞI MAH",
      "area": "AĞABEYLİ",
      "postal_code": "46130"
    },
    {
      "id": 37360,
      "district_id": 520,
      "name": "ARSLANBEY ÇİFTLİĞİ MAH",
      "area": "AĞABEYLİ",
      "postal_code": "46130"
    },
    {
      "id": 37361,
      "district_id": 520,
      "name": "ASLAN BEY MAH",
      "area": "SÜTÇÜİMAM",
      "postal_code": "46030"
    },
    {
      "id": 37362,
      "district_id": 520,
      "name": "AYAKLICAOLUK MAH",
      "area": "AĞABEYLİ",
      "postal_code": "46130"
    },
    {
      "id": 37363,
      "district_id": 520,
      "name": "BAĞLARBAŞI MAH",
      "area": "SANAYİ",
      "postal_code": "46080"
    },
    {
      "id": 37364,
      "district_id": 520,
      "name": "BAHÇELİ EVLER MAH",
      "area": "SANAYİ",
      "postal_code": "46080"
    },
    {
      "id": 37365,
      "district_id": 520,
      "name": "BAHÇELİ MAH",
      "area": "AĞABEYLİ",
      "postal_code": "46130"
    },
    {
      "id": 37366,
      "district_id": 520,
      "name": "BALLICA MAH",
      "area": "SÜTÇÜİMAM",
      "postal_code": "46030"
    },
    {
      "id": 37367,
      "district_id": 520,
      "name": "BAŞDEVRİŞLİ MAH",
      "area": "AĞABEYLİ",
      "postal_code": "46130"
    },
    {
      "id": 37368,
      "district_id": 520,
      "name": "BAYAZITLI MAH",
      "area": "SÜTÇÜİMAM",
      "postal_code": "46030"
    },
    {
      "id": 37369,
      "district_id": 520,
      "name": "BAYDEMİRLİ MAH",
      "area": "AĞABEYLİ",
      "postal_code": "46130"
    },
    {
      "id": 37370,
      "district_id": 520,
      "name": "BEŞENLİ MAH",
      "area": "AĞABEYLİ",
      "postal_code": "46130"
    },
    {
      "id": 37371,
      "district_id": 520,
      "name": "BOYALI MAH",
      "area": "AĞABEYLİ",
      "postal_code": "46130"
    },
    {
      "id": 37372,
      "district_id": 520,
      "name": "BUDAKLI MAH",
      "area": "AĞABEYLİ",
      "postal_code": "46130"
    },
    {
      "id": 37373,
      "district_id": 520,
      "name": "BULANIK MAH",
      "area": "AĞABEYLİ",
      "postal_code": "46130"
    },
    {
      "id": 37374,
      "district_id": 520,
      "name": "ÇATMAYAYLA MAH",
      "area": "AĞABEYLİ",
      "postal_code": "46130"
    },
    {
      "id": 37375,
      "district_id": 520,
      "name": "ÇİĞLİ MAH",
      "area": "AĞABEYLİ",
      "postal_code": "46130"
    },
    {
      "id": 37376,
      "district_id": 520,
      "name": "ÇINARLI MAH",
      "area": "AĞABEYLİ",
      "postal_code": "46130"
    },
    {
      "id": 37377,
      "district_id": 520,
      "name": "ÇOBANLI MAH",
      "area": "AĞABEYLİ",
      "postal_code": "46130"
    },
    {
      "id": 37378,
      "district_id": 520,
      "name": "ÇOKYAŞAR MAH",
      "area": "AĞABEYLİ",
      "postal_code": "46130"
    },
    {
      "id": 37379,
      "district_id": 520,
      "name": "DEMİRCİLER MAH",
      "area": "AĞABEYLİ",
      "postal_code": "46130"
    },
    {
      "id": 37380,
      "district_id": 520,
      "name": "DENİZLİ MAH",
      "area": "AĞABEYLİ",
      "postal_code": "46130"
    },
    {
      "id": 37381,
      "district_id": 520,
      "name": "DEREKÖY MAH",
      "area": "AĞABEYLİ",
      "postal_code": "46130"
    },
    {
      "id": 37382,
      "district_id": 520,
      "name": "DERELİ MAH",
      "area": "AĞABEYLİ",
      "postal_code": "46130"
    },
    {
      "id": 37383,
      "district_id": 520,
      "name": "DİVANLI MAH",
      "area": "ADLİYE",
      "postal_code": "46100"
    },
    {
      "id": 37384,
      "district_id": 520,
      "name": "DOĞANLIKARAHASAN MAH",
      "area": "AĞABEYLİ",
      "postal_code": "46130"
    },
    {
      "id": 37385,
      "district_id": 520,
      "name": "DOĞU KENT MAH",
      "area": "SÜTÇÜİMAM",
      "postal_code": "46030"
    },
    {
      "id": 37386,
      "district_id": 520,
      "name": "DULKADİROĞLU MAH",
      "area": "SANAYİ",
      "postal_code": "46080"
    },
    {
      "id": 37387,
      "district_id": 520,
      "name": "DURAKLI MAH",
      "area": "SÜTÇÜİMAM",
      "postal_code": "46030"
    },
    {
      "id": 37388,
      "district_id": 520,
      "name": "EGEMENLİK MAH",
      "area": "SANAYİ",
      "postal_code": "46080"
    },
    {
      "id": 37389,
      "district_id": 520,
      "name": "EKBEROĞLU MAH",
      "area": "AĞABEYLİ",
      "postal_code": "46130"
    },
    {
      "id": 37390,
      "district_id": 520,
      "name": "EKMEKÇİ MAH",
      "area": "ADLİYE",
      "postal_code": "46100"
    },
    {
      "id": 37391,
      "district_id": 520,
      "name": "ELMALAR MAH",
      "area": "AĞABEYLİ",
      "postal_code": "46130"
    },
    {
      "id": 37392,
      "district_id": 520,
      "name": "ERKENEZ MAH",
      "area": "SANAYİ",
      "postal_code": "46080"
    },
    {
      "id": 37393,
      "district_id": 520,
      "name": "ESKİNARLI MAH",
      "area": "AĞABEYLİ",
      "postal_code": "46130"
    },
    {
      "id": 37394,
      "district_id": 520,
      "name": "EYÜP SULTAN MAH",
      "area": "SANAYİ",
      "postal_code": "46080"
    },
    {
      "id": 37395,
      "district_id": 520,
      "name": "FEVZİ PAŞA MAH",
      "area": "SÜTÇÜİMAM",
      "postal_code": "46030"
    },
    {
      "id": 37396,
      "district_id": 520,
      "name": "GAFFARLI MAH",
      "area": "AĞABEYLİ",
      "postal_code": "46130"
    },
    {
      "id": 37397,
      "district_id": 520,
      "name": "GAZİ PAŞA MAH",
      "area": "SÜTÇÜİMAM",
      "postal_code": "46030"
    },
    {
      "id": 37398,
      "district_id": 520,
      "name": "GENÇ OSMAN MAH",
      "area": "SANAYİ",
      "postal_code": "46080"
    },
    {
      "id": 37399,
      "district_id": 520,
      "name": "GÖLLÜ MAH",
      "area": "AĞABEYLİ",
      "postal_code": "46130"
    },
    {
      "id": 37400,
      "district_id": 520,
      "name": "GÜLTEPE MAH",
      "area": "SANAYİ",
      "postal_code": "46080"
    },
    {
      "id": 37401,
      "district_id": 520,
      "name": "GÜNEŞEVLER MAH",
      "area": "AĞABEYLİ",
      "postal_code": "46130"
    },
    {
      "id": 37402,
      "district_id": 520,
      "name": "GÜZELYURT MAH",
      "area": "AĞABEYLİ",
      "postal_code": "46130"
    },
    {
      "id": 37403,
      "district_id": 520,
      "name": "HACIEYÜPLÜ MAH",
      "area": "AĞABEYLİ",
      "postal_code": "46130"
    },
    {
      "id": 37404,
      "district_id": 520,
      "name": "HALKAÇAYIRI MAH",
      "area": "AĞABEYLİ",
      "postal_code": "46130"
    },
    {
      "id": 37405,
      "district_id": 520,
      "name": "İSA DİVANLI MAH",
      "area": "ADLİYE",
      "postal_code": "46100"
    },
    {
      "id": 37406,
      "district_id": 520,
      "name": "İSMET PAŞA MAH",
      "area": "ADLİYE",
      "postal_code": "46100"
    },
    {
      "id": 37407,
      "district_id": 520,
      "name": "İSTASYON MAH",
      "area": "SANAYİ",
      "postal_code": "46080"
    },
    {
      "id": 37408,
      "district_id": 520,
      "name": "KABASAKAL MAH",
      "area": "AĞABEYLİ",
      "postal_code": "46130"
    },
    {
      "id": 37409,
      "district_id": 520,
      "name": "KANUNİ MAH",
      "area": "SANAYİ",
      "postal_code": "46080"
    },
    {
      "id": 37410,
      "district_id": 520,
      "name": "KAPIÇAM MAH",
      "area": "AĞABEYLİ",
      "postal_code": "46130"
    },
    {
      "id": 37411,
      "district_id": 520,
      "name": "KARACASU FERHUŞ MAH",
      "area": "SANAYİ",
      "postal_code": "46080"
    },
    {
      "id": 37412,
      "district_id": 520,
      "name": "KARACASU KARAZİYARET MAH",
      "area": "SANAYİ",
      "postal_code": "46080"
    },
    {
      "id": 37413,
      "district_id": 520,
      "name": "KARACASU KARŞIYAKA MAH",
      "area": "SANAYİ",
      "postal_code": "46080"
    },
    {
      "id": 37414,
      "district_id": 520,
      "name": "KARACASU KIRIM MAH",
      "area": "SANAYİ",
      "postal_code": "46080"
    },
    {
      "id": 37415,
      "district_id": 520,
      "name": "KARACASU MAMARAŞ MAH",
      "area": "SANAYİ",
      "postal_code": "46080"
    },
    {
      "id": 37416,
      "district_id": 520,
      "name": "KARAMANLI MAH",
      "area": "AĞABEYLİ",
      "postal_code": "46130"
    },
    {
      "id": 37417,
      "district_id": 520,
      "name": "KARATAŞ MAH",
      "area": "SANAYİ",
      "postal_code": "46080"
    },
    {
      "id": 37418,
      "district_id": 520,
      "name": "KARTAL MAH",
      "area": "AĞABEYLİ",
      "postal_code": "46130"
    },
    {
      "id": 37419,
      "district_id": 520,
      "name": "KAYABAŞI MAH",
      "area": "SÜTÇÜİMAM",
      "postal_code": "46030"
    },
    {
      "id": 37420,
      "district_id": 520,
      "name": "KAZANLIPINAR MAH",
      "area": "AĞABEYLİ",
      "postal_code": "46130"
    },
    {
      "id": 37421,
      "district_id": 520,
      "name": "KEMALLI MAH",
      "area": "AĞABEYLİ",
      "postal_code": "46130"
    },
    {
      "id": 37422,
      "district_id": 520,
      "name": "KILAĞLI MAH",
      "area": "AĞABEYLİ",
      "postal_code": "46130"
    },
    {
      "id": 37423,
      "district_id": 520,
      "name": "KOCOLAR MAH",
      "area": "AĞABEYLİ",
      "postal_code": "46130"
    },
    {
      "id": 37424,
      "district_id": 520,
      "name": "KOZLUDERE MAH",
      "area": "AĞABEYLİ",
      "postal_code": "46130"
    },
    {
      "id": 37425,
      "district_id": 520,
      "name": "KÜÇÜKNACAR MAH",
      "area": "AĞABEYLİ",
      "postal_code": "46130"
    },
    {
      "id": 37426,
      "district_id": 520,
      "name": "KÜPELİKIZ MAH",
      "area": "AĞABEYLİ",
      "postal_code": "46130"
    },
    {
      "id": 37427,
      "district_id": 520,
      "name": "KURTULUŞ MAH",
      "area": "ADLİYE",
      "postal_code": "46100"
    },
    {
      "id": 37428,
      "district_id": 520,
      "name": "KUZUCAK MAH",
      "area": "AĞABEYLİ",
      "postal_code": "46130"
    },
    {
      "id": 37429,
      "district_id": 520,
      "name": "MAKSUTUŞAĞI MAH",
      "area": "AĞABEYLİ",
      "postal_code": "46130"
    },
    {
      "id": 37430,
      "district_id": 520,
      "name": "MEHMET AKİF MAH",
      "area": "SANAYİ",
      "postal_code": "46080"
    },
    {
      "id": 37431,
      "district_id": 520,
      "name": "MENDERES MAH",
      "area": "ADLİYE",
      "postal_code": "46100"
    },
    {
      "id": 37432,
      "district_id": 520,
      "name": "NAMIK KEMAL MAH",
      "area": "SANAYİ",
      "postal_code": "46080"
    },
    {
      "id": 37433,
      "district_id": 520,
      "name": "NAVRUZLU MAH",
      "area": "AĞABEYLİ",
      "postal_code": "46130"
    },
    {
      "id": 37434,
      "district_id": 520,
      "name": "ÖKSÜZLÜ MAH",
      "area": "AĞABEYLİ",
      "postal_code": "46130"
    },
    {
      "id": 37435,
      "district_id": 520,
      "name": "OSMANBEY MAH",
      "area": "AĞABEYLİ",
      "postal_code": "46130"
    },
    {
      "id": 37436,
      "district_id": 520,
      "name": "PEYNİRDERE MAH",
      "area": "AĞABEYLİ",
      "postal_code": "46130"
    },
    {
      "id": 37437,
      "district_id": 520,
      "name": "PINARBAŞI MAH",
      "area": "SÜTÇÜİMAM",
      "postal_code": "46030"
    },
    {
      "id": 37438,
      "district_id": 520,
      "name": "SAKARYA MAH",
      "area": "ADLİYE",
      "postal_code": "46100"
    },
    {
      "id": 37439,
      "district_id": 520,
      "name": "SARIKAYA MAH",
      "area": "AĞABEYLİ",
      "postal_code": "46130"
    },
    {
      "id": 37440,
      "district_id": 520,
      "name": "SENEM AYŞE MAH",
      "area": "SÜTÇÜİMAM",
      "postal_code": "46030"
    },
    {
      "id": 37441,
      "district_id": 520,
      "name": "ŞEREFOĞLU MAH",
      "area": "AĞABEYLİ",
      "postal_code": "46130"
    },
    {
      "id": 37442,
      "district_id": 520,
      "name": "ŞEYH ADİL MAH",
      "area": "SANAYİ",
      "postal_code": "46080"
    },
    {
      "id": 37443,
      "district_id": 520,
      "name": "ŞEYH ŞAMİL MAH",
      "area": "SANAYİ",
      "postal_code": "46080"
    },
    {
      "id": 37444,
      "district_id": 520,
      "name": "SEYRANTEPE MAH",
      "area": "AĞABEYLİ",
      "postal_code": "46130"
    },
    {
      "id": 37445,
      "district_id": 520,
      "name": "SİVRİCEHÜYÜK MAH",
      "area": "AĞABEYLİ",
      "postal_code": "46130"
    },
    {
      "id": 37446,
      "district_id": 520,
      "name": "SÖĞÜTLÜ MAH",
      "area": "AĞABEYLİ",
      "postal_code": "46130"
    },
    {
      "id": 37447,
      "district_id": 520,
      "name": "SÜMER MAH",
      "area": "SANAYİ",
      "postal_code": "46080"
    },
    {
      "id": 37448,
      "district_id": 520,
      "name": "SÜTÇÜ İMAM MAH",
      "area": "SÜTÇÜİMAM",
      "postal_code": "46030"
    },
    {
      "id": 37449,
      "district_id": 520,
      "name": "TEVEKKELLİ MAH",
      "area": "AĞABEYLİ",
      "postal_code": "46130"
    },
    {
      "id": 37450,
      "district_id": 520,
      "name": "TURAN MAH",
      "area": "ADLİYE",
      "postal_code": "46100"
    },
    {
      "id": 37451,
      "district_id": 520,
      "name": "ULUTAŞ MAH",
      "area": "AĞABEYLİ",
      "postal_code": "46130"
    },
    {
      "id": 37452,
      "district_id": 520,
      "name": "YAHYA KEMAL MAH",
      "area": "SÜTÇÜİMAM",
      "postal_code": "46030"
    },
    {
      "id": 37453,
      "district_id": 520,
      "name": "YAVUZ SELİM MAH",
      "area": "SANAYİ",
      "postal_code": "46080"
    },
    {
      "id": 37454,
      "district_id": 520,
      "name": "YENİ ŞEHİR MAH",
      "area": "ADLİYE",
      "postal_code": "46100"
    },
    {
      "id": 37455,
      "district_id": 520,
      "name": "YENİKENT MAH",
      "area": "AĞABEYLİ",
      "postal_code": "46130"
    },
    {
      "id": 37456,
      "district_id": 520,
      "name": "YENİPINAR MAH",
      "area": "AĞABEYLİ",
      "postal_code": "46130"
    },
    {
      "id": 37457,
      "district_id": 520,
      "name": "YENİYURT MAH",
      "area": "AĞABEYLİ",
      "postal_code": "46130"
    },
    {
      "id": 37458,
      "district_id": 520,
      "name": "YEŞİLTEPE MAH",
      "area": "SÜTÇÜİMAM",
      "postal_code": "46030"
    },
    {
      "id": 37459,
      "district_id": 520,
      "name": "YUSUFHACILI MAH",
      "area": "AĞABEYLİ",
      "postal_code": "46130"
    },
    {
      "id": 37460,
      "district_id": 521,
      "name": "AKPINAR MAH",
      "area": "EKİNÖZÜ",
      "postal_code": "46360"
    },
    {
      "id": 37461,
      "district_id": 521,
      "name": "ALİŞAR MAH",
      "area": "EKİNÖZÜ",
      "postal_code": "46360"
    },
    {
      "id": 37462,
      "district_id": 521,
      "name": "ALTUNYAPRAK MAH",
      "area": "EKİNÖZÜ",
      "postal_code": "46360"
    },
    {
      "id": 37463,
      "district_id": 521,
      "name": "ANBAR MAH",
      "area": "EKİNÖZÜ",
      "postal_code": "46360"
    },
    {
      "id": 37464,
      "district_id": 521,
      "name": "ATAKÖY MAH",
      "area": "EKİNÖZÜ",
      "postal_code": "46360"
    },
    {
      "id": 37465,
      "district_id": 521,
      "name": "ÇİFTLİK MAH",
      "area": "EKİNÖZÜ",
      "postal_code": "46360"
    },
    {
      "id": 37466,
      "district_id": 521,
      "name": "ÇİFTLİKKALE MAH",
      "area": "EKİNÖZÜ",
      "postal_code": "46360"
    },
    {
      "id": 37467,
      "district_id": 521,
      "name": "DEMİRLİK MAH",
      "area": "EKİNÖZÜ",
      "postal_code": "46360"
    },
    {
      "id": 37468,
      "district_id": 521,
      "name": "GAZİLER MAH",
      "area": "EKİNÖZÜ",
      "postal_code": "46360"
    },
    {
      "id": 37469,
      "district_id": 521,
      "name": "GÖZPINAR MAH",
      "area": "EKİNÖZÜ",
      "postal_code": "46360"
    },
    {
      "id": 37470,
      "district_id": 521,
      "name": "İÇMELER MAH",
      "area": "EKİNÖZÜ",
      "postal_code": "46360"
    },
    {
      "id": 37471,
      "district_id": 521,
      "name": "KABAKTEPE MAH",
      "area": "EKİNÖZÜ",
      "postal_code": "46360"
    },
    {
      "id": 37472,
      "district_id": 521,
      "name": "KANDİL MAH",
      "area": "EKİNÖZÜ",
      "postal_code": "46360"
    },
    {
      "id": 37473,
      "district_id": 521,
      "name": "KÜRTÜL MAH",
      "area": "EKİNÖZÜ",
      "postal_code": "46360"
    },
    {
      "id": 37474,
      "district_id": 521,
      "name": "MAARİF MAH",
      "area": "EKİNÖZÜ",
      "postal_code": "46360"
    },
    {
      "id": 37475,
      "district_id": 521,
      "name": "ORTAÖREN MAH",
      "area": "EKİNÖZÜ",
      "postal_code": "46360"
    },
    {
      "id": 37476,
      "district_id": 521,
      "name": "ÖZTÜRK MAH",
      "area": "EKİNÖZÜ",
      "postal_code": "46360"
    },
    {
      "id": 37477,
      "district_id": 521,
      "name": "SOYSALLI MAH",
      "area": "EKİNÖZÜ",
      "postal_code": "46360"
    },
    {
      "id": 37478,
      "district_id": 521,
      "name": "TÜRKELİ MAH",
      "area": "EKİNÖZÜ",
      "postal_code": "46360"
    },
    {
      "id": 37479,
      "district_id": 521,
      "name": "TÜRKMENLER MAH",
      "area": "EKİNÖZÜ",
      "postal_code": "46360"
    },
    {
      "id": 37480,
      "district_id": 521,
      "name": "YENİKÖY MAH",
      "area": "EKİNÖZÜ",
      "postal_code": "46360"
    },
    {
      "id": 37481,
      "district_id": 522,
      "name": "AĞLICA MAH",
      "area": "ELBİSTAN",
      "postal_code": "46300"
    },
    {
      "id": 37482,
      "district_id": 522,
      "name": "AKARCA MAH",
      "area": "ELBİSTAN",
      "postal_code": "46300"
    },
    {
      "id": 37483,
      "district_id": 522,
      "name": "AKBAYIR MAH",
      "area": "ELBİSTAN",
      "postal_code": "46300"
    },
    {
      "id": 37484,
      "district_id": 522,
      "name": "AKÖREN MAH",
      "area": "ELBİSTAN",
      "postal_code": "46300"
    },
    {
      "id": 37485,
      "district_id": 522,
      "name": "AKSAKAL MAH",
      "area": "ELBİSTAN",
      "postal_code": "46300"
    },
    {
      "id": 37486,
      "district_id": 522,
      "name": "ALEMBEY MAH",
      "area": "ELBİSTAN",
      "postal_code": "46300"
    },
    {
      "id": 37487,
      "district_id": 522,
      "name": "ALKAYAOĞLU MAH",
      "area": "ELBİSTAN",
      "postal_code": "46300"
    },
    {
      "id": 37488,
      "district_id": 522,
      "name": "ARMUTALAN MAH",
      "area": "ELBİSTAN",
      "postal_code": "46300"
    },
    {
      "id": 37489,
      "district_id": 522,
      "name": "ATMALIKAŞANLI MAH",
      "area": "ELBİSTAN",
      "postal_code": "46300"
    },
    {
      "id": 37490,
      "district_id": 522,
      "name": "BAHÇELİEVLER MAH",
      "area": "ELBİSTAN",
      "postal_code": "46300"
    },
    {
      "id": 37491,
      "district_id": 522,
      "name": "BAKIŞ MAH",
      "area": "ELBİSTAN",
      "postal_code": "46300"
    },
    {
      "id": 37492,
      "district_id": 522,
      "name": "BALIKÇIL MAH",
      "area": "ELBİSTAN",
      "postal_code": "46300"
    },
    {
      "id": 37493,
      "district_id": 522,
      "name": "BATTALGAZİ MAH",
      "area": "ELBİSTAN",
      "postal_code": "46300"
    },
    {
      "id": 37494,
      "district_id": 522,
      "name": "BEŞTEPE MAH",
      "area": "ELBİSTAN",
      "postal_code": "46300"
    },
    {
      "id": 37495,
      "district_id": 522,
      "name": "BEYYURDU MAH",
      "area": "ELBİSTAN",
      "postal_code": "46300"
    },
    {
      "id": 37496,
      "district_id": 522,
      "name": "BÜYÜKYAPALAK MAH",
      "area": "ELBİSTAN",
      "postal_code": "46300"
    },
    {
      "id": 37497,
      "district_id": 522,
      "name": "ÇALIŞ MAH",
      "area": "ELBİSTAN",
      "postal_code": "46300"
    },
    {
      "id": 37498,
      "district_id": 522,
      "name": "ÇATOVA MAH",
      "area": "ELBİSTAN",
      "postal_code": "46300"
    },
    {
      "id": 37499,
      "district_id": 522,
      "name": "CEYHAN MAH",
      "area": "ELBİSTAN",
      "postal_code": "46300"
    },
    {
      "id": 37500,
      "district_id": 522,
      "name": "ÇİÇEK MAH",
      "area": "ELBİSTAN",
      "postal_code": "46300"
    },
    {
      "id": 37501,
      "district_id": 522,
      "name": "ÇİÇEK OSB MAH",
      "area": "ELBİSTAN",
      "postal_code": "46300"
    },
    {
      "id": 37502,
      "district_id": 522,
      "name": "ÇITLIK MAH",
      "area": "ELBİSTAN",
      "postal_code": "46300"
    },
    {
      "id": 37503,
      "district_id": 522,
      "name": "CUMHURİYET MAH",
      "area": "ELBİSTAN",
      "postal_code": "46300"
    },
    {
      "id": 37504,
      "district_id": 522,
      "name": "DEMİRCİLİK MAH",
      "area": "ELBİSTAN",
      "postal_code": "46300"
    },
    {
      "id": 37505,
      "district_id": 522,
      "name": "DERVİŞÇİMLİ MAH",
      "area": "ELBİSTAN",
      "postal_code": "46300"
    },
    {
      "id": 37506,
      "district_id": 522,
      "name": "DOĞAN MAH",
      "area": "ELBİSTAN",
      "postal_code": "46300"
    },
    {
      "id": 37507,
      "district_id": 522,
      "name": "ELDELEK MAH",
      "area": "ELBİSTAN",
      "postal_code": "46300"
    },
    {
      "id": 37508,
      "district_id": 522,
      "name": "ELMALI MAH",
      "area": "ELBİSTAN",
      "postal_code": "46300"
    },
    {
      "id": 37509,
      "district_id": 522,
      "name": "ESENTEPE MAH",
      "area": "ELBİSTAN",
      "postal_code": "46300"
    },
    {
      "id": 37510,
      "district_id": 522,
      "name": "EVCİHÜYÜK MAH",
      "area": "ELBİSTAN",
      "postal_code": "46300"
    },
    {
      "id": 37511,
      "district_id": 522,
      "name": "FAKIOĞLU MAH",
      "area": "ELBİSTAN",
      "postal_code": "46300"
    },
    {
      "id": 37512,
      "district_id": 522,
      "name": "GEÇİT MAH",
      "area": "ELBİSTAN",
      "postal_code": "46300"
    },
    {
      "id": 37513,
      "district_id": 522,
      "name": "GÖKÇEK MAH",
      "area": "ELBİSTAN",
      "postal_code": "46300"
    },
    {
      "id": 37514,
      "district_id": 522,
      "name": "GÜBLÜCE MAH",
      "area": "ELBİSTAN",
      "postal_code": "46300"
    },
    {
      "id": 37515,
      "district_id": 522,
      "name": "GÜCÜK MAH",
      "area": "ELBİSTAN",
      "postal_code": "46300"
    },
    {
      "id": 37516,
      "district_id": 522,
      "name": "GÜMÜŞDÖVEN MAH",
      "area": "ELBİSTAN",
      "postal_code": "46300"
    },
    {
      "id": 37517,
      "district_id": 522,
      "name": "GÜNALTI MAH",
      "area": "ELBİSTAN",
      "postal_code": "46300"
    },
    {
      "id": 37518,
      "district_id": 522,
      "name": "GÜNDERE MAH",
      "area": "ELBİSTAN",
      "postal_code": "46300"
    },
    {
      "id": 37519,
      "district_id": 522,
      "name": "GÜNEŞLİ MAH",
      "area": "ELBİSTAN",
      "postal_code": "46300"
    },
    {
      "id": 37520,
      "district_id": 522,
      "name": "GÜVERCİNLİK MAH",
      "area": "ELBİSTAN",
      "postal_code": "46300"
    },
    {
      "id": 37521,
      "district_id": 522,
      "name": "HACIHASANLI MAH",
      "area": "ELBİSTAN",
      "postal_code": "46300"
    },
    {
      "id": 37522,
      "district_id": 522,
      "name": "HASANALİLİ MAH",
      "area": "ELBİSTAN",
      "postal_code": "46300"
    },
    {
      "id": 37523,
      "district_id": 522,
      "name": "HASANKENDİ MAH",
      "area": "ELBİSTAN",
      "postal_code": "46300"
    },
    {
      "id": 37524,
      "district_id": 522,
      "name": "HORHOR MAH",
      "area": "ELBİSTAN",
      "postal_code": "46300"
    },
    {
      "id": 37525,
      "district_id": 522,
      "name": "İĞDE MAH",
      "area": "ELBİSTAN",
      "postal_code": "46300"
    },
    {
      "id": 37526,
      "district_id": 522,
      "name": "İKİZPINAR MAH",
      "area": "ELBİSTAN",
      "postal_code": "46300"
    },
    {
      "id": 37527,
      "district_id": 522,
      "name": "İNCECİK MAH",
      "area": "ELBİSTAN",
      "postal_code": "46300"
    },
    {
      "id": 37528,
      "district_id": 522,
      "name": "IZGIN MAH",
      "area": "ELBİSTAN",
      "postal_code": "46300"
    },
    {
      "id": 37529,
      "district_id": 522,
      "name": "KALAYCIK MAH",
      "area": "ELBİSTAN",
      "postal_code": "46300"
    },
    {
      "id": 37530,
      "district_id": 522,
      "name": "KALEALTI MAH",
      "area": "ELBİSTAN",
      "postal_code": "46300"
    },
    {
      "id": 37531,
      "district_id": 522,
      "name": "KANGAL MAH",
      "area": "ELBİSTAN",
      "postal_code": "46300"
    },
    {
      "id": 37532,
      "district_id": 522,
      "name": "KANTARMA MAH",
      "area": "ELBİSTAN",
      "postal_code": "46300"
    },
    {
      "id": 37533,
      "district_id": 522,
      "name": "KARAELBİSTAN MAH",
      "area": "ELBİSTAN",
      "postal_code": "46300"
    },
    {
      "id": 37534,
      "district_id": 522,
      "name": "KARAHASANUŞAĞI MAH",
      "area": "ELBİSTAN",
      "postal_code": "46300"
    },
    {
      "id": 37535,
      "district_id": 522,
      "name": "KARAHÜYÜK MAH",
      "area": "ELBİSTAN",
      "postal_code": "46300"
    },
    {
      "id": 37536,
      "district_id": 522,
      "name": "KARAMAĞARA MAH",
      "area": "ELBİSTAN",
      "postal_code": "46300"
    },
    {
      "id": 37537,
      "district_id": 522,
      "name": "KAVAKTEPE MAH",
      "area": "ELBİSTAN",
      "postal_code": "46300"
    },
    {
      "id": 37538,
      "district_id": 522,
      "name": "KAYAGEÇİT MAH",
      "area": "ELBİSTAN",
      "postal_code": "46300"
    },
    {
      "id": 37539,
      "district_id": 522,
      "name": "KEÇEMAĞARA MAH",
      "area": "ELBİSTAN",
      "postal_code": "46300"
    },
    {
      "id": 37540,
      "district_id": 522,
      "name": "KIŞLA MAH",
      "area": "ELBİSTAN",
      "postal_code": "46300"
    },
    {
      "id": 37541,
      "district_id": 522,
      "name": "KIZILCAOBA MAH",
      "area": "ELBİSTAN",
      "postal_code": "46300"
    },
    {
      "id": 37542,
      "district_id": 522,
      "name": "KÖPRÜBAŞI MAH",
      "area": "ELBİSTAN",
      "postal_code": "46300"
    },
    {
      "id": 37543,
      "district_id": 522,
      "name": "KÖRÜCEK MAH",
      "area": "ELBİSTAN",
      "postal_code": "46300"
    },
    {
      "id": 37544,
      "district_id": 522,
      "name": "KÖSEYAHYA MAH",
      "area": "ELBİSTAN",
      "postal_code": "46300"
    },
    {
      "id": 37545,
      "district_id": 522,
      "name": "KÖŞK MAH",
      "area": "ELBİSTAN",
      "postal_code": "46300"
    },
    {
      "id": 37546,
      "district_id": 522,
      "name": "KÜÇÜKYAPALAK MAH",
      "area": "ELBİSTAN",
      "postal_code": "46300"
    },
    {
      "id": 37547,
      "district_id": 522,
      "name": "KÜMBET MAH",
      "area": "ELBİSTAN",
      "postal_code": "46300"
    },
    {
      "id": 37548,
      "district_id": 522,
      "name": "ORHANGAZİ MAH",
      "area": "ELBİSTAN",
      "postal_code": "46300"
    },
    {
      "id": 37549,
      "district_id": 522,
      "name": "OVACIK MAH",
      "area": "ELBİSTAN",
      "postal_code": "46300"
    },
    {
      "id": 37550,
      "district_id": 522,
      "name": "ÖZBEK MAH",
      "area": "ELBİSTAN",
      "postal_code": "46300"
    },
    {
      "id": 37551,
      "district_id": 522,
      "name": "ÖZCANLI MAH",
      "area": "ELBİSTAN",
      "postal_code": "46300"
    },
    {
      "id": 37552,
      "district_id": 522,
      "name": "PINARBAŞI MAH",
      "area": "ELBİSTAN",
      "postal_code": "46300"
    },
    {
      "id": 37553,
      "district_id": 522,
      "name": "SARIYATAK MAH",
      "area": "ELBİSTAN",
      "postal_code": "46300"
    },
    {
      "id": 37554,
      "district_id": 522,
      "name": "SEVDİLLİ MAH",
      "area": "ELBİSTAN",
      "postal_code": "46300"
    },
    {
      "id": 37555,
      "district_id": 522,
      "name": "SÖĞÜTLÜ MAH",
      "area": "ELBİSTAN",
      "postal_code": "46300"
    },
    {
      "id": 37556,
      "district_id": 522,
      "name": "SÜNNET MAH",
      "area": "ELBİSTAN",
      "postal_code": "46300"
    },
    {
      "id": 37557,
      "district_id": 522,
      "name": "TAPKIRAN MAH",
      "area": "ELBİSTAN",
      "postal_code": "46300"
    },
    {
      "id": 37558,
      "district_id": 522,
      "name": "TAPKIRANKALE MAH",
      "area": "ELBİSTAN",
      "postal_code": "46300"
    },
    {
      "id": 37559,
      "district_id": 522,
      "name": "TAŞBURUN MAH",
      "area": "ELBİSTAN",
      "postal_code": "46300"
    },
    {
      "id": 37560,
      "district_id": 522,
      "name": "TEPEBAŞI  MAH (GÜCÜK MAH)",
      "area": "ELBİSTAN",
      "postal_code": "46300"
    },
    {
      "id": 37561,
      "district_id": 522,
      "name": "TEPEBAŞI MAH",
      "area": "ELBİSTAN",
      "postal_code": "46300"
    },
    {
      "id": 37562,
      "district_id": 522,
      "name": "TOPALLI MAH",
      "area": "ELBİSTAN",
      "postal_code": "46300"
    },
    {
      "id": 37563,
      "district_id": 522,
      "name": "TOPRAKHİSAR MAH",
      "area": "ELBİSTAN",
      "postal_code": "46300"
    },
    {
      "id": 37564,
      "district_id": 522,
      "name": "TÜRKÖREN MAH",
      "area": "ELBİSTAN",
      "postal_code": "46300"
    },
    {
      "id": 37565,
      "district_id": 522,
      "name": "UNCULAR MAH",
      "area": "ELBİSTAN",
      "postal_code": "46300"
    },
    {
      "id": 37566,
      "district_id": 522,
      "name": "UZUNPINAR MAH",
      "area": "ELBİSTAN",
      "postal_code": "46300"
    },
    {
      "id": 37567,
      "district_id": 522,
      "name": "YALAK MAH",
      "area": "ELBİSTAN",
      "postal_code": "46300"
    },
    {
      "id": 37568,
      "district_id": 522,
      "name": "YALINTAŞ MAH",
      "area": "ELBİSTAN",
      "postal_code": "46300"
    },
    {
      "id": 37569,
      "district_id": 522,
      "name": "YAPILI MAH",
      "area": "ELBİSTAN",
      "postal_code": "46300"
    },
    {
      "id": 37570,
      "district_id": 522,
      "name": "YAPILIPINAR MAH",
      "area": "ELBİSTAN",
      "postal_code": "46300"
    },
    {
      "id": 37571,
      "district_id": 522,
      "name": "YAPRAKLI MAH",
      "area": "ELBİSTAN",
      "postal_code": "46300"
    },
    {
      "id": 37572,
      "district_id": 522,
      "name": "YEŞİLYURT MAH",
      "area": "ELBİSTAN",
      "postal_code": "46300"
    },
    {
      "id": 37573,
      "district_id": 522,
      "name": "YOĞUNSÖĞÜT MAH",
      "area": "ELBİSTAN",
      "postal_code": "46300"
    },
    {
      "id": 37574,
      "district_id": 522,
      "name": "YUNUS EMRE MAH",
      "area": "ELBİSTAN",
      "postal_code": "46300"
    },
    {
      "id": 37575,
      "district_id": 523,
      "name": "ACIELMA MAH",
      "area": "GÖKSUN",
      "postal_code": "46600"
    },
    {
      "id": 37576,
      "district_id": 523,
      "name": "AHMETCİK MAH",
      "area": "GÖKSUN",
      "postal_code": "46600"
    },
    {
      "id": 37577,
      "district_id": 523,
      "name": "ALIÇLIBUCAK MAH",
      "area": "GÖKSUN",
      "postal_code": "46600"
    },
    {
      "id": 37578,
      "district_id": 523,
      "name": "ALTINOBA MAH",
      "area": "GÖKSUN",
      "postal_code": "46600"
    },
    {
      "id": 37579,
      "district_id": 523,
      "name": "APIKLAR MAH",
      "area": "GÖKSUN",
      "postal_code": "46600"
    },
    {
      "id": 37580,
      "district_id": 523,
      "name": "ASLANBEYÇİFTLİĞİ MAH",
      "area": "GÖKSUN",
      "postal_code": "46600"
    },
    {
      "id": 37581,
      "district_id": 523,
      "name": "BAHÇELİEVLER MAH",
      "area": "GÖKSUN",
      "postal_code": "46600"
    },
    {
      "id": 37582,
      "district_id": 523,
      "name": "BERİT MAH",
      "area": "GÖKSUN",
      "postal_code": "46600"
    },
    {
      "id": 37583,
      "district_id": 523,
      "name": "BOZARMUT MAH",
      "area": "GÖKSUN",
      "postal_code": "46600"
    },
    {
      "id": 37584,
      "district_id": 523,
      "name": "BOZHÜYÜK MAH",
      "area": "GÖKSUN",
      "postal_code": "46600"
    },
    {
      "id": 37585,
      "district_id": 523,
      "name": "BÜYÜKÇAMURLU MAH",
      "area": "GÖKSUN",
      "postal_code": "46600"
    },
    {
      "id": 37586,
      "district_id": 523,
      "name": "BÜYÜKKIZILCIK MAH",
      "area": "GÖKSUN",
      "postal_code": "46600"
    },
    {
      "id": 37587,
      "district_id": 523,
      "name": "ÇAĞLAYAN MAH",
      "area": "GÖKSUN",
      "postal_code": "46600"
    },
    {
      "id": 37588,
      "district_id": 523,
      "name": "ÇAMDERE MAH",
      "area": "GÖKSUN",
      "postal_code": "46600"
    },
    {
      "id": 37589,
      "district_id": 523,
      "name": "ÇARDAK MAH",
      "area": "GÖKSUN",
      "postal_code": "46600"
    },
    {
      "id": 37590,
      "district_id": 523,
      "name": "CUMHURİYET MAH",
      "area": "GÖKSUN",
      "postal_code": "46600"
    },
    {
      "id": 37591,
      "district_id": 523,
      "name": "DEĞİRMENDERE MAH",
      "area": "GÖKSUN",
      "postal_code": "46600"
    },
    {
      "id": 37592,
      "district_id": 523,
      "name": "DEVLETTEPE MAH",
      "area": "GÖKSUN",
      "postal_code": "46600"
    },
    {
      "id": 37593,
      "district_id": 523,
      "name": "DOĞANKONAK MAH",
      "area": "GÖKSUN",
      "postal_code": "46600"
    },
    {
      "id": 37594,
      "district_id": 523,
      "name": "ELMALI MAH",
      "area": "GÖKSUN",
      "postal_code": "46600"
    },
    {
      "id": 37595,
      "district_id": 523,
      "name": "ERİCEK MAH",
      "area": "GÖKSUN",
      "postal_code": "46600"
    },
    {
      "id": 37596,
      "district_id": 523,
      "name": "ESENKÖY MAH",
      "area": "GÖKSUN",
      "postal_code": "46600"
    },
    {
      "id": 37597,
      "district_id": 523,
      "name": "FINDIK MAH",
      "area": "GÖKSUN",
      "postal_code": "46600"
    },
    {
      "id": 37598,
      "district_id": 523,
      "name": "FINDIKLIKOYAK MAH",
      "area": "GÖKSUN",
      "postal_code": "46600"
    },
    {
      "id": 37599,
      "district_id": 523,
      "name": "GÖLPINAR MAH",
      "area": "GÖKSUN",
      "postal_code": "46600"
    },
    {
      "id": 37600,
      "district_id": 523,
      "name": "GÖYNÜK MAH",
      "area": "GÖKSUN",
      "postal_code": "46600"
    },
    {
      "id": 37601,
      "district_id": 523,
      "name": "GÜCÜKSU MAH",
      "area": "GÖKSUN",
      "postal_code": "46600"
    },
    {
      "id": 37602,
      "district_id": 523,
      "name": "GÜLDAĞI MAH",
      "area": "GÖKSUN",
      "postal_code": "46600"
    },
    {
      "id": 37603,
      "district_id": 523,
      "name": "GÜLLER MAH",
      "area": "GÖKSUN",
      "postal_code": "46600"
    },
    {
      "id": 37604,
      "district_id": 523,
      "name": "HACIKODAL MAH",
      "area": "GÖKSUN",
      "postal_code": "46600"
    },
    {
      "id": 37605,
      "district_id": 523,
      "name": "HACIMİRZA MAH",
      "area": "GÖKSUN",
      "postal_code": "46600"
    },
    {
      "id": 37606,
      "district_id": 523,
      "name": "HACIÖMER MAH",
      "area": "GÖKSUN",
      "postal_code": "46600"
    },
    {
      "id": 37607,
      "district_id": 523,
      "name": "HARBİYE MAH",
      "area": "GÖKSUN",
      "postal_code": "46600"
    },
    {
      "id": 37608,
      "district_id": 523,
      "name": "HUĞTAŞ MAH",
      "area": "GÖKSUN",
      "postal_code": "46600"
    },
    {
      "id": 37609,
      "district_id": 523,
      "name": "KALE MAH",
      "area": "GÖKSUN",
      "postal_code": "46600"
    },
    {
      "id": 37610,
      "district_id": 523,
      "name": "KALEBOYNU MAH",
      "area": "GÖKSUN",
      "postal_code": "46600"
    },
    {
      "id": 37611,
      "district_id": 523,
      "name": "KAMIŞCIK MAH",
      "area": "GÖKSUN",
      "postal_code": "46600"
    },
    {
      "id": 37612,
      "district_id": 523,
      "name": "KANLIKAVAK MAH",
      "area": "GÖKSUN",
      "postal_code": "46600"
    },
    {
      "id": 37613,
      "district_id": 523,
      "name": "KARAAHMET MAH",
      "area": "GÖKSUN",
      "postal_code": "46600"
    },
    {
      "id": 37614,
      "district_id": 523,
      "name": "KARAÖMER MAH",
      "area": "GÖKSUN",
      "postal_code": "46600"
    },
    {
      "id": 37615,
      "district_id": 523,
      "name": "KARATUT MAH",
      "area": "GÖKSUN",
      "postal_code": "46600"
    },
    {
      "id": 37616,
      "district_id": 523,
      "name": "KAVŞUT MAH",
      "area": "GÖKSUN",
      "postal_code": "46600"
    },
    {
      "id": 37617,
      "district_id": 523,
      "name": "KAYABAŞI MAH",
      "area": "GÖKSUN",
      "postal_code": "46600"
    },
    {
      "id": 37618,
      "district_id": 523,
      "name": "KAZANDERE MAH",
      "area": "GÖKSUN",
      "postal_code": "46600"
    },
    {
      "id": 37619,
      "district_id": 523,
      "name": "KEKLİKOLUK MAH",
      "area": "GÖKSUN",
      "postal_code": "46600"
    },
    {
      "id": 37620,
      "district_id": 523,
      "name": "KEMALPAŞA MAH",
      "area": "GÖKSUN",
      "postal_code": "46600"
    },
    {
      "id": 37621,
      "district_id": 523,
      "name": "KINIKKOZ MAH",
      "area": "GÖKSUN",
      "postal_code": "46600"
    },
    {
      "id": 37622,
      "district_id": 523,
      "name": "KİREÇ MAH",
      "area": "GÖKSUN",
      "postal_code": "46600"
    },
    {
      "id": 37623,
      "district_id": 523,
      "name": "KIZILÖZ MAH",
      "area": "GÖKSUN",
      "postal_code": "46600"
    },
    {
      "id": 37624,
      "district_id": 523,
      "name": "KÖMÜR MAH",
      "area": "GÖKSUN",
      "postal_code": "46600"
    },
    {
      "id": 37625,
      "district_id": 523,
      "name": "KÖPRÜBAŞI MAH",
      "area": "GÖKSUN",
      "postal_code": "46600"
    },
    {
      "id": 37626,
      "district_id": 523,
      "name": "KORKMAZ MAH",
      "area": "GÖKSUN",
      "postal_code": "46600"
    },
    {
      "id": 37627,
      "district_id": 523,
      "name": "KÜÇÜKÇAMURLU MAH",
      "area": "GÖKSUN",
      "postal_code": "46600"
    },
    {
      "id": 37628,
      "district_id": 523,
      "name": "KURTULUŞ MAH",
      "area": "GÖKSUN",
      "postal_code": "46600"
    },
    {
      "id": 37629,
      "district_id": 523,
      "name": "MAHMUTBEY MAH",
      "area": "GÖKSUN",
      "postal_code": "46600"
    },
    {
      "id": 37630,
      "district_id": 523,
      "name": "MEHMETBEY MAH",
      "area": "GÖKSUN",
      "postal_code": "46600"
    },
    {
      "id": 37631,
      "district_id": 523,
      "name": "MÜRSEL MAH",
      "area": "GÖKSUN",
      "postal_code": "46600"
    },
    {
      "id": 37632,
      "district_id": 523,
      "name": "ORTATEPE MAH",
      "area": "GÖKSUN",
      "postal_code": "46600"
    },
    {
      "id": 37633,
      "district_id": 523,
      "name": "PAYAMBURNU MAH",
      "area": "GÖKSUN",
      "postal_code": "46600"
    },
    {
      "id": 37634,
      "district_id": 523,
      "name": "PINARBAŞI MAH",
      "area": "GÖKSUN",
      "postal_code": "46600"
    },
    {
      "id": 37635,
      "district_id": 523,
      "name": "SARAYCIK MAH",
      "area": "GÖKSUN",
      "postal_code": "46600"
    },
    {
      "id": 37636,
      "district_id": 523,
      "name": "SIRMALI MAH",
      "area": "GÖKSUN",
      "postal_code": "46600"
    },
    {
      "id": 37637,
      "district_id": 523,
      "name": "SOĞUKPINAR MAH",
      "area": "GÖKSUN",
      "postal_code": "46600"
    },
    {
      "id": 37638,
      "district_id": 523,
      "name": "TAHİRBEY MAH",
      "area": "GÖKSUN",
      "postal_code": "46600"
    },
    {
      "id": 37639,
      "district_id": 523,
      "name": "TAŞOLUK MAH",
      "area": "GÖKSUN",
      "postal_code": "46600"
    },
    {
      "id": 37640,
      "district_id": 523,
      "name": "TEMÜRAĞA MAH",
      "area": "GÖKSUN",
      "postal_code": "46600"
    },
    {
      "id": 37641,
      "district_id": 523,
      "name": "TEPEBAŞI MAH",
      "area": "GÖKSUN",
      "postal_code": "46600"
    },
    {
      "id": 37642,
      "district_id": 523,
      "name": "TOMBAK MAH",
      "area": "GÖKSUN",
      "postal_code": "46600"
    },
    {
      "id": 37643,
      "district_id": 523,
      "name": "YAĞMURLU MAH",
      "area": "GÖKSUN",
      "postal_code": "46600"
    },
    {
      "id": 37644,
      "district_id": 523,
      "name": "YANTEPE MAH",
      "area": "GÖKSUN",
      "postal_code": "46600"
    },
    {
      "id": 37645,
      "district_id": 523,
      "name": "YENİ MAH",
      "area": "GÖKSUN",
      "postal_code": "46600"
    },
    {
      "id": 37646,
      "district_id": 523,
      "name": "YENİYAPAN MAH",
      "area": "GÖKSUN",
      "postal_code": "46600"
    },
    {
      "id": 37647,
      "district_id": 523,
      "name": "YEŞİLKÖY MAH",
      "area": "GÖKSUN",
      "postal_code": "46600"
    },
    {
      "id": 37648,
      "district_id": 523,
      "name": "YİRİCEK MAH",
      "area": "GÖKSUN",
      "postal_code": "46600"
    },
    {
      "id": 37649,
      "district_id": 523,
      "name": "YOĞUNOLUK MAH",
      "area": "GÖKSUN",
      "postal_code": "46600"
    },
    {
      "id": 37650,
      "district_id": 524,
      "name": "AĞCAŞAR MAH",
      "area": "NURHAK",
      "postal_code": "46370"
    },
    {
      "id": 37651,
      "district_id": 524,
      "name": "ALÇİÇEK DEĞİRMENKAYA MAH",
      "area": "NURHAK",
      "postal_code": "46370"
    },
    {
      "id": 37652,
      "district_id": 524,
      "name": "BARIŞ MAH",
      "area": "NURHAK",
      "postal_code": "46370"
    },
    {
      "id": 37653,
      "district_id": 524,
      "name": "BİÇİN MAH",
      "area": "NURHAK",
      "postal_code": "46370"
    },
    {
      "id": 37654,
      "district_id": 524,
      "name": "ESKİKÖY MAH",
      "area": "NURHAK",
      "postal_code": "46370"
    },
    {
      "id": 37655,
      "district_id": 524,
      "name": "GÜRSEL MAH",
      "area": "NURHAK",
      "postal_code": "46370"
    },
    {
      "id": 37656,
      "district_id": 524,
      "name": "HÜYÜK MAH",
      "area": "NURHAK",
      "postal_code": "46370"
    },
    {
      "id": 37657,
      "district_id": 524,
      "name": "KARAÇAR MAH",
      "area": "NURHAK",
      "postal_code": "46370"
    },
    {
      "id": 37658,
      "district_id": 524,
      "name": "KARŞIYAKA MAH",
      "area": "NURHAK",
      "postal_code": "46370"
    },
    {
      "id": 37659,
      "district_id": 524,
      "name": "KIYILAR MAH",
      "area": "NURHAK",
      "postal_code": "46370"
    },
    {
      "id": 37660,
      "district_id": 524,
      "name": "KULLAR MAH",
      "area": "NURHAK",
      "postal_code": "46370"
    },
    {
      "id": 37661,
      "district_id": 524,
      "name": "PINARBAŞI MAH",
      "area": "NURHAK",
      "postal_code": "46370"
    },
    {
      "id": 37662,
      "district_id": 524,
      "name": "SEYİTALİLER MAH",
      "area": "NURHAK",
      "postal_code": "46370"
    },
    {
      "id": 37663,
      "district_id": 524,
      "name": "TATLAR MAH",
      "area": "NURHAK",
      "postal_code": "46370"
    },
    {
      "id": 37664,
      "district_id": 524,
      "name": "UMUTLU MAH",
      "area": "NURHAK",
      "postal_code": "46370"
    },
    {
      "id": 37665,
      "district_id": 524,
      "name": "YENİ MAH",
      "area": "NURHAK",
      "postal_code": "46370"
    },
    {
      "id": 37666,
      "district_id": 525,
      "name": "5 NİSAN MAH",
      "area": "BİNEVLER",
      "postal_code": "46050"
    },
    {
      "id": 37667,
      "district_id": 525,
      "name": "ABDÜLHAMİD HAN MAH",
      "area": "BİNEVLER",
      "postal_code": "46050"
    },
    {
      "id": 37668,
      "district_id": 525,
      "name": "AĞCALI MAH",
      "area": "BİNEVLER",
      "postal_code": "46050"
    },
    {
      "id": 37669,
      "district_id": 525,
      "name": "AKÇAKOYUNLU MAH",
      "area": "BİNEVLER",
      "postal_code": "46050"
    },
    {
      "id": 37670,
      "district_id": 525,
      "name": "AKİF İNAN MAH",
      "area": "BİNEVLER",
      "postal_code": "46050"
    },
    {
      "id": 37671,
      "district_id": 525,
      "name": "ALTINOVA MAH",
      "area": "SÜLEYMANLI",
      "postal_code": "46140"
    },
    {
      "id": 37672,
      "district_id": 525,
      "name": "AVCILAR MAH",
      "area": "SÜLEYMANLI",
      "postal_code": "46140"
    },
    {
      "id": 37673,
      "district_id": 525,
      "name": "AVGASIR MAH",
      "area": "SÜLEYMANLI",
      "postal_code": "46140"
    },
    {
      "id": 37674,
      "district_id": 525,
      "name": "AVŞAR MAH",
      "area": "SÜLEYMANLI",
      "postal_code": "46140"
    },
    {
      "id": 37675,
      "district_id": 525,
      "name": "AYŞEPINARI MAH",
      "area": "SÜLEYMANLI",
      "postal_code": "46140"
    },
    {
      "id": 37676,
      "district_id": 525,
      "name": "BARBAROS MAH",
      "area": "HACIBAYRAM",
      "postal_code": "46040"
    },
    {
      "id": 37677,
      "district_id": 525,
      "name": "BEŞBAĞLAR MAH",
      "area": "SÜLEYMANLI",
      "postal_code": "46140"
    },
    {
      "id": 37678,
      "district_id": 525,
      "name": "BEŞEN MAH",
      "area": "SÜLEYMANLI",
      "postal_code": "46140"
    },
    {
      "id": 37679,
      "district_id": 525,
      "name": "BİN EVLER MAH",
      "area": "BİNEVLER",
      "postal_code": "46050"
    },
    {
      "id": 37680,
      "district_id": 525,
      "name": "BOĞAZİÇİ MAH",
      "area": "BİNEVLER",
      "postal_code": "46050"
    },
    {
      "id": 37681,
      "district_id": 525,
      "name": "BULUTOĞLU MAH",
      "area": "SÜLEYMANLI",
      "postal_code": "46140"
    },
    {
      "id": 37682,
      "district_id": 525,
      "name": "BÜYÜKSIR MAH",
      "area": "SÜLEYMANLI",
      "postal_code": "46140"
    },
    {
      "id": 37683,
      "district_id": 525,
      "name": "ÇAĞIRKAN MAH",
      "area": "SÜLEYMANLI",
      "postal_code": "46140"
    },
    {
      "id": 37684,
      "district_id": 525,
      "name": "ÇAĞLAYAN MAH",
      "area": "SÜLEYMANLI",
      "postal_code": "46140"
    },
    {
      "id": 37685,
      "district_id": 525,
      "name": "ÇAKIRDERE MAH",
      "area": "SÜLEYMANLI",
      "postal_code": "46140"
    },
    {
      "id": 37686,
      "district_id": 525,
      "name": "ÇAKIRLAR MAH",
      "area": "SÜLEYMANLI",
      "postal_code": "46140"
    },
    {
      "id": 37687,
      "district_id": 525,
      "name": "ÇAMLIBEL MAH",
      "area": "SÜLEYMANLI",
      "postal_code": "46140"
    },
    {
      "id": 37688,
      "district_id": 525,
      "name": "ÇAMLICA MAH",
      "area": "SÜLEYMANLI",
      "postal_code": "46140"
    },
    {
      "id": 37689,
      "district_id": 525,
      "name": "ÇAMLIK MAH",
      "area": "BİNEVLER",
      "postal_code": "46050"
    },
    {
      "id": 37690,
      "district_id": 525,
      "name": "CELİLLİ DEDELER MAH",
      "area": "SÜLEYMANLI",
      "postal_code": "46140"
    },
    {
      "id": 37691,
      "district_id": 525,
      "name": "ÇEVREPINAR MAH",
      "area": "SÜLEYMANLI",
      "postal_code": "46140"
    },
    {
      "id": 37692,
      "district_id": 525,
      "name": "CEYHAN MAH",
      "area": "BİNEVLER",
      "postal_code": "46050"
    },
    {
      "id": 37693,
      "district_id": 525,
      "name": "ÇOKRAN MAH",
      "area": "SÜLEYMANLI",
      "postal_code": "46140"
    },
    {
      "id": 37694,
      "district_id": 525,
      "name": "CÜCELİ MAH",
      "area": "SÜLEYMANLI",
      "postal_code": "46140"
    },
    {
      "id": 37695,
      "district_id": 525,
      "name": "ÇUKURHİSAR MAH",
      "area": "SÜLEYMANLI",
      "postal_code": "46140"
    },
    {
      "id": 37696,
      "district_id": 525,
      "name": "CUMHURİYET MAH",
      "area": "BİNEVLER",
      "postal_code": "46050"
    },
    {
      "id": 37697,
      "district_id": 525,
      "name": "DADAĞLI MAH",
      "area": "SÜLEYMANLI",
      "postal_code": "46140"
    },
    {
      "id": 37698,
      "district_id": 525,
      "name": "DEMREK MAH",
      "area": "SÜLEYMANLI",
      "postal_code": "46140"
    },
    {
      "id": 37699,
      "district_id": 525,
      "name": "DEREBOĞAZI MAH",
      "area": "SÜLEYMANLI",
      "postal_code": "46140"
    },
    {
      "id": 37700,
      "district_id": 525,
      "name": "DÖNGEL MAH",
      "area": "SÜLEYMANLI",
      "postal_code": "46140"
    },
    {
      "id": 37701,
      "district_id": 525,
      "name": "DÖNGELE MAH",
      "area": "SÜLEYMANLI",
      "postal_code": "46140"
    },
    {
      "id": 37702,
      "district_id": 525,
      "name": "DÖNÜKLÜ MAH",
      "area": "SÜLEYMANLI",
      "postal_code": "46140"
    },
    {
      "id": 37703,
      "district_id": 525,
      "name": "DUMLUPINAR MAH",
      "area": "HACIBAYRAM",
      "postal_code": "46040"
    },
    {
      "id": 37704,
      "district_id": 525,
      "name": "ERTUĞRUL GAZİ MAH",
      "area": "HACIBAYRAM",
      "postal_code": "46040"
    },
    {
      "id": 37705,
      "district_id": 525,
      "name": "FATİH MAH",
      "area": "BİNEVLER",
      "postal_code": "46050"
    },
    {
      "id": 37706,
      "district_id": 525,
      "name": "FATMALI MAH",
      "area": "SÜLEYMANLI",
      "postal_code": "46140"
    },
    {
      "id": 37707,
      "district_id": 525,
      "name": "GAYBERLİ MAH",
      "area": "HACIBAYRAM",
      "postal_code": "46040"
    },
    {
      "id": 37708,
      "district_id": 525,
      "name": "GEDEMEN MAH",
      "area": "BİNEVLER",
      "postal_code": "46050"
    },
    {
      "id": 37709,
      "district_id": 525,
      "name": "GÖLPINAR MAH",
      "area": "SÜLEYMANLI",
      "postal_code": "46140"
    },
    {
      "id": 37710,
      "district_id": 525,
      "name": "HACI BAYRAM VELİ MAH",
      "area": "HACIBAYRAM",
      "postal_code": "46040"
    },
    {
      "id": 37711,
      "district_id": 525,
      "name": "HACIAĞLAR MAH",
      "area": "SÜLEYMANLI",
      "postal_code": "46140"
    },
    {
      "id": 37712,
      "district_id": 525,
      "name": "HACIBUDAK MAH",
      "area": "SÜLEYMANLI",
      "postal_code": "46140"
    },
    {
      "id": 37713,
      "district_id": 525,
      "name": "HACIİBRAHİMUŞAĞI MAH",
      "area": "SÜLEYMANLI",
      "postal_code": "46140"
    },
    {
      "id": 37714,
      "district_id": 525,
      "name": "HACILAR MAH",
      "area": "SÜLEYMANLI",
      "postal_code": "46140"
    },
    {
      "id": 37715,
      "district_id": 525,
      "name": "HACIMUSTAFA MAH",
      "area": "SÜLEYMANLI",
      "postal_code": "46140"
    },
    {
      "id": 37716,
      "district_id": 525,
      "name": "HACININOĞLU MAH",
      "area": "SÜLEYMANLI",
      "postal_code": "46140"
    },
    {
      "id": 37717,
      "district_id": 525,
      "name": "HARTLAP MAH",
      "area": "SÜLEYMANLI",
      "postal_code": "46140"
    },
    {
      "id": 37718,
      "district_id": 525,
      "name": "HASANCIKLI MAH",
      "area": "BİNEVLER",
      "postal_code": "46050"
    },
    {
      "id": 37719,
      "district_id": 525,
      "name": "HAYDAR BEY MAH",
      "area": "BİNEVLER",
      "postal_code": "46050"
    },
    {
      "id": 37720,
      "district_id": 525,
      "name": "HAYRULLAH MAH",
      "area": "HACIBAYRAM",
      "postal_code": "46040"
    },
    {
      "id": 37721,
      "district_id": 525,
      "name": "HÜRRİYET MAH",
      "area": "BİNEVLER",
      "postal_code": "46050"
    },
    {
      "id": 37722,
      "district_id": 525,
      "name": "ILICA MAH",
      "area": "SÜLEYMANLI",
      "postal_code": "46140"
    },
    {
      "id": 37723,
      "district_id": 525,
      "name": "İSMAİLLİ MAH",
      "area": "SÜLEYMANLI",
      "postal_code": "46140"
    },
    {
      "id": 37724,
      "district_id": 525,
      "name": "İSTİKLAL MAH",
      "area": "BİNEVLER",
      "postal_code": "46050"
    },
    {
      "id": 37725,
      "district_id": 525,
      "name": "KALAKAYA MAH",
      "area": "SÜLEYMANLI",
      "postal_code": "46140"
    },
    {
      "id": 37726,
      "district_id": 525,
      "name": "KALE MAH",
      "area": "SÜLEYMANLI",
      "postal_code": "46140"
    },
    {
      "id": 37727,
      "district_id": 525,
      "name": "KAPIKAYA MAH",
      "area": "SÜLEYMANLI",
      "postal_code": "46140"
    },
    {
      "id": 37728,
      "district_id": 525,
      "name": "KARACAOĞLAN MAH",
      "area": "HACIBAYRAM",
      "postal_code": "46040"
    },
    {
      "id": 37729,
      "district_id": 525,
      "name": "KARADERE MAH",
      "area": "SÜLEYMANLI",
      "postal_code": "46140"
    },
    {
      "id": 37730,
      "district_id": 525,
      "name": "KARAMANLI MAH",
      "area": "BİNEVLER",
      "postal_code": "46050"
    },
    {
      "id": 37731,
      "district_id": 525,
      "name": "KAVLAKLI MAH",
      "area": "BİNEVLER",
      "postal_code": "46050"
    },
    {
      "id": 37732,
      "district_id": 525,
      "name": "KAYNAR MAH",
      "area": "SÜLEYMANLI",
      "postal_code": "46140"
    },
    {
      "id": 37733,
      "district_id": 525,
      "name": "KAZIM KARABEKİR MAH",
      "area": "BİNEVLER",
      "postal_code": "46050"
    },
    {
      "id": 37734,
      "district_id": 525,
      "name": "KERİMLİ MAH",
      "area": "SÜLEYMANLI",
      "postal_code": "46140"
    },
    {
      "id": 37735,
      "district_id": 525,
      "name": "KERTMEN MAH",
      "area": "SÜLEYMANLI",
      "postal_code": "46140"
    },
    {
      "id": 37736,
      "district_id": 525,
      "name": "KILAVUZLU MAH",
      "area": "BİNEVLER",
      "postal_code": "46050"
    },
    {
      "id": 37737,
      "district_id": 525,
      "name": "KISIKLI MAH",
      "area": "SÜLEYMANLI",
      "postal_code": "46140"
    },
    {
      "id": 37738,
      "district_id": 525,
      "name": "KIZILDAMLAR MAH",
      "area": "SÜLEYMANLI",
      "postal_code": "46140"
    },
    {
      "id": 37739,
      "district_id": 525,
      "name": "KIZILSEKİ MAH",
      "area": "SÜLEYMANLI",
      "postal_code": "46140"
    },
    {
      "id": 37740,
      "district_id": 525,
      "name": "KÖSELİ MAH",
      "area": "SÜLEYMANLI",
      "postal_code": "46140"
    },
    {
      "id": 37741,
      "district_id": 525,
      "name": "KÖŞÜRGE MAH",
      "area": "SÜLEYMANLI",
      "postal_code": "46140"
    },
    {
      "id": 37742,
      "district_id": 525,
      "name": "KOZCAĞIZ MAH",
      "area": "SÜLEYMANLI",
      "postal_code": "46140"
    },
    {
      "id": 37743,
      "district_id": 525,
      "name": "KÜÇÜKSIR MAH",
      "area": "SÜLEYMANLI",
      "postal_code": "46140"
    },
    {
      "id": 37744,
      "district_id": 525,
      "name": "KUMARLI MAH",
      "area": "SÜLEYMANLI",
      "postal_code": "46140"
    },
    {
      "id": 37745,
      "district_id": 525,
      "name": "KUMAŞIR MAH",
      "area": "SÜLEYMANLI",
      "postal_code": "46140"
    },
    {
      "id": 37746,
      "district_id": 525,
      "name": "KÜMPERLİ MAH",
      "area": "SÜLEYMANLI",
      "postal_code": "46140"
    },
    {
      "id": 37747,
      "district_id": 525,
      "name": "KURTLAR MAH",
      "area": "SÜLEYMANLI",
      "postal_code": "46140"
    },
    {
      "id": 37748,
      "district_id": 525,
      "name": "KÜRTÜL MAH",
      "area": "SÜLEYMANLI",
      "postal_code": "46140"
    },
    {
      "id": 37749,
      "district_id": 525,
      "name": "KURUCAOVA MAH",
      "area": "SÜLEYMANLI",
      "postal_code": "46140"
    },
    {
      "id": 37750,
      "district_id": 525,
      "name": "MAARİF MAH",
      "area": "BİNEVLER",
      "postal_code": "46050"
    },
    {
      "id": 37751,
      "district_id": 525,
      "name": "MAĞRALI MAH",
      "area": "BİNEVLER",
      "postal_code": "46050"
    },
    {
      "id": 37752,
      "district_id": 525,
      "name": "MAKSUTLU MAH",
      "area": "SÜLEYMANLI",
      "postal_code": "46140"
    },
    {
      "id": 37753,
      "district_id": 525,
      "name": "MALİK EJDER MAH",
      "area": "HACIBAYRAM",
      "postal_code": "46040"
    },
    {
      "id": 37754,
      "district_id": 525,
      "name": "MERCİMEKTEPE MAH",
      "area": "BİNEVLER",
      "postal_code": "46050"
    },
    {
      "id": 37755,
      "district_id": 525,
      "name": "MEVLANA MAH",
      "area": "HACIBAYRAM",
      "postal_code": "46040"
    },
    {
      "id": 37756,
      "district_id": 525,
      "name": "MİMAR SİNAN MAH",
      "area": "BİNEVLER",
      "postal_code": "46050"
    },
    {
      "id": 37757,
      "district_id": 525,
      "name": "MOLLA GÜRANİ MAH",
      "area": "HACIBAYRAM",
      "postal_code": "46040"
    },
    {
      "id": 37758,
      "district_id": 525,
      "name": "MURATLI MAH",
      "area": "SÜLEYMANLI",
      "postal_code": "46140"
    },
    {
      "id": 37759,
      "district_id": 525,
      "name": "NECİP FAZIL MAH",
      "area": "BİNEVLER",
      "postal_code": "46050"
    },
    {
      "id": 37760,
      "district_id": 525,
      "name": "ÖNSEN MAH",
      "area": "SÜLEYMANLI",
      "postal_code": "46140"
    },
    {
      "id": 37761,
      "district_id": 525,
      "name": "ORGANİZE SANAYİ BÖLGESİ MAH",
      "area": "BİNEVLER",
      "postal_code": "46050"
    },
    {
      "id": 37762,
      "district_id": 525,
      "name": "ORHANGAZİ MAH",
      "area": "BİNEVLER",
      "postal_code": "46050"
    },
    {
      "id": 37763,
      "district_id": 525,
      "name": "ORUÇ REİS MAH",
      "area": "HACIBAYRAM",
      "postal_code": "46040"
    },
    {
      "id": 37764,
      "district_id": 525,
      "name": "ÖŞLÜ MAH",
      "area": "SÜLEYMANLI",
      "postal_code": "46140"
    },
    {
      "id": 37765,
      "district_id": 525,
      "name": "OSMAN GAZİ MAH",
      "area": "BİNEVLER",
      "postal_code": "46050"
    },
    {
      "id": 37766,
      "district_id": 525,
      "name": "ÖZTÜRK MAH",
      "area": "SÜLEYMANLI",
      "postal_code": "46140"
    },
    {
      "id": 37767,
      "district_id": 525,
      "name": "PAYAMLI MAH",
      "area": "SÜLEYMANLI",
      "postal_code": "46140"
    },
    {
      "id": 37768,
      "district_id": 525,
      "name": "PİRİ REİS MAH",
      "area": "HACIBAYRAM",
      "postal_code": "46040"
    },
    {
      "id": 37769,
      "district_id": 525,
      "name": "RAHMACILAR MAH",
      "area": "SÜLEYMANLI",
      "postal_code": "46140"
    },
    {
      "id": 37770,
      "district_id": 525,
      "name": "RASİM ÖZDENÖREN MAH",
      "area": "BİNEVLER",
      "postal_code": "46050"
    },
    {
      "id": 37771,
      "district_id": 525,
      "name": "REYHANLI MAH",
      "area": "SÜLEYMANLI",
      "postal_code": "46140"
    },
    {
      "id": 37772,
      "district_id": 525,
      "name": "SAÇAKLIZADE MAH",
      "area": "BİNEVLER",
      "postal_code": "46050"
    },
    {
      "id": 37773,
      "district_id": 525,
      "name": "SADIKLI MAH",
      "area": "SÜLEYMANLI",
      "postal_code": "46140"
    },
    {
      "id": 37774,
      "district_id": 525,
      "name": "ŞAHİNKAYASI MAH",
      "area": "SÜLEYMANLI",
      "postal_code": "46140"
    },
    {
      "id": 37775,
      "district_id": 525,
      "name": "SARIÇUKUR MAH",
      "area": "SÜLEYMANLI",
      "postal_code": "46140"
    },
    {
      "id": 37776,
      "district_id": 525,
      "name": "SARIGÜZEL MAH",
      "area": "SÜLEYMANLI",
      "postal_code": "46140"
    },
    {
      "id": 37777,
      "district_id": 525,
      "name": "SARIMOLLALI MAH",
      "area": "SÜLEYMANLI",
      "postal_code": "46140"
    },
    {
      "id": 37778,
      "district_id": 525,
      "name": "SAYGILI MAH",
      "area": "SÜLEYMANLI",
      "postal_code": "46140"
    },
    {
      "id": 37779,
      "district_id": 525,
      "name": "ŞAZİ BEY MAH",
      "area": "HACIBAYRAM",
      "postal_code": "46040"
    },
    {
      "id": 37780,
      "district_id": 525,
      "name": "ŞEHİT ABDULLAH ÇAVUŞ MAH",
      "area": "BİNEVLER",
      "postal_code": "46050"
    },
    {
      "id": 37781,
      "district_id": 525,
      "name": "ŞEHİT EVLİYA MAH",
      "area": "BİNEVLER",
      "postal_code": "46050"
    },
    {
      "id": 37782,
      "district_id": 525,
      "name": "SELÇUKLU MAH",
      "area": "BİNEVLER",
      "postal_code": "46050"
    },
    {
      "id": 37783,
      "district_id": 525,
      "name": "SELİMİYE MAH",
      "area": "SÜLEYMANLI",
      "postal_code": "46140"
    },
    {
      "id": 37784,
      "district_id": 525,
      "name": "SERİNTEPE MAH",
      "area": "BİNEVLER",
      "postal_code": "46050"
    },
    {
      "id": 37785,
      "district_id": 525,
      "name": "SUÇATI MAH",
      "area": "SÜLEYMANLI",
      "postal_code": "46140"
    },
    {
      "id": 37786,
      "district_id": 525,
      "name": "SÜLEYMANLI MAH",
      "area": "SÜLEYMANLI",
      "postal_code": "46140"
    },
    {
      "id": 37787,
      "district_id": 525,
      "name": "SÜLEYMANŞAH MAH",
      "area": "BİNEVLER",
      "postal_code": "46050"
    },
    {
      "id": 37788,
      "district_id": 525,
      "name": "SULUYAYLA MAH",
      "area": "SÜLEYMANLI",
      "postal_code": "46140"
    },
    {
      "id": 37789,
      "district_id": 525,
      "name": "TAVŞAN TEPE MAH",
      "area": "BİNEVLER",
      "postal_code": "46050"
    },
    {
      "id": 37790,
      "district_id": 525,
      "name": "TEKEREK MAH",
      "area": "BİNEVLER",
      "postal_code": "46050"
    },
    {
      "id": 37791,
      "district_id": 525,
      "name": "TEKİR MAH",
      "area": "SÜLEYMANLI",
      "postal_code": "46140"
    },
    {
      "id": 37792,
      "district_id": 525,
      "name": "TOPÇALI MAH",
      "area": "SÜLEYMANLI",
      "postal_code": "46140"
    },
    {
      "id": 37793,
      "district_id": 525,
      "name": "ULUDAZ MAH",
      "area": "SÜLEYMANLI",
      "postal_code": "46140"
    },
    {
      "id": 37794,
      "district_id": 525,
      "name": "ÜNGÜT MAH",
      "area": "BİNEVLER",
      "postal_code": "46050"
    },
    {
      "id": 37795,
      "district_id": 525,
      "name": "VADİ MAH",
      "area": "HACIBAYRAM",
      "postal_code": "46040"
    },
    {
      "id": 37796,
      "district_id": 525,
      "name": "YAMAÇTEPE MAH",
      "area": "BİNEVLER",
      "postal_code": "46050"
    },
    {
      "id": 37797,
      "district_id": 525,
      "name": "YAVŞANOVA MAH",
      "area": "SÜLEYMANLI",
      "postal_code": "46140"
    },
    {
      "id": 37798,
      "district_id": 525,
      "name": "YENİCEKALE MAH",
      "area": "SÜLEYMANLI",
      "postal_code": "46140"
    },
    {
      "id": 37799,
      "district_id": 525,
      "name": "YENİDEMİR MAH",
      "area": "SÜLEYMANLI",
      "postal_code": "46140"
    },
    {
      "id": 37800,
      "district_id": 525,
      "name": "YENİYAPAN MAH",
      "area": "SÜLEYMANLI",
      "postal_code": "46140"
    },
    {
      "id": 37801,
      "district_id": 525,
      "name": "YEŞİLYURT MAH",
      "area": "SÜLEYMANLI",
      "postal_code": "46140"
    },
    {
      "id": 37802,
      "district_id": 525,
      "name": "YİRMİİKİGÜN MAH",
      "area": "BİNEVLER",
      "postal_code": "46050"
    },
    {
      "id": 37803,
      "district_id": 525,
      "name": "YOLYANI MAH",
      "area": "SÜLEYMANLI",
      "postal_code": "46140"
    },
    {
      "id": 37804,
      "district_id": 525,
      "name": "YUNUS EMRE MAH",
      "area": "BİNEVLER",
      "postal_code": "46050"
    },
    {
      "id": 37805,
      "district_id": 525,
      "name": "YÜRÜKSELİM MAH",
      "area": "BİNEVLER",
      "postal_code": "46050"
    },
    {
      "id": 37806,
      "district_id": 525,
      "name": "YUSUFLAR MAH",
      "area": "HACIBAYRAM",
      "postal_code": "46040"
    },
    {
      "id": 37807,
      "district_id": 525,
      "name": "ZEYTİNDERE MAH",
      "area": "SÜLEYMANLI",
      "postal_code": "46140"
    },
    {
      "id": 37808,
      "district_id": 526,
      "name": "15 TEMMUZ MAH",
      "area": "PAZARCIK",
      "postal_code": "46700"
    },
    {
      "id": 37809,
      "district_id": 526,
      "name": "AHMET BOZDAĞ MAH",
      "area": "PAZARCIK",
      "postal_code": "46700"
    },
    {
      "id": 37810,
      "district_id": 526,
      "name": "AKCAKOYUNLU MAH",
      "area": "PAZARCIK",
      "postal_code": "46700"
    },
    {
      "id": 37811,
      "district_id": 526,
      "name": "AKÇALAR MAH",
      "area": "PAZARCIK",
      "postal_code": "46700"
    },
    {
      "id": 37812,
      "district_id": 526,
      "name": "AKDEMİR MAH",
      "area": "PAZARCIK",
      "postal_code": "46700"
    },
    {
      "id": 37813,
      "district_id": 526,
      "name": "ARMUTLU MAH",
      "area": "PAZARCIK",
      "postal_code": "46700"
    },
    {
      "id": 37814,
      "district_id": 526,
      "name": "AŞAĞIMÜLK MAH",
      "area": "PAZARCIK",
      "postal_code": "46700"
    },
    {
      "id": 37815,
      "district_id": 526,
      "name": "BAĞDINISAĞIR MAH",
      "area": "PAZARCIK",
      "postal_code": "46700"
    },
    {
      "id": 37816,
      "district_id": 526,
      "name": "BEŞÇEŞME MAH",
      "area": "PAZARCIK",
      "postal_code": "46700"
    },
    {
      "id": 37817,
      "district_id": 526,
      "name": "BÖLÜKÇAM MAH",
      "area": "PAZARCIK",
      "postal_code": "46700"
    },
    {
      "id": 37818,
      "district_id": 526,
      "name": "BÜYÜKNACAR FATİH MAH",
      "area": "PAZARCIK",
      "postal_code": "46700"
    },
    {
      "id": 37819,
      "district_id": 526,
      "name": "BÜYÜKNACAR KOCADERE MAH",
      "area": "PAZARCIK",
      "postal_code": "46700"
    },
    {
      "id": 37820,
      "district_id": 526,
      "name": "BÜYÜKNACAR MERKEZ MAH",
      "area": "PAZARCIK",
      "postal_code": "46700"
    },
    {
      "id": 37821,
      "district_id": 526,
      "name": "ÇAMLICA MAH",
      "area": "PAZARCIK",
      "postal_code": "46700"
    },
    {
      "id": 37822,
      "district_id": 526,
      "name": "ÇAMLITEPE MAH",
      "area": "PAZARCIK",
      "postal_code": "46700"
    },
    {
      "id": 37823,
      "district_id": 526,
      "name": "CENGİZ TOPEL MAH",
      "area": "PAZARCIK",
      "postal_code": "46700"
    },
    {
      "id": 37824,
      "district_id": 526,
      "name": "ÇİÇEK MAH",
      "area": "PAZARCIK",
      "postal_code": "46700"
    },
    {
      "id": 37825,
      "district_id": 526,
      "name": "ÇİÇEKALANI MAH",
      "area": "PAZARCIK",
      "postal_code": "46700"
    },
    {
      "id": 37826,
      "district_id": 526,
      "name": "ÇİĞDEMTEPE MAH",
      "area": "PAZARCIK",
      "postal_code": "46700"
    },
    {
      "id": 37827,
      "district_id": 526,
      "name": "CİMİKANLI MAH",
      "area": "PAZARCIK",
      "postal_code": "46700"
    },
    {
      "id": 37828,
      "district_id": 526,
      "name": "ÇÖÇELLİ MAH",
      "area": "PAZARCIK",
      "postal_code": "46700"
    },
    {
      "id": 37829,
      "district_id": 526,
      "name": "DAMLATAŞ MAH",
      "area": "PAZARCIK",
      "postal_code": "46700"
    },
    {
      "id": 37830,
      "district_id": 526,
      "name": "DEDEPAŞA MAH",
      "area": "PAZARCIK",
      "postal_code": "46700"
    },
    {
      "id": 37831,
      "district_id": 526,
      "name": "EĞLEN MAH",
      "area": "PAZARCIK",
      "postal_code": "46700"
    },
    {
      "id": 37832,
      "district_id": 526,
      "name": "EĞRİCE MAH",
      "area": "PAZARCIK",
      "postal_code": "46700"
    },
    {
      "id": 37833,
      "district_id": 526,
      "name": "EMİROĞLU MAH",
      "area": "PAZARCIK",
      "postal_code": "46700"
    },
    {
      "id": 37834,
      "district_id": 526,
      "name": "EVRİ PINARBAŞI MAH",
      "area": "PAZARCIK",
      "postal_code": "46700"
    },
    {
      "id": 37835,
      "district_id": 526,
      "name": "EVRİ TAŞBİÇME MAH",
      "area": "PAZARCIK",
      "postal_code": "46700"
    },
    {
      "id": 37836,
      "district_id": 526,
      "name": "FATİH MAH",
      "area": "PAZARCIK",
      "postal_code": "46700"
    },
    {
      "id": 37837,
      "district_id": 526,
      "name": "GANİDAĞIKETİLER MAH",
      "area": "PAZARCIK",
      "postal_code": "46700"
    },
    {
      "id": 37838,
      "district_id": 526,
      "name": "GÖÇER MAH",
      "area": "PAZARCIK",
      "postal_code": "46700"
    },
    {
      "id": 37839,
      "district_id": 526,
      "name": "GÖYNÜK MAH",
      "area": "PAZARCIK",
      "postal_code": "46700"
    },
    {
      "id": 37840,
      "district_id": 526,
      "name": "HANOBASI MAH",
      "area": "PAZARCIK",
      "postal_code": "46700"
    },
    {
      "id": 37841,
      "district_id": 526,
      "name": "HARMANCIK MAH",
      "area": "PAZARCIK",
      "postal_code": "46700"
    },
    {
      "id": 37842,
      "district_id": 526,
      "name": "HASANKOCA MAH",
      "area": "PAZARCIK",
      "postal_code": "46700"
    },
    {
      "id": 37843,
      "district_id": 526,
      "name": "HÜRRİYET MAH",
      "area": "PAZARCIK",
      "postal_code": "46700"
    },
    {
      "id": 37844,
      "district_id": 526,
      "name": "İNCİRLİ MAH",
      "area": "PAZARCIK",
      "postal_code": "46700"
    },
    {
      "id": 37845,
      "district_id": 526,
      "name": "KADINCIK MAH",
      "area": "PAZARCIK",
      "postal_code": "46700"
    },
    {
      "id": 37846,
      "district_id": 526,
      "name": "KARAAĞAÇ MAH",
      "area": "PAZARCIK",
      "postal_code": "46700"
    },
    {
      "id": 37847,
      "district_id": 526,
      "name": "KARABIYIKLI MAH",
      "area": "PAZARCIK",
      "postal_code": "46700"
    },
    {
      "id": 37848,
      "district_id": 526,
      "name": "KARAÇAY MAH",
      "area": "PAZARCIK",
      "postal_code": "46700"
    },
    {
      "id": 37849,
      "district_id": 526,
      "name": "KARAGÖL MAH",
      "area": "PAZARCIK",
      "postal_code": "46700"
    },
    {
      "id": 37850,
      "district_id": 526,
      "name": "KARAHÜYÜK MAH",
      "area": "PAZARCIK",
      "postal_code": "46700"
    },
    {
      "id": 37851,
      "district_id": 526,
      "name": "KELEŞ MAH",
      "area": "PAZARCIK",
      "postal_code": "46700"
    },
    {
      "id": 37852,
      "district_id": 526,
      "name": "KİZİRLİ MAH",
      "area": "PAZARCIK",
      "postal_code": "46700"
    },
    {
      "id": 37853,
      "district_id": 526,
      "name": "KIZKAPANLI MAH",
      "area": "PAZARCIK",
      "postal_code": "46700"
    },
    {
      "id": 37854,
      "district_id": 526,
      "name": "KUZEYKENT MAH",
      "area": "PAZARCIK",
      "postal_code": "46700"
    },
    {
      "id": 37855,
      "district_id": 526,
      "name": "MEHMET EMİN ARIKOĞLU MAH",
      "area": "PAZARCIK",
      "postal_code": "46700"
    },
    {
      "id": 37856,
      "district_id": 526,
      "name": "MEMİŞ ÖZDAL MAH",
      "area": "PAZARCIK",
      "postal_code": "46700"
    },
    {
      "id": 37857,
      "district_id": 526,
      "name": "MEMİŞKAHYA MAH",
      "area": "PAZARCIK",
      "postal_code": "46700"
    },
    {
      "id": 37858,
      "district_id": 526,
      "name": "MENDERES MAH",
      "area": "PAZARCIK",
      "postal_code": "46700"
    },
    {
      "id": 37859,
      "district_id": 526,
      "name": "MEZERE MAH",
      "area": "PAZARCIK",
      "postal_code": "46700"
    },
    {
      "id": 37860,
      "district_id": 526,
      "name": "MUSOLAR MAH",
      "area": "PAZARCIK",
      "postal_code": "46700"
    },
    {
      "id": 37861,
      "district_id": 526,
      "name": "NARLI BAHÇELİEVLER MAH",
      "area": "PAZARCIK",
      "postal_code": "46700"
    },
    {
      "id": 37862,
      "district_id": 526,
      "name": "NARLI CUMHURİYET MAH",
      "area": "PAZARCIK",
      "postal_code": "46700"
    },
    {
      "id": 37863,
      "district_id": 526,
      "name": "NARLI İSMETPAŞA MAH",
      "area": "PAZARCIK",
      "postal_code": "46700"
    },
    {
      "id": 37864,
      "district_id": 526,
      "name": "NEFSİDOĞANLI MAH",
      "area": "PAZARCIK",
      "postal_code": "46700"
    },
    {
      "id": 37865,
      "district_id": 526,
      "name": "ÖRDEKDEDE MAH",
      "area": "PAZARCIK",
      "postal_code": "46700"
    },
    {
      "id": 37866,
      "district_id": 526,
      "name": "OSMANDEDE MAH",
      "area": "PAZARCIK",
      "postal_code": "46700"
    },
    {
      "id": 37867,
      "district_id": 526,
      "name": "SADAKALAR MAH",
      "area": "PAZARCIK",
      "postal_code": "46700"
    },
    {
      "id": 37868,
      "district_id": 526,
      "name": "ŞAHİNTEPE MAH",
      "area": "PAZARCIK",
      "postal_code": "46700"
    },
    {
      "id": 37869,
      "district_id": 526,
      "name": "SAKARKAYA MAH",
      "area": "PAZARCIK",
      "postal_code": "46700"
    },
    {
      "id": 37870,
      "district_id": 526,
      "name": "SALLIUŞAĞI MAH",
      "area": "PAZARCIK",
      "postal_code": "46700"
    },
    {
      "id": 37871,
      "district_id": 526,
      "name": "SALMANIPAK MAH",
      "area": "PAZARCIK",
      "postal_code": "46700"
    },
    {
      "id": 37872,
      "district_id": 526,
      "name": "SALMANLI MAH",
      "area": "PAZARCIK",
      "postal_code": "46700"
    },
    {
      "id": 37873,
      "district_id": 526,
      "name": "SARIERİK MAH",
      "area": "PAZARCIK",
      "postal_code": "46700"
    },
    {
      "id": 37874,
      "district_id": 526,
      "name": "SARIL MAH",
      "area": "PAZARCIK",
      "postal_code": "46700"
    },
    {
      "id": 37875,
      "district_id": 526,
      "name": "ŞEHİT NURETTİN ADEMOĞLU MAH",
      "area": "PAZARCIK",
      "postal_code": "46700"
    },
    {
      "id": 37876,
      "district_id": 526,
      "name": "SOKU MİLYANLI MAH",
      "area": "PAZARCIK",
      "postal_code": "46700"
    },
    {
      "id": 37877,
      "district_id": 526,
      "name": "SULTANLAR MAH",
      "area": "PAZARCIK",
      "postal_code": "46700"
    },
    {
      "id": 37878,
      "district_id": 526,
      "name": "TAŞDEMİR MAH",
      "area": "PAZARCIK",
      "postal_code": "46700"
    },
    {
      "id": 37879,
      "district_id": 526,
      "name": "TETİRLİK MAH",
      "area": "PAZARCIK",
      "postal_code": "46700"
    },
    {
      "id": 37880,
      "district_id": 526,
      "name": "TİLKİLER MAH",
      "area": "PAZARCIK",
      "postal_code": "46700"
    },
    {
      "id": 37881,
      "district_id": 526,
      "name": "TURUNÇLU MAH",
      "area": "PAZARCIK",
      "postal_code": "46700"
    },
    {
      "id": 37882,
      "district_id": 526,
      "name": "UFACIKLI MAH",
      "area": "PAZARCIK",
      "postal_code": "46700"
    },
    {
      "id": 37883,
      "district_id": 526,
      "name": "ULUBAHÇE MAH",
      "area": "PAZARCIK",
      "postal_code": "46700"
    },
    {
      "id": 37884,
      "district_id": 526,
      "name": "YARBAŞI MAH",
      "area": "PAZARCIK",
      "postal_code": "46700"
    },
    {
      "id": 37885,
      "district_id": 526,
      "name": "YEŞİLKENT MAH",
      "area": "PAZARCIK",
      "postal_code": "46700"
    },
    {
      "id": 37886,
      "district_id": 526,
      "name": "YİĞİTLER MAH",
      "area": "PAZARCIK",
      "postal_code": "46700"
    },
    {
      "id": 37887,
      "district_id": 526,
      "name": "YOLBOYU MAH",
      "area": "PAZARCIK",
      "postal_code": "46700"
    },
    {
      "id": 37888,
      "district_id": 526,
      "name": "YUKARIHÖCÜKLÜ MAH",
      "area": "PAZARCIK",
      "postal_code": "46700"
    },
    {
      "id": 37889,
      "district_id": 526,
      "name": "YUKARIMÜLK MAH",
      "area": "PAZARCIK",
      "postal_code": "46700"
    },
    {
      "id": 37890,
      "district_id": 526,
      "name": "YUMAKLICERİT BAĞLAR MAH",
      "area": "PAZARCIK",
      "postal_code": "46700"
    },
    {
      "id": 37891,
      "district_id": 526,
      "name": "YUMAKLICERİT CUMHURİYET MAH",
      "area": "PAZARCIK",
      "postal_code": "46700"
    },
    {
      "id": 37892,
      "district_id": 527,
      "name": "AKÇALI MAH",
      "area": "TÜRKOĞLU",
      "postal_code": "46800"
    },
    {
      "id": 37893,
      "district_id": 527,
      "name": "AVŞARLI MAH",
      "area": "TÜRKOĞLU",
      "postal_code": "46800"
    },
    {
      "id": 37894,
      "district_id": 527,
      "name": "AYDINKAVAK MAH",
      "area": "TÜRKOĞLU",
      "postal_code": "46800"
    },
    {
      "id": 37895,
      "district_id": 527,
      "name": "BAYRAMGAZİ MAH",
      "area": "TÜRKOĞLU",
      "postal_code": "46800"
    },
    {
      "id": 37896,
      "district_id": 527,
      "name": "BEYOĞLU MAH",
      "area": "TÜRKOĞLU",
      "postal_code": "46800"
    },
    {
      "id": 37897,
      "district_id": 527,
      "name": "ÇAKALLIÇULLU MAH",
      "area": "TÜRKOĞLU",
      "postal_code": "46800"
    },
    {
      "id": 37898,
      "district_id": 527,
      "name": "ÇAKALLIHASANAĞA MAH",
      "area": "TÜRKOĞLU",
      "postal_code": "46800"
    },
    {
      "id": 37899,
      "district_id": 527,
      "name": "ÇAKIROĞLU MAH",
      "area": "TÜRKOĞLU",
      "postal_code": "46800"
    },
    {
      "id": 37900,
      "district_id": 527,
      "name": "CECELİ MAH",
      "area": "TÜRKOĞLU",
      "postal_code": "46800"
    },
    {
      "id": 37901,
      "district_id": 527,
      "name": "CENNETPINARI MAH",
      "area": "TÜRKOĞLU",
      "postal_code": "46800"
    },
    {
      "id": 37902,
      "district_id": 527,
      "name": "ÇOBANTEPE MAH",
      "area": "TÜRKOĞLU",
      "postal_code": "46800"
    },
    {
      "id": 37903,
      "district_id": 527,
      "name": "CUMHURİYET MAH",
      "area": "TÜRKOĞLU",
      "postal_code": "46800"
    },
    {
      "id": 37904,
      "district_id": 527,
      "name": "DEDELER MAH",
      "area": "TÜRKOĞLU",
      "postal_code": "46800"
    },
    {
      "id": 37905,
      "district_id": 527,
      "name": "DOLUCA MAH",
      "area": "TÜRKOĞLU",
      "postal_code": "46800"
    },
    {
      "id": 37906,
      "district_id": 527,
      "name": "FATİH MAH",
      "area": "TÜRKOĞLU",
      "postal_code": "46800"
    },
    {
      "id": 37907,
      "district_id": 527,
      "name": "GAZİLER MAH",
      "area": "TÜRKOĞLU",
      "postal_code": "46800"
    },
    {
      "id": 37908,
      "district_id": 527,
      "name": "GAZİOSMANPAŞA MAH",
      "area": "TÜRKOĞLU",
      "postal_code": "46800"
    },
    {
      "id": 37909,
      "district_id": 527,
      "name": "GÜLLÜHÜYÜK MAH",
      "area": "TÜRKOĞLU",
      "postal_code": "46800"
    },
    {
      "id": 37910,
      "district_id": 527,
      "name": "HACIBEBEK MAH",
      "area": "TÜRKOĞLU",
      "postal_code": "46800"
    },
    {
      "id": 37911,
      "district_id": 527,
      "name": "HOPURLU MAH",
      "area": "TÜRKOĞLU",
      "postal_code": "46800"
    },
    {
      "id": 37912,
      "district_id": 527,
      "name": "İMALI MAH",
      "area": "TÜRKOĞLU",
      "postal_code": "46800"
    },
    {
      "id": 37913,
      "district_id": 527,
      "name": "İSTASYON MAH",
      "area": "TÜRKOĞLU",
      "postal_code": "46800"
    },
    {
      "id": 37914,
      "district_id": 527,
      "name": "KADIOĞLUÇİFTLİĞİ MAH",
      "area": "TÜRKOĞLU",
      "postal_code": "46800"
    },
    {
      "id": 37915,
      "district_id": 527,
      "name": "KALEDİBİ MAH",
      "area": "TÜRKOĞLU",
      "postal_code": "46800"
    },
    {
      "id": 37916,
      "district_id": 527,
      "name": "KELİBİŞLER MAH",
      "area": "TÜRKOĞLU",
      "postal_code": "46800"
    },
    {
      "id": 37917,
      "district_id": 527,
      "name": "KILILI MAH",
      "area": "TÜRKOĞLU",
      "postal_code": "46800"
    },
    {
      "id": 37918,
      "district_id": 527,
      "name": "KIRMAKAYA MAH",
      "area": "TÜRKOĞLU",
      "postal_code": "46800"
    },
    {
      "id": 37919,
      "district_id": 527,
      "name": "KIZILENİŞ MAH",
      "area": "TÜRKOĞLU",
      "postal_code": "46800"
    },
    {
      "id": 37920,
      "district_id": 527,
      "name": "KÜÇÜKİMALI MAH",
      "area": "TÜRKOĞLU",
      "postal_code": "46800"
    },
    {
      "id": 37921,
      "district_id": 527,
      "name": "KUMÇATI MAH",
      "area": "TÜRKOĞLU",
      "postal_code": "46800"
    },
    {
      "id": 37922,
      "district_id": 527,
      "name": "KUYUMCULAR MAH",
      "area": "TÜRKOĞLU",
      "postal_code": "46800"
    },
    {
      "id": 37923,
      "district_id": 527,
      "name": "MİNEHÜYÜK MAH",
      "area": "TÜRKOĞLU",
      "postal_code": "46800"
    },
    {
      "id": 37924,
      "district_id": 527,
      "name": "ÖNSENHOPURU MAH",
      "area": "TÜRKOĞLU",
      "postal_code": "46800"
    },
    {
      "id": 37925,
      "district_id": 527,
      "name": "ÖZBEK MAH",
      "area": "TÜRKOĞLU",
      "postal_code": "46800"
    },
    {
      "id": 37926,
      "district_id": 527,
      "name": "PINARHÜYÜK MAH",
      "area": "TÜRKOĞLU",
      "postal_code": "46800"
    },
    {
      "id": 37927,
      "district_id": 527,
      "name": "ŞEKEROBA MAH",
      "area": "TÜRKOĞLU",
      "postal_code": "46800"
    },
    {
      "id": 37928,
      "district_id": 527,
      "name": "TAHTALIDEDELER MAH",
      "area": "TÜRKOĞLU",
      "postal_code": "46800"
    },
    {
      "id": 37929,
      "district_id": 527,
      "name": "TÜRKOĞLU OSB MAH",
      "area": "TÜRKOĞLU",
      "postal_code": "46800"
    },
    {
      "id": 37930,
      "district_id": 527,
      "name": "UZUNSÖĞÜT MAH",
      "area": "TÜRKOĞLU",
      "postal_code": "46800"
    },
    {
      "id": 37931,
      "district_id": 527,
      "name": "YAVUZLAR MAH",
      "area": "TÜRKOĞLU",
      "postal_code": "46800"
    },
    {
      "id": 37932,
      "district_id": 527,
      "name": "YENİKÖY MAH",
      "area": "TÜRKOĞLU",
      "postal_code": "46800"
    },
    {
      "id": 37933,
      "district_id": 527,
      "name": "YENİPINAR MAH",
      "area": "TÜRKOĞLU",
      "postal_code": "46800"
    },
    {
      "id": 37934,
      "district_id": 527,
      "name": "YEŞİLYÖRE MAH",
      "area": "TÜRKOĞLU",
      "postal_code": "46800"
    },
    {
      "id": 37935,
      "district_id": 527,
      "name": "YEŞİLYURT MAH",
      "area": "TÜRKOĞLU",
      "postal_code": "46800"
    },
    {
      "id": 37936,
      "district_id": 527,
      "name": "YOLDERESİ MAH",
      "area": "TÜRKOĞLU",
      "postal_code": "46800"
    }
  ]
}