{
  "neighborhoods": [
    {
      "id": 49662,
      "district_id": 681,
      "name": "ALAHIDIR MAH",
      "area": "AHMETLİ",
      "postal_code": "45450"
    },
    {
      "id": 49663,
      "district_id": 681,
      "name": "ALTIEYLÜL MAH",
      "area": "AHMETLİ",
      "postal_code": "45450"
    },
    {
      "id": 49664,
      "district_id": 681,
      "name": "ATAKÖY MAH",
      "area": "AHMETLİ",
      "postal_code": "45450"
    },
    {
      "id": 49665,
      "district_id": 681,
      "name": "BAHÇECİK MAH",
      "area": "AHMETLİ",
      "postal_code": "45450"
    },
    {
      "id": 49666,
      "district_id": 681,
      "name": "BARBAROS MAH",
      "area": "AHMETLİ",
      "postal_code": "45450"
    },
    {
      "id": 49667,
      "district_id": 681,
      "name": "CANBAZLI MAH",
      "area": "AHMETLİ",
      "postal_code": "45450"
    },
    {
      "id": 49668,
      "district_id": 681,
      "name": "DEREKÖY MAH",
      "area": "AHMETLİ",
      "postal_code": "45450"
    },
    {
      "id": 49669,
      "district_id": 681,
      "name": "DERİCİ MAH",
      "area": "AHMETLİ",
      "postal_code": "45450"
    },
    {
      "id": 49670,
      "district_id": 681,
      "name": "DİBEKDERE MAH",
      "area": "AHMETLİ",
      "postal_code": "45450"
    },
    {
      "id": 49671,
      "district_id": 681,
      "name": "GÖKKAYA MAH",
      "area": "GÖKKAYA",
      "postal_code": "45453"
    },
    {
      "id": 49672,
      "district_id": 681,
      "name": "GÜLDEDE MAH",
      "area": "AHMETLİ",
      "postal_code": "45450"
    },
    {
      "id": 49673,
      "district_id": 681,
      "name": "HACIKÖSELİ MAH",
      "area": "AHMETLİ",
      "postal_code": "45450"
    },
    {
      "id": 49674,
      "district_id": 681,
      "name": "HALİLKAHYA MAH",
      "area": "AHMETLİ",
      "postal_code": "45450"
    },
    {
      "id": 49675,
      "district_id": 681,
      "name": "KARAKÖY MAH",
      "area": "AHMETLİ",
      "postal_code": "45450"
    },
    {
      "id": 49676,
      "district_id": 681,
      "name": "KARGIN MAH",
      "area": "AHMETLİ",
      "postal_code": "45450"
    },
    {
      "id": 49677,
      "district_id": 681,
      "name": "KENDİRLİK MAH",
      "area": "AHMETLİ",
      "postal_code": "45450"
    },
    {
      "id": 49678,
      "district_id": 681,
      "name": "KESTELLİ MAH",
      "area": "AHMETLİ",
      "postal_code": "45450"
    },
    {
      "id": 49679,
      "district_id": 681,
      "name": "KURTULUŞ MAH",
      "area": "AHMETLİ",
      "postal_code": "45450"
    },
    {
      "id": 49680,
      "district_id": 681,
      "name": "MANDALLI MAH",
      "area": "AHMETLİ",
      "postal_code": "45450"
    },
    {
      "id": 49681,
      "district_id": 681,
      "name": "SEYDİKÖY MAH",
      "area": "AHMETLİ",
      "postal_code": "45450"
    },
    {
      "id": 49682,
      "district_id": 681,
      "name": "ULU CAMİ MAH",
      "area": "AHMETLİ",
      "postal_code": "45450"
    },
    {
      "id": 49683,
      "district_id": 681,
      "name": "YARAŞLI MAH",
      "area": "AHMETLİ",
      "postal_code": "45450"
    },
    {
      "id": 49684,
      "district_id": 681,
      "name": "ZAFER MAH",
      "area": "AHMETLİ",
      "postal_code": "45450"
    },
    {
      "id": 49685,
      "district_id": 682,
      "name": "AKÇAALAN MAH",
      "area": "AKHİSAR",
      "postal_code": "45200"
    },
    {
      "id": 49686,
      "district_id": 682,
      "name": "AKÇEŞME MAH",
      "area": "AKHİSAR",
      "postal_code": "45200"
    },
    {
      "id": 49687,
      "district_id": 682,
      "name": "AKKOCALI MAH",
      "area": "AKHİSAR",
      "postal_code": "45200"
    },
    {
      "id": 49688,
      "district_id": 682,
      "name": "AKSELENDİ MAH",
      "area": "AKHİSAR",
      "postal_code": "45200"
    },
    {
      "id": 49689,
      "district_id": 682,
      "name": "ARABACIBOZKÖY MAH",
      "area": "AKHİSAR",
      "postal_code": "45200"
    },
    {
      "id": 49690,
      "district_id": 682,
      "name": "AŞAĞIDOLMA MAH",
      "area": "AKHİSAR",
      "postal_code": "45200"
    },
    {
      "id": 49691,
      "district_id": 682,
      "name": "ATATÜRK MAH",
      "area": "AKHİSAR",
      "postal_code": "45200"
    },
    {
      "id": 49692,
      "district_id": 682,
      "name": "BALLICA MAH",
      "area": "AKHİSAR",
      "postal_code": "45200"
    },
    {
      "id": 49693,
      "district_id": 682,
      "name": "BAŞLAMIŞ MAH",
      "area": "AKHİSAR",
      "postal_code": "45200"
    },
    {
      "id": 49694,
      "district_id": 682,
      "name": "BEKİRLER MAH",
      "area": "AKHİSAR",
      "postal_code": "45200"
    },
    {
      "id": 49695,
      "district_id": 682,
      "name": "BEYOBA MAH",
      "area": "AKHİSAR",
      "postal_code": "45200"
    },
    {
      "id": 49696,
      "district_id": 682,
      "name": "BOYALILAR MAH",
      "area": "AKHİSAR",
      "postal_code": "45200"
    },
    {
      "id": 49697,
      "district_id": 682,
      "name": "BÜKNÜŞ MAH",
      "area": "AKHİSAR",
      "postal_code": "45200"
    },
    {
      "id": 49698,
      "district_id": 682,
      "name": "BÜNYANOSMANİYE MAH",
      "area": "AKHİSAR",
      "postal_code": "45200"
    },
    {
      "id": 49699,
      "district_id": 682,
      "name": "ÇAMÖNÜ MAH",
      "area": "AKHİSAR",
      "postal_code": "45200"
    },
    {
      "id": 49700,
      "district_id": 682,
      "name": "ÇANAKÇI MAH",
      "area": "AKHİSAR",
      "postal_code": "45200"
    },
    {
      "id": 49701,
      "district_id": 682,
      "name": "ÇITAK MAH",
      "area": "AKHİSAR",
      "postal_code": "45200"
    },
    {
      "id": 49702,
      "district_id": 682,
      "name": "ÇOBANHASAN MAH",
      "area": "AKHİSAR",
      "postal_code": "45200"
    },
    {
      "id": 49703,
      "district_id": 682,
      "name": "ÇORUK MAH",
      "area": "AKHİSAR",
      "postal_code": "45200"
    },
    {
      "id": 49704,
      "district_id": 682,
      "name": "CUMHURİYET MAH",
      "area": "AKHİSAR",
      "postal_code": "45200"
    },
    {
      "id": 49705,
      "district_id": 682,
      "name": "DAĞDERE MAH",
      "area": "AKHİSAR",
      "postal_code": "45200"
    },
    {
      "id": 49706,
      "district_id": 682,
      "name": "DAYIOĞLU MAH",
      "area": "AKHİSAR",
      "postal_code": "45200"
    },
    {
      "id": 49707,
      "district_id": 682,
      "name": "DEREKÖY MAH",
      "area": "AKHİSAR",
      "postal_code": "45200"
    },
    {
      "id": 49708,
      "district_id": 682,
      "name": "DİNGİLLER MAH",
      "area": "AKHİSAR",
      "postal_code": "45200"
    },
    {
      "id": 49709,
      "district_id": 682,
      "name": "DOĞANKAYA MAH",
      "area": "AKHİSAR",
      "postal_code": "45200"
    },
    {
      "id": 49710,
      "district_id": 682,
      "name": "DOĞUCA MAH",
      "area": "AKHİSAR",
      "postal_code": "45200"
    },
    {
      "id": 49711,
      "district_id": 682,
      "name": "DOLMADEĞİRMEN MAH",
      "area": "AKHİSAR",
      "postal_code": "45200"
    },
    {
      "id": 49712,
      "district_id": 682,
      "name": "DURASIL MAH",
      "area": "AKHİSAR",
      "postal_code": "45200"
    },
    {
      "id": 49713,
      "district_id": 682,
      "name": "EFENDİ MAH",
      "area": "AKHİSAR",
      "postal_code": "45200"
    },
    {
      "id": 49714,
      "district_id": 682,
      "name": "ERDELLİ MAH",
      "area": "AKHİSAR",
      "postal_code": "45200"
    },
    {
      "id": 49715,
      "district_id": 682,
      "name": "EROĞLU MAH",
      "area": "AKHİSAR",
      "postal_code": "45200"
    },
    {
      "id": 49716,
      "district_id": 682,
      "name": "EVKAFTEKE MAH",
      "area": "AKHİSAR",
      "postal_code": "45200"
    },
    {
      "id": 49717,
      "district_id": 682,
      "name": "GÖCEK MAH",
      "area": "AKHİSAR",
      "postal_code": "45200"
    },
    {
      "id": 49718,
      "district_id": 682,
      "name": "GÖKÇEAHMET MAH",
      "area": "AKHİSAR",
      "postal_code": "45200"
    },
    {
      "id": 49719,
      "district_id": 682,
      "name": "GÖKÇELER MAH",
      "area": "AKHİSAR",
      "postal_code": "45200"
    },
    {
      "id": 49720,
      "district_id": 682,
      "name": "HACI İSHAK MAH",
      "area": "AKHİSAR",
      "postal_code": "45200"
    },
    {
      "id": 49721,
      "district_id": 682,
      "name": "HACIİBRAHİMLER MAH",
      "area": "AKHİSAR",
      "postal_code": "45200"
    },
    {
      "id": 49722,
      "district_id": 682,
      "name": "HACIOSMANLAR MAH",
      "area": "AKHİSAR",
      "postal_code": "45200"
    },
    {
      "id": 49723,
      "district_id": 682,
      "name": "HAMİDİYE MAH",
      "area": "AKHİSAR",
      "postal_code": "45200"
    },
    {
      "id": 49724,
      "district_id": 682,
      "name": "HAMİTKÖY MAH",
      "area": "AKHİSAR",
      "postal_code": "45200"
    },
    {
      "id": 49725,
      "district_id": 682,
      "name": "HANPAŞA MAH",
      "area": "AKHİSAR",
      "postal_code": "45200"
    },
    {
      "id": 49726,
      "district_id": 682,
      "name": "HARMANDALI MAH",
      "area": "AKHİSAR",
      "postal_code": "45200"
    },
    {
      "id": 49727,
      "district_id": 682,
      "name": "HAS HOCA MAH",
      "area": "AKHİSAR",
      "postal_code": "45200"
    },
    {
      "id": 49728,
      "district_id": 682,
      "name": "HASKÖY MAH",
      "area": "AKHİSAR",
      "postal_code": "45200"
    },
    {
      "id": 49729,
      "district_id": 682,
      "name": "HÜRRİYET MAH",
      "area": "AKHİSAR",
      "postal_code": "45200"
    },
    {
      "id": 49730,
      "district_id": 682,
      "name": "İNÖNÜ MAH",
      "area": "AKHİSAR",
      "postal_code": "45200"
    },
    {
      "id": 49731,
      "district_id": 682,
      "name": "İSACA MAH",
      "area": "AKHİSAR",
      "postal_code": "45200"
    },
    {
      "id": 49732,
      "district_id": 682,
      "name": "IŞIKKÖY MAH",
      "area": "AKHİSAR",
      "postal_code": "45200"
    },
    {
      "id": 49733,
      "district_id": 682,
      "name": "KABAAĞAÇKIRAN MAH",
      "area": "AKHİSAR",
      "postal_code": "45200"
    },
    {
      "id": 49734,
      "district_id": 682,
      "name": "KADIDAĞI MAH",
      "area": "AKHİSAR",
      "postal_code": "45200"
    },
    {
      "id": 49735,
      "district_id": 682,
      "name": "KAPAKLI MAH",
      "area": "AKHİSAR",
      "postal_code": "45200"
    },
    {
      "id": 49736,
      "district_id": 682,
      "name": "KARABÖRKLÜ MAH",
      "area": "AKHİSAR",
      "postal_code": "45200"
    },
    {
      "id": 49737,
      "district_id": 682,
      "name": "KARAKÖY MAH",
      "area": "AKHİSAR",
      "postal_code": "45200"
    },
    {
      "id": 49738,
      "district_id": 682,
      "name": "KARAYAĞCI MAH",
      "area": "AKHİSAR",
      "postal_code": "45200"
    },
    {
      "id": 49739,
      "district_id": 682,
      "name": "KAVAKALAN MAH",
      "area": "AKHİSAR",
      "postal_code": "45200"
    },
    {
      "id": 49740,
      "district_id": 682,
      "name": "KAYALIOĞLU MAH",
      "area": "AKHİSAR",
      "postal_code": "45200"
    },
    {
      "id": 49741,
      "district_id": 682,
      "name": "KAYGANLI MAH",
      "area": "AKHİSAR",
      "postal_code": "45200"
    },
    {
      "id": 49742,
      "district_id": 682,
      "name": "KETHÜDA MAH",
      "area": "AKHİSAR",
      "postal_code": "45200"
    },
    {
      "id": 49743,
      "district_id": 682,
      "name": "KIZLARALANI MAH",
      "area": "AKHİSAR",
      "postal_code": "45200"
    },
    {
      "id": 49744,
      "district_id": 682,
      "name": "KOBAŞDERE MAH",
      "area": "AKHİSAR",
      "postal_code": "45200"
    },
    {
      "id": 49745,
      "district_id": 682,
      "name": "KOCAKAĞAN MAH",
      "area": "AKHİSAR",
      "postal_code": "45200"
    },
    {
      "id": 49746,
      "district_id": 682,
      "name": "KÖMÜRCÜ MAH",
      "area": "AKHİSAR",
      "postal_code": "45200"
    },
    {
      "id": 49747,
      "district_id": 682,
      "name": "KULAKSIZLAR MAH",
      "area": "AKHİSAR",
      "postal_code": "45200"
    },
    {
      "id": 49748,
      "district_id": 682,
      "name": "KURTULMUŞ MAH",
      "area": "AKHİSAR",
      "postal_code": "45200"
    },
    {
      "id": 49749,
      "district_id": 682,
      "name": "MECİDİYE MAH",
      "area": "AKHİSAR",
      "postal_code": "45200"
    },
    {
      "id": 49750,
      "district_id": 682,
      "name": "MEDAR MAH",
      "area": "AKHİSAR",
      "postal_code": "45200"
    },
    {
      "id": 49751,
      "district_id": 682,
      "name": "MORALILAR MAH",
      "area": "AKHİSAR",
      "postal_code": "45200"
    },
    {
      "id": 49752,
      "district_id": 682,
      "name": "MUSACA MAH",
      "area": "AKHİSAR",
      "postal_code": "45200"
    },
    {
      "id": 49753,
      "district_id": 682,
      "name": "MUSALAR MAH",
      "area": "AKHİSAR",
      "postal_code": "45200"
    },
    {
      "id": 49754,
      "district_id": 682,
      "name": "MUŞTULLAR MAH",
      "area": "AKHİSAR",
      "postal_code": "45200"
    },
    {
      "id": 49755,
      "district_id": 682,
      "name": "PAŞA MAH",
      "area": "AKHİSAR",
      "postal_code": "45200"
    },
    {
      "id": 49756,
      "district_id": 682,
      "name": "PEKMEZCİ MAH",
      "area": "AKHİSAR",
      "postal_code": "45200"
    },
    {
      "id": 49757,
      "district_id": 682,
      "name": "PINARCIK MAH",
      "area": "AKHİSAR",
      "postal_code": "45200"
    },
    {
      "id": 49758,
      "district_id": 682,
      "name": "RAGIP BEY MAH",
      "area": "AKHİSAR",
      "postal_code": "45200"
    },
    {
      "id": 49759,
      "district_id": 682,
      "name": "RAHMİYE MAH",
      "area": "AKHİSAR",
      "postal_code": "45200"
    },
    {
      "id": 49760,
      "district_id": 682,
      "name": "REŞAT BEY MAH",
      "area": "AKHİSAR",
      "postal_code": "45200"
    },
    {
      "id": 49761,
      "district_id": 682,
      "name": "SABANCILAR MAH",
      "area": "AKHİSAR",
      "postal_code": "45200"
    },
    {
      "id": 49762,
      "district_id": 682,
      "name": "SAĞRAKÇI MAH",
      "area": "AKHİSAR",
      "postal_code": "45200"
    },
    {
      "id": 49763,
      "district_id": 682,
      "name": "SAKARKAYA MAH",
      "area": "AKHİSAR",
      "postal_code": "45200"
    },
    {
      "id": 49764,
      "district_id": 682,
      "name": "SARIÇALI MAH",
      "area": "AKHİSAR",
      "postal_code": "45200"
    },
    {
      "id": 49765,
      "district_id": 682,
      "name": "SARILAR MAH",
      "area": "AKHİSAR",
      "postal_code": "45200"
    },
    {
      "id": 49766,
      "district_id": 682,
      "name": "SARNIÇKÖY MAH",
      "area": "AKHİSAR",
      "postal_code": "45200"
    },
    {
      "id": 49767,
      "district_id": 682,
      "name": "SAZOBA MAH",
      "area": "AKHİSAR",
      "postal_code": "45200"
    },
    {
      "id": 49768,
      "district_id": 682,
      "name": "SEĞİRDİM MAH",
      "area": "AKHİSAR",
      "postal_code": "45200"
    },
    {
      "id": 49769,
      "district_id": 682,
      "name": "ŞEHİTLER MAH",
      "area": "AKHİSAR",
      "postal_code": "45200"
    },
    {
      "id": 49770,
      "district_id": 682,
      "name": "SELÇİKLİ MAH",
      "area": "AKHİSAR",
      "postal_code": "45200"
    },
    {
      "id": 49771,
      "district_id": 682,
      "name": "SELVİLİ MAH",
      "area": "AKHİSAR",
      "postal_code": "45200"
    },
    {
      "id": 49772,
      "district_id": 682,
      "name": "ŞEYHİSA MAH",
      "area": "AKHİSAR",
      "postal_code": "45200"
    },
    {
      "id": 49773,
      "district_id": 682,
      "name": "SEYİT AHMET MAH",
      "area": "AKHİSAR",
      "postal_code": "45200"
    },
    {
      "id": 49774,
      "district_id": 682,
      "name": "SİNDELLİ MAH",
      "area": "AKHİSAR",
      "postal_code": "45200"
    },
    {
      "id": 49775,
      "district_id": 682,
      "name": "SIRTKÖY MAH",
      "area": "AKHİSAR",
      "postal_code": "45200"
    },
    {
      "id": 49776,
      "district_id": 682,
      "name": "SÖĞÜTLÜ MAH",
      "area": "AKHİSAR",
      "postal_code": "45200"
    },
    {
      "id": 49777,
      "district_id": 682,
      "name": "SÜLEYMANKÖY MAH",
      "area": "AKHİSAR",
      "postal_code": "45200"
    },
    {
      "id": 49778,
      "district_id": 682,
      "name": "SÜLEYMANLI MAH",
      "area": "AKHİSAR",
      "postal_code": "45200"
    },
    {
      "id": 49779,
      "district_id": 682,
      "name": "SÜLEYMANLI OSB MAH",
      "area": "AKHİSAR",
      "postal_code": "45200"
    },
    {
      "id": 49780,
      "district_id": 682,
      "name": "SÜNNETÇİLER MAH",
      "area": "AKHİSAR",
      "postal_code": "45200"
    },
    {
      "id": 49781,
      "district_id": 682,
      "name": "TAŞÇILAR MAH",
      "area": "AKHİSAR",
      "postal_code": "45200"
    },
    {
      "id": 49782,
      "district_id": 682,
      "name": "TOPLUCA MAH",
      "area": "AKHİSAR",
      "postal_code": "45200"
    },
    {
      "id": 49783,
      "district_id": 682,
      "name": "TÜTENLİ MAH",
      "area": "AKHİSAR",
      "postal_code": "45200"
    },
    {
      "id": 49784,
      "district_id": 682,
      "name": "ÜÇAVLU MAH",
      "area": "AKHİSAR",
      "postal_code": "45200"
    },
    {
      "id": 49785,
      "district_id": 682,
      "name": "ULU CAMİİ MAH",
      "area": "AKHİSAR",
      "postal_code": "45200"
    },
    {
      "id": 49786,
      "district_id": 682,
      "name": "ULUPINAR MAH",
      "area": "AKHİSAR",
      "postal_code": "45200"
    },
    {
      "id": 49787,
      "district_id": 682,
      "name": "YATAĞAN MAH",
      "area": "AKHİSAR",
      "postal_code": "45200"
    },
    {
      "id": 49788,
      "district_id": 682,
      "name": "YAYAKIRILDIK MAH",
      "area": "AKHİSAR",
      "postal_code": "45200"
    },
    {
      "id": 49789,
      "district_id": 682,
      "name": "YAYKIN MAH",
      "area": "AKHİSAR",
      "postal_code": "45200"
    },
    {
      "id": 49790,
      "district_id": 682,
      "name": "YEĞENOBA MAH",
      "area": "AKHİSAR",
      "postal_code": "45200"
    },
    {
      "id": 49791,
      "district_id": 682,
      "name": "YENİCE MAH",
      "area": "AKHİSAR",
      "postal_code": "45200"
    },
    {
      "id": 49792,
      "district_id": 682,
      "name": "YENİDOĞAN MAH",
      "area": "AKHİSAR",
      "postal_code": "45200"
    },
    {
      "id": 49793,
      "district_id": 682,
      "name": "ZEYTİNLİBAĞ MAH",
      "area": "AKHİSAR",
      "postal_code": "45200"
    },
    {
      "id": 49794,
      "district_id": 682,
      "name": "ZEYTİNLİOVA MAH",
      "area": "AKHİSAR",
      "postal_code": "45200"
    },
    {
      "id": 49795,
      "district_id": 683,
      "name": "AKKEÇİLİ MAH",
      "area": "ALAŞEHİR",
      "postal_code": "45600"
    },
    {
      "id": 49796,
      "district_id": 683,
      "name": "ALHAN MAH",
      "area": "ALAŞEHİR",
      "postal_code": "45600"
    },
    {
      "id": 49797,
      "district_id": 683,
      "name": "AYDOĞDU MAH",
      "area": "ALAŞEHİR",
      "postal_code": "45600"
    },
    {
      "id": 49798,
      "district_id": 683,
      "name": "AZITEPE MAH",
      "area": "ALAŞEHİR",
      "postal_code": "45600"
    },
    {
      "id": 49799,
      "district_id": 683,
      "name": "BADINCA MAH",
      "area": "ALAŞEHİR",
      "postal_code": "45600"
    },
    {
      "id": 49800,
      "district_id": 683,
      "name": "BAHADIR MAH",
      "area": "ALAŞEHİR",
      "postal_code": "45600"
    },
    {
      "id": 49801,
      "district_id": 683,
      "name": "BAHÇEDERE MAH",
      "area": "ALAŞEHİR",
      "postal_code": "45600"
    },
    {
      "id": 49802,
      "district_id": 683,
      "name": "BAHÇELİKÖY MAH",
      "area": "ALAŞEHİR",
      "postal_code": "45600"
    },
    {
      "id": 49803,
      "district_id": 683,
      "name": "BAKLACI MAH",
      "area": "ALAŞEHİR",
      "postal_code": "45600"
    },
    {
      "id": 49804,
      "district_id": 683,
      "name": "BARIŞ MAH",
      "area": "ALAŞEHİR",
      "postal_code": "45600"
    },
    {
      "id": 49805,
      "district_id": 683,
      "name": "BELENYAKA MAH",
      "area": "ALAŞEHİR",
      "postal_code": "45600"
    },
    {
      "id": 49806,
      "district_id": 683,
      "name": "BEŞEYLÜL MAH",
      "area": "ALAŞEHİR",
      "postal_code": "45600"
    },
    {
      "id": 49807,
      "district_id": 683,
      "name": "CABERBURHAN MAH",
      "area": "ALAŞEHİR",
      "postal_code": "45600"
    },
    {
      "id": 49808,
      "district_id": 683,
      "name": "CABERFAKILI MAH",
      "area": "ALAŞEHİR",
      "postal_code": "45600"
    },
    {
      "id": 49809,
      "district_id": 683,
      "name": "CABERKONAKLI MAH",
      "area": "ALAŞEHİR",
      "postal_code": "45600"
    },
    {
      "id": 49810,
      "district_id": 683,
      "name": "ÇAĞLAYAN MAH",
      "area": "ALAŞEHİR",
      "postal_code": "45600"
    },
    {
      "id": 49811,
      "district_id": 683,
      "name": "ÇAKIRCAALİ MAH",
      "area": "ALAŞEHİR",
      "postal_code": "45600"
    },
    {
      "id": 49812,
      "district_id": 683,
      "name": "ÇAMLIBEL MAH",
      "area": "ALAŞEHİR",
      "postal_code": "45600"
    },
    {
      "id": 49813,
      "district_id": 683,
      "name": "ÇARIKBOZDAĞ MAH",
      "area": "ALAŞEHİR",
      "postal_code": "45600"
    },
    {
      "id": 49814,
      "district_id": 683,
      "name": "ÇARIKKARALAR MAH",
      "area": "ALAŞEHİR",
      "postal_code": "45600"
    },
    {
      "id": 49815,
      "district_id": 683,
      "name": "ÇARIKTEKKE MAH",
      "area": "ALAŞEHİR",
      "postal_code": "45600"
    },
    {
      "id": 49816,
      "district_id": 683,
      "name": "ÇEŞNELİ MAH",
      "area": "ALAŞEHİR",
      "postal_code": "45600"
    },
    {
      "id": 49817,
      "district_id": 683,
      "name": "DAĞARLAR MAH",
      "area": "ALAŞEHİR",
      "postal_code": "45600"
    },
    {
      "id": 49818,
      "district_id": 683,
      "name": "DAĞHACIYUSUF MAH",
      "area": "ALAŞEHİR",
      "postal_code": "45600"
    },
    {
      "id": 49819,
      "district_id": 683,
      "name": "DELEMENLER MAH",
      "area": "ALAŞEHİR",
      "postal_code": "45600"
    },
    {
      "id": 49820,
      "district_id": 683,
      "name": "ERENKÖY MAH",
      "area": "ALAŞEHİR",
      "postal_code": "45600"
    },
    {
      "id": 49821,
      "district_id": 683,
      "name": "ESEN TEPE MAH",
      "area": "ALAŞEHİR",
      "postal_code": "45600"
    },
    {
      "id": 49822,
      "district_id": 683,
      "name": "EVRENLİ MAH",
      "area": "ALAŞEHİR",
      "postal_code": "45600"
    },
    {
      "id": 49823,
      "district_id": 683,
      "name": "FATİH MAH",
      "area": "ALAŞEHİR",
      "postal_code": "45600"
    },
    {
      "id": 49824,
      "district_id": 683,
      "name": "GİRELLİ MAH",
      "area": "ALAŞEHİR",
      "postal_code": "45600"
    },
    {
      "id": 49825,
      "district_id": 683,
      "name": "GÖBEKLİ MAH",
      "area": "ALAŞEHİR",
      "postal_code": "45600"
    },
    {
      "id": 49826,
      "district_id": 683,
      "name": "GÜLENYAKA MAH",
      "area": "ALAŞEHİR",
      "postal_code": "45600"
    },
    {
      "id": 49827,
      "district_id": 683,
      "name": "GÜLPINAR MAH",
      "area": "ALAŞEHİR",
      "postal_code": "45600"
    },
    {
      "id": 49828,
      "district_id": 683,
      "name": "GÜMÜŞÇAY MAH",
      "area": "ALAŞEHİR",
      "postal_code": "45600"
    },
    {
      "id": 49829,
      "district_id": 683,
      "name": "GÜRSU MAH",
      "area": "ALAŞEHİR",
      "postal_code": "45600"
    },
    {
      "id": 49830,
      "district_id": 683,
      "name": "HACIALİLER MAH",
      "area": "ALAŞEHİR",
      "postal_code": "45600"
    },
    {
      "id": 49831,
      "district_id": 683,
      "name": "HACIBEY MAH",
      "area": "ALAŞEHİR",
      "postal_code": "45600"
    },
    {
      "id": 49832,
      "district_id": 683,
      "name": "HORZUMALAYAKA MAH",
      "area": "ALAŞEHİR",
      "postal_code": "45600"
    },
    {
      "id": 49833,
      "district_id": 683,
      "name": "HORZUMEMBELLİ MAH",
      "area": "ALAŞEHİR",
      "postal_code": "45600"
    },
    {
      "id": 49834,
      "district_id": 683,
      "name": "HORZUMKESERLER MAH",
      "area": "ALAŞEHİR",
      "postal_code": "45600"
    },
    {
      "id": 49835,
      "district_id": 683,
      "name": "HORZUMSAZDERE MAH",
      "area": "ALAŞEHİR",
      "postal_code": "45600"
    },
    {
      "id": 49836,
      "district_id": 683,
      "name": "ILGIN MAH",
      "area": "ALAŞEHİR",
      "postal_code": "45600"
    },
    {
      "id": 49837,
      "district_id": 683,
      "name": "ILICA MAH",
      "area": "ALAŞEHİR",
      "postal_code": "45600"
    },
    {
      "id": 49838,
      "district_id": 683,
      "name": "IŞIKLAR MAH",
      "area": "ALAŞEHİR",
      "postal_code": "45600"
    },
    {
      "id": 49839,
      "district_id": 683,
      "name": "İSMAİLBEY MAH",
      "area": "ALAŞEHİR",
      "postal_code": "45600"
    },
    {
      "id": 49840,
      "district_id": 683,
      "name": "İSMETİYE MAH",
      "area": "ALAŞEHİR",
      "postal_code": "45600"
    },
    {
      "id": 49841,
      "district_id": 683,
      "name": "İSTASYON MAH",
      "area": "ALAŞEHİR",
      "postal_code": "45600"
    },
    {
      "id": 49842,
      "district_id": 683,
      "name": "KARACALAR MAH",
      "area": "ALAŞEHİR",
      "postal_code": "45600"
    },
    {
      "id": 49843,
      "district_id": 683,
      "name": "KARADAĞ MAH",
      "area": "ALAŞEHİR",
      "postal_code": "45600"
    },
    {
      "id": 49844,
      "district_id": 683,
      "name": "KASAPLI MAH",
      "area": "ALAŞEHİR",
      "postal_code": "45600"
    },
    {
      "id": 49845,
      "district_id": 683,
      "name": "KAVAKLIDERE MAH",
      "area": "KAVAKLIDERE",
      "postal_code": "45610"
    },
    {
      "id": 49846,
      "district_id": 683,
      "name": "KEMALİYE MAH",
      "area": "KEMALİYE",
      "postal_code": "45630"
    },
    {
      "id": 49847,
      "district_id": 683,
      "name": "KESTANEDERESİ MAH",
      "area": "ALAŞEHİR",
      "postal_code": "45600"
    },
    {
      "id": 49848,
      "district_id": 683,
      "name": "KİLLİK MAH",
      "area": "KİLLİK",
      "postal_code": "45650"
    },
    {
      "id": 49849,
      "district_id": 683,
      "name": "KOZLUCA MAH",
      "area": "ALAŞEHİR",
      "postal_code": "45600"
    },
    {
      "id": 49850,
      "district_id": 683,
      "name": "KURTULUŞ MAH",
      "area": "ALAŞEHİR",
      "postal_code": "45600"
    },
    {
      "id": 49851,
      "district_id": 683,
      "name": "KURUDERE MAH",
      "area": "ALAŞEHİR",
      "postal_code": "45600"
    },
    {
      "id": 49852,
      "district_id": 683,
      "name": "MATARLI MAH",
      "area": "ALAŞEHİR",
      "postal_code": "45600"
    },
    {
      "id": 49853,
      "district_id": 683,
      "name": "MENDERES MAH",
      "area": "ALAŞEHİR",
      "postal_code": "45600"
    },
    {
      "id": 49854,
      "district_id": 683,
      "name": "NARLIDERE MAH",
      "area": "ALAŞEHİR",
      "postal_code": "45600"
    },
    {
      "id": 49855,
      "district_id": 683,
      "name": "ÖRENCİK MAH",
      "area": "ALAŞEHİR",
      "postal_code": "45600"
    },
    {
      "id": 49856,
      "district_id": 683,
      "name": "ÖRNEKKÖY MAH",
      "area": "ALAŞEHİR",
      "postal_code": "45600"
    },
    {
      "id": 49857,
      "district_id": 683,
      "name": "OSMANİYE MAH",
      "area": "ALAŞEHİR",
      "postal_code": "45600"
    },
    {
      "id": 49858,
      "district_id": 683,
      "name": "PİYADELER MAH",
      "area": "PİYADELER",
      "postal_code": "45615"
    },
    {
      "id": 49859,
      "district_id": 683,
      "name": "ŞAHYAR MAH",
      "area": "ALAŞEHİR",
      "postal_code": "45600"
    },
    {
      "id": 49860,
      "district_id": 683,
      "name": "SAKARYA MAH",
      "area": "ALAŞEHİR",
      "postal_code": "45600"
    },
    {
      "id": 49861,
      "district_id": 683,
      "name": "SARIPINAR MAH",
      "area": "ALAŞEHİR",
      "postal_code": "45600"
    },
    {
      "id": 49862,
      "district_id": 683,
      "name": "SARISU MAH",
      "area": "ALAŞEHİR",
      "postal_code": "45600"
    },
    {
      "id": 49863,
      "district_id": 683,
      "name": "SELCE MAH",
      "area": "ALAŞEHİR",
      "postal_code": "45600"
    },
    {
      "id": 49864,
      "district_id": 683,
      "name": "SERİNKÖY MAH",
      "area": "ALAŞEHİR",
      "postal_code": "45600"
    },
    {
      "id": 49865,
      "district_id": 683,
      "name": "SERİNYAYLA MAH",
      "area": "ALAŞEHİR",
      "postal_code": "45600"
    },
    {
      "id": 49866,
      "district_id": 683,
      "name": "ŞEYH SİNAN MAH",
      "area": "ALAŞEHİR",
      "postal_code": "45600"
    },
    {
      "id": 49867,
      "district_id": 683,
      "name": "SOBRAN MAH",
      "area": "ALAŞEHİR",
      "postal_code": "45600"
    },
    {
      "id": 49868,
      "district_id": 683,
      "name": "SOĞANLI MAH",
      "area": "ALAŞEHİR",
      "postal_code": "45600"
    },
    {
      "id": 49869,
      "district_id": 683,
      "name": "SOĞUKSU MAH",
      "area": "ALAŞEHİR",
      "postal_code": "45600"
    },
    {
      "id": 49870,
      "district_id": 683,
      "name": "SOĞUKYURT MAH",
      "area": "ALAŞEHİR",
      "postal_code": "45600"
    },
    {
      "id": 49871,
      "district_id": 683,
      "name": "SUBAŞI MAH",
      "area": "ALAŞEHİR",
      "postal_code": "45600"
    },
    {
      "id": 49872,
      "district_id": 683,
      "name": "TEPEKÖY MAH",
      "area": "ALAŞEHİR",
      "postal_code": "45600"
    },
    {
      "id": 49873,
      "district_id": 683,
      "name": "TOYGAR MAH",
      "area": "ALAŞEHİR",
      "postal_code": "45600"
    },
    {
      "id": 49874,
      "district_id": 683,
      "name": "TÜRKMEN MAH",
      "area": "ALAŞEHİR",
      "postal_code": "45600"
    },
    {
      "id": 49875,
      "district_id": 683,
      "name": "ULUDERBENT MAH",
      "area": "ULUDERBENT",
      "postal_code": "45660"
    },
    {
      "id": 49876,
      "district_id": 683,
      "name": "ÜZÜMLÜ MAH",
      "area": "ALAŞEHİR",
      "postal_code": "45600"
    },
    {
      "id": 49877,
      "district_id": 683,
      "name": "YENİ MAH",
      "area": "ALAŞEHİR",
      "postal_code": "45600"
    },
    {
      "id": 49878,
      "district_id": 683,
      "name": "YENİCE MAH",
      "area": "ALAŞEHİR",
      "postal_code": "45600"
    },
    {
      "id": 49879,
      "district_id": 683,
      "name": "YENİKÖY MAH",
      "area": "ALAŞEHİR",
      "postal_code": "45600"
    },
    {
      "id": 49880,
      "district_id": 683,
      "name": "YEŞİLYURT MAH",
      "area": "YEŞİLYURT",
      "postal_code": "45620"
    },
    {
      "id": 49881,
      "district_id": 683,
      "name": "YUVACALI MAH",
      "area": "ALAŞEHİR",
      "postal_code": "45600"
    },
    {
      "id": 49882,
      "district_id": 684,
      "name": "AHATLAR MAH",
      "area": "DEMİRCİ",
      "postal_code": "45900"
    },
    {
      "id": 49883,
      "district_id": 684,
      "name": "AHMETLER MAH",
      "area": "DEMİRCİ",
      "postal_code": "45900"
    },
    {
      "id": 49884,
      "district_id": 684,
      "name": "AKDERE MAH",
      "area": "DEMİRCİ",
      "postal_code": "45900"
    },
    {
      "id": 49885,
      "district_id": 684,
      "name": "AKINCILAR MAH",
      "area": "DEMİRCİ",
      "postal_code": "45900"
    },
    {
      "id": 49886,
      "district_id": 684,
      "name": "ALAAĞAÇ MAH",
      "area": "DEMİRCİ",
      "postal_code": "45900"
    },
    {
      "id": 49887,
      "district_id": 684,
      "name": "ARMUTLU MAH",
      "area": "DEMİRCİ",
      "postal_code": "45900"
    },
    {
      "id": 49888,
      "district_id": 684,
      "name": "AYVAALAN MAH",
      "area": "DEMİRCİ",
      "postal_code": "45900"
    },
    {
      "id": 49889,
      "district_id": 684,
      "name": "AZİZBEY MAH",
      "area": "DEMİRCİ",
      "postal_code": "45900"
    },
    {
      "id": 49890,
      "district_id": 684,
      "name": "BAHÇELER MAH",
      "area": "DEMİRCİ",
      "postal_code": "45900"
    },
    {
      "id": 49891,
      "district_id": 684,
      "name": "BARDAKÇI MAH",
      "area": "DEMİRCİ",
      "postal_code": "45900"
    },
    {
      "id": 49892,
      "district_id": 684,
      "name": "BAYRAMŞAH MAH",
      "area": "DEMİRCİ",
      "postal_code": "45900"
    },
    {
      "id": 49893,
      "district_id": 684,
      "name": "BEYAZIT MAH",
      "area": "DEMİRCİ",
      "postal_code": "45900"
    },
    {
      "id": 49894,
      "district_id": 684,
      "name": "BOYACIK MAH",
      "area": "DEMİRCİ",
      "postal_code": "45900"
    },
    {
      "id": 49895,
      "district_id": 684,
      "name": "BOZÇATLI MAH",
      "area": "DEMİRCİ",
      "postal_code": "45900"
    },
    {
      "id": 49896,
      "district_id": 684,
      "name": "BOZKÖY MAH",
      "area": "DEMİRCİ",
      "postal_code": "45900"
    },
    {
      "id": 49897,
      "district_id": 684,
      "name": "BÜYÜKKIRAN MAH",
      "area": "DEMİRCİ",
      "postal_code": "45900"
    },
    {
      "id": 49898,
      "district_id": 684,
      "name": "ÇAĞILLAR MAH",
      "area": "DEMİRCİ",
      "postal_code": "45900"
    },
    {
      "id": 49899,
      "district_id": 684,
      "name": "CAMİİ ATİK MAH",
      "area": "DEMİRCİ",
      "postal_code": "45900"
    },
    {
      "id": 49900,
      "district_id": 684,
      "name": "ÇAMKÖY MAH",
      "area": "DEMİRCİ",
      "postal_code": "45900"
    },
    {
      "id": 49901,
      "district_id": 684,
      "name": "ÇAMLICA MAH",
      "area": "DEMİRCİ",
      "postal_code": "45900"
    },
    {
      "id": 49902,
      "district_id": 684,
      "name": "ÇANAKÇI MAH",
      "area": "DEMİRCİ",
      "postal_code": "45900"
    },
    {
      "id": 49903,
      "district_id": 684,
      "name": "ÇANDIR MAH",
      "area": "DEMİRCİ",
      "postal_code": "45900"
    },
    {
      "id": 49904,
      "district_id": 684,
      "name": "ÇARDAKLI MAH",
      "area": "DEMİRCİ",
      "postal_code": "45900"
    },
    {
      "id": 49905,
      "district_id": 684,
      "name": "ÇATALOLUK MAH",
      "area": "DEMİRCİ",
      "postal_code": "45900"
    },
    {
      "id": 49906,
      "district_id": 684,
      "name": "CUMHURİYET MAH",
      "area": "DEMİRCİ",
      "postal_code": "45900"
    },
    {
      "id": 49907,
      "district_id": 684,
      "name": "DANİŞMENTLER MAH",
      "area": "DEMİRCİ",
      "postal_code": "45900"
    },
    {
      "id": 49908,
      "district_id": 684,
      "name": "DEMİRCİ MAH",
      "area": "DEMİRCİ",
      "postal_code": "45900"
    },
    {
      "id": 49909,
      "district_id": 684,
      "name": "DOKTOR MEHMET AKARSU MAH",
      "area": "DEMİRCİ",
      "postal_code": "45900"
    },
    {
      "id": 49910,
      "district_id": 684,
      "name": "DURHASAN MAH",
      "area": "DURHASAN",
      "postal_code": "45903"
    },
    {
      "id": 49911,
      "district_id": 684,
      "name": "ELEK MAH",
      "area": "DEMİRCİ",
      "postal_code": "45900"
    },
    {
      "id": 49912,
      "district_id": 684,
      "name": "ESENYURT MAH",
      "area": "DEMİRCİ",
      "postal_code": "45900"
    },
    {
      "id": 49913,
      "district_id": 684,
      "name": "ESKİHİSAR MAH",
      "area": "DEMİRCİ",
      "postal_code": "45900"
    },
    {
      "id": 49914,
      "district_id": 684,
      "name": "FATİH MAH",
      "area": "DEMİRCİ",
      "postal_code": "45900"
    },
    {
      "id": 49915,
      "district_id": 684,
      "name": "GÖMEÇLER MAH",
      "area": "DEMİRCİ",
      "postal_code": "45900"
    },
    {
      "id": 49916,
      "district_id": 684,
      "name": "GÜMELE MAH",
      "area": "DEMİRCİ",
      "postal_code": "45900"
    },
    {
      "id": 49917,
      "district_id": 684,
      "name": "GÜRÇEŞME MAH",
      "area": "DEMİRCİ",
      "postal_code": "45900"
    },
    {
      "id": 49918,
      "district_id": 684,
      "name": "GÜVELİ MAH",
      "area": "DEMİRCİ",
      "postal_code": "45900"
    },
    {
      "id": 49919,
      "district_id": 684,
      "name": "HACIBABA MAH",
      "area": "DEMİRCİ",
      "postal_code": "45900"
    },
    {
      "id": 49920,
      "district_id": 684,
      "name": "HACIHAMZA MAH",
      "area": "DEMİRCİ",
      "postal_code": "45900"
    },
    {
      "id": 49921,
      "district_id": 684,
      "name": "HACIHASAN MAH",
      "area": "DEMİRCİ",
      "postal_code": "45900"
    },
    {
      "id": 49922,
      "district_id": 684,
      "name": "HACITÜRBEK MAH",
      "area": "DEMİRCİ",
      "postal_code": "45900"
    },
    {
      "id": 49923,
      "district_id": 684,
      "name": "HIRKALI MAH",
      "area": "DEMİRCİ",
      "postal_code": "45900"
    },
    {
      "id": 49924,
      "district_id": 684,
      "name": "HOŞÇALAR MAH",
      "area": "DEMİRCİ",
      "postal_code": "45900"
    },
    {
      "id": 49925,
      "district_id": 684,
      "name": "HÜDÜK MAH",
      "area": "DEMİRCİ",
      "postal_code": "45900"
    },
    {
      "id": 49926,
      "district_id": 684,
      "name": "İÇHİSAR MAH",
      "area": "DEMİRCİ",
      "postal_code": "45900"
    },
    {
      "id": 49927,
      "district_id": 684,
      "name": "İCİKLER MAH",
      "area": "DEMİRCİ",
      "postal_code": "45900"
    },
    {
      "id": 49928,
      "district_id": 684,
      "name": "IKLIKÇI MAH",
      "area": "DEMİRCİ",
      "postal_code": "45900"
    },
    {
      "id": 49929,
      "district_id": 684,
      "name": "İMCELER MAH",
      "area": "DEMİRCİ",
      "postal_code": "45900"
    },
    {
      "id": 49930,
      "district_id": 684,
      "name": "İMRENLER MAH",
      "area": "DEMİRCİ",
      "postal_code": "45900"
    },
    {
      "id": 49931,
      "district_id": 684,
      "name": "İRİŞLER MAH",
      "area": "DEMİRCİ",
      "postal_code": "45900"
    },
    {
      "id": 49932,
      "district_id": 684,
      "name": "İSMAİLLER MAH",
      "area": "DEMİRCİ",
      "postal_code": "45900"
    },
    {
      "id": 49933,
      "district_id": 684,
      "name": "KARAİSALAR MAH",
      "area": "DEMİRCİ",
      "postal_code": "45900"
    },
    {
      "id": 49934,
      "district_id": 684,
      "name": "KARGINIŞIKLAR MAH",
      "area": "DEMİRCİ",
      "postal_code": "45900"
    },
    {
      "id": 49935,
      "district_id": 684,
      "name": "KASIMFAKI MAH",
      "area": "DEMİRCİ",
      "postal_code": "45900"
    },
    {
      "id": 49936,
      "district_id": 684,
      "name": "KAYAKÖY MAH",
      "area": "DEMİRCİ",
      "postal_code": "45900"
    },
    {
      "id": 49937,
      "district_id": 684,
      "name": "KAYRANOKÇULAR MAH",
      "area": "DEMİRCİ",
      "postal_code": "45900"
    },
    {
      "id": 49938,
      "district_id": 684,
      "name": "KAZANCI MAH",
      "area": "DEMİRCİ",
      "postal_code": "45900"
    },
    {
      "id": 49939,
      "district_id": 684,
      "name": "KERPİÇLİK MAH",
      "area": "DEMİRCİ",
      "postal_code": "45900"
    },
    {
      "id": 49940,
      "district_id": 684,
      "name": "KILAVUZLAR MAH",
      "area": "DEMİRCİ",
      "postal_code": "45900"
    },
    {
      "id": 49941,
      "district_id": 684,
      "name": "KIŞLAK MAH",
      "area": "DEMİRCİ",
      "postal_code": "45900"
    },
    {
      "id": 49942,
      "district_id": 684,
      "name": "KOVANCI MAH",
      "area": "DEMİRCİ",
      "postal_code": "45900"
    },
    {
      "id": 49943,
      "district_id": 684,
      "name": "KÖYLÜCE MAH",
      "area": "DEMİRCİ",
      "postal_code": "45900"
    },
    {
      "id": 49944,
      "district_id": 684,
      "name": "KÜÇÜKKIRAN MAH",
      "area": "DEMİRCİ",
      "postal_code": "45900"
    },
    {
      "id": 49945,
      "district_id": 684,
      "name": "KÜÇÜKOBA MAH",
      "area": "DEMİRCİ",
      "postal_code": "45900"
    },
    {
      "id": 49946,
      "district_id": 684,
      "name": "KULALAR MAH",
      "area": "DEMİRCİ",
      "postal_code": "45900"
    },
    {
      "id": 49947,
      "district_id": 684,
      "name": "KÜPELER MAH",
      "area": "DEMİRCİ",
      "postal_code": "45900"
    },
    {
      "id": 49948,
      "district_id": 684,
      "name": "KUZEYİR MAH",
      "area": "DEMİRCİ",
      "postal_code": "45900"
    },
    {
      "id": 49949,
      "district_id": 684,
      "name": "KUZUKÖY MAH",
      "area": "DEMİRCİ",
      "postal_code": "45900"
    },
    {
      "id": 49950,
      "district_id": 684,
      "name": "MAHMUTLAR MAH",
      "area": "MAHMUTLAR",
      "postal_code": "45904"
    },
    {
      "id": 49951,
      "district_id": 684,
      "name": "MARMARACIK MAH",
      "area": "DEMİRCİ",
      "postal_code": "45900"
    },
    {
      "id": 49952,
      "district_id": 684,
      "name": "MEZİTLER MAH",
      "area": "DEMİRCİ",
      "postal_code": "45900"
    },
    {
      "id": 49953,
      "district_id": 684,
      "name": "MİNNETLER MAH",
      "area": "DEMİRCİ",
      "postal_code": "45900"
    },
    {
      "id": 49954,
      "district_id": 684,
      "name": "MİTHATPAŞA MAH",
      "area": "DEMİRCİ",
      "postal_code": "45900"
    },
    {
      "id": 49955,
      "district_id": 684,
      "name": "ÖKSÜZLÜ MAH",
      "area": "DEMİRCİ",
      "postal_code": "45900"
    },
    {
      "id": 49956,
      "district_id": 684,
      "name": "ÖREN MAH",
      "area": "DEMİRCİ",
      "postal_code": "45900"
    },
    {
      "id": 49957,
      "district_id": 684,
      "name": "ÖRÜCÜLER MAH",
      "area": "DEMİRCİ",
      "postal_code": "45900"
    },
    {
      "id": 49958,
      "district_id": 684,
      "name": "PAZAR MAH",
      "area": "DEMİRCİ",
      "postal_code": "45900"
    },
    {
      "id": 49959,
      "district_id": 684,
      "name": "RAHMANLAR MAH",
      "area": "DEMİRCİ",
      "postal_code": "45900"
    },
    {
      "id": 49960,
      "district_id": 684,
      "name": "SAĞNIÇ MAH",
      "area": "DEMİRCİ",
      "postal_code": "45900"
    },
    {
      "id": 49961,
      "district_id": 684,
      "name": "SAYIK MAH",
      "area": "DEMİRCİ",
      "postal_code": "45900"
    },
    {
      "id": 49962,
      "district_id": 684,
      "name": "SECAATTİN MAH",
      "area": "DEMİRCİ",
      "postal_code": "45900"
    },
    {
      "id": 49963,
      "district_id": 684,
      "name": "ŞEHREKÜSTÜ MAH",
      "area": "DEMİRCİ",
      "postal_code": "45900"
    },
    {
      "id": 49964,
      "district_id": 684,
      "name": "SERÇELER MAH",
      "area": "DEMİRCİ",
      "postal_code": "45900"
    },
    {
      "id": 49965,
      "district_id": 684,
      "name": "SEVİŞLER MAH",
      "area": "DEMİRCİ",
      "postal_code": "45900"
    },
    {
      "id": 49966,
      "district_id": 684,
      "name": "SİNAN MAH",
      "area": "DEMİRCİ",
      "postal_code": "45900"
    },
    {
      "id": 49967,
      "district_id": 684,
      "name": "SOFULAR MAH",
      "area": "DEMİRCİ",
      "postal_code": "45900"
    },
    {
      "id": 49968,
      "district_id": 684,
      "name": "SÖĞÜTÇÜK MAH",
      "area": "DEMİRCİ",
      "postal_code": "45900"
    },
    {
      "id": 49969,
      "district_id": 684,
      "name": "TALAS MAH",
      "area": "DEMİRCİ",
      "postal_code": "45900"
    },
    {
      "id": 49970,
      "district_id": 684,
      "name": "TAŞOKÇULAR MAH",
      "area": "DEMİRCİ",
      "postal_code": "45900"
    },
    {
      "id": 49971,
      "district_id": 684,
      "name": "TEKELER MAH",
      "area": "DEMİRCİ",
      "postal_code": "45900"
    },
    {
      "id": 49972,
      "district_id": 684,
      "name": "TEPERİK MAH",
      "area": "DEMİRCİ",
      "postal_code": "45900"
    },
    {
      "id": 49973,
      "district_id": 684,
      "name": "ULACIK MAH",
      "area": "DEMİRCİ",
      "postal_code": "45900"
    },
    {
      "id": 49974,
      "district_id": 684,
      "name": "ÜŞÜMÜŞ MAH",
      "area": "DEMİRCİ",
      "postal_code": "45900"
    },
    {
      "id": 49975,
      "district_id": 684,
      "name": "YAĞMUR MAH",
      "area": "DEMİRCİ",
      "postal_code": "45900"
    },
    {
      "id": 49976,
      "district_id": 684,
      "name": "YARBASAN MAH",
      "area": "DEMİRCİ",
      "postal_code": "45900"
    },
    {
      "id": 49977,
      "district_id": 684,
      "name": "YAVAŞLAR MAH",
      "area": "DEMİRCİ",
      "postal_code": "45900"
    },
    {
      "id": 49978,
      "district_id": 684,
      "name": "YENİCE MAH",
      "area": "DEMİRCİ",
      "postal_code": "45900"
    },
    {
      "id": 49979,
      "district_id": 684,
      "name": "YEŞİLDERE MAH",
      "area": "DEMİRCİ",
      "postal_code": "45900"
    },
    {
      "id": 49980,
      "district_id": 684,
      "name": "YEŞİLOBA MAH",
      "area": "DEMİRCİ",
      "postal_code": "45900"
    },
    {
      "id": 49981,
      "district_id": 684,
      "name": "YİĞENLER MAH",
      "area": "DEMİRCİ",
      "postal_code": "45900"
    },
    {
      "id": 49982,
      "district_id": 684,
      "name": "YİĞİTLER MAH",
      "area": "DEMİRCİ",
      "postal_code": "45900"
    },
    {
      "id": 49983,
      "district_id": 685,
      "name": "ATATÜRK MAH",
      "area": "GÖLMARMARA",
      "postal_code": "45580"
    },
    {
      "id": 49984,
      "district_id": 685,
      "name": "AYANLAR MAH",
      "area": "GÖLMARMARA",
      "postal_code": "45580"
    },
    {
      "id": 49985,
      "district_id": 685,
      "name": "BEYLER MAH",
      "area": "GÖLMARMARA",
      "postal_code": "45580"
    },
    {
      "id": 49986,
      "district_id": 685,
      "name": "ÇAMKÖY MAH",
      "area": "GÖLMARMARA",
      "postal_code": "45580"
    },
    {
      "id": 49987,
      "district_id": 685,
      "name": "ÇÖMLEKÇİ MAH",
      "area": "GÖLMARMARA",
      "postal_code": "45580"
    },
    {
      "id": 49988,
      "district_id": 685,
      "name": "DEĞNEKLER MAH",
      "area": "GÖLMARMARA",
      "postal_code": "45580"
    },
    {
      "id": 49989,
      "district_id": 685,
      "name": "ESKİ CAMİİ MAH",
      "area": "GÖLMARMARA",
      "postal_code": "45580"
    },
    {
      "id": 49990,
      "district_id": 685,
      "name": "HACIBAŞTANLAR MAH",
      "area": "GÖLMARMARA",
      "postal_code": "45580"
    },
    {
      "id": 49991,
      "district_id": 685,
      "name": "HACIVELİLER MAH",
      "area": "GÖLMARMARA",
      "postal_code": "45580"
    },
    {
      "id": 49992,
      "district_id": 685,
      "name": "HIROĞLU MAH",
      "area": "GÖLMARMARA",
      "postal_code": "45580"
    },
    {
      "id": 49993,
      "district_id": 685,
      "name": "İHSANİYE MAH",
      "area": "GÖLMARMARA",
      "postal_code": "45580"
    },
    {
      "id": 49994,
      "district_id": 685,
      "name": "İSMETPAŞA MAH",
      "area": "GÖLMARMARA",
      "postal_code": "45580"
    },
    {
      "id": 49995,
      "district_id": 685,
      "name": "KAYAALTI MAH",
      "area": "GÖLMARMARA",
      "postal_code": "45580"
    },
    {
      "id": 49996,
      "district_id": 685,
      "name": "KAYAPINAR MAH",
      "area": "GÖLMARMARA",
      "postal_code": "45580"
    },
    {
      "id": 49997,
      "district_id": 685,
      "name": "KILCANLAR MAH",
      "area": "GÖLMARMARA",
      "postal_code": "45580"
    },
    {
      "id": 49998,
      "district_id": 685,
      "name": "OZANCA MAH",
      "area": "GÖLMARMARA",
      "postal_code": "45580"
    },
    {
      "id": 49999,
      "district_id": 685,
      "name": "TAŞKUYUCAK MAH",
      "area": "GÖLMARMARA",
      "postal_code": "45580"
    },
    {
      "id": 50000,
      "district_id": 685,
      "name": "TİYENLİ MAH",
      "area": "GÖLMARMARA",
      "postal_code": "45580"
    },
    {
      "id": 50001,
      "district_id": 685,
      "name": "YENİ CAMİİ MAH",
      "area": "GÖLMARMARA",
      "postal_code": "45580"
    },
    {
      "id": 50002,
      "district_id": 685,
      "name": "YENİKÖY MAH",
      "area": "GÖLMARMARA",
      "postal_code": "45580"
    },
    {
      "id": 50003,
      "district_id": 685,
      "name": "YUNUSLAR MAH",
      "area": "GÖLMARMARA",
      "postal_code": "45580"
    },
    {
      "id": 50004,
      "district_id": 686,
      "name": "ADNAN MENDERES MAH",
      "area": "GÖRDES",
      "postal_code": "45750"
    },
    {
      "id": 50005,
      "district_id": 686,
      "name": "AKPINAR MAH",
      "area": "GÖRDES",
      "postal_code": "45750"
    },
    {
      "id": 50006,
      "district_id": 686,
      "name": "ATATÜRK MAH",
      "area": "GÖRDES",
      "postal_code": "45750"
    },
    {
      "id": 50007,
      "district_id": 686,
      "name": "BALIKLI MAH",
      "area": "GÖRDES",
      "postal_code": "45750"
    },
    {
      "id": 50008,
      "district_id": 686,
      "name": "BAYAT MAH",
      "area": "GÖRDES",
      "postal_code": "45750"
    },
    {
      "id": 50009,
      "district_id": 686,
      "name": "BEĞEL MAH",
      "area": "GÖRDES",
      "postal_code": "45750"
    },
    {
      "id": 50010,
      "district_id": 686,
      "name": "BEĞENLER MAH",
      "area": "GÖRDES",
      "postal_code": "45750"
    },
    {
      "id": 50011,
      "district_id": 686,
      "name": "BENLİELİ MAH",
      "area": "GÖRDES",
      "postal_code": "45750"
    },
    {
      "id": 50012,
      "district_id": 686,
      "name": "BEŞEYLÜL MAH",
      "area": "GÖRDES",
      "postal_code": "45750"
    },
    {
      "id": 50013,
      "district_id": 686,
      "name": "BÖREZ MAH",
      "area": "GÖRDES",
      "postal_code": "45750"
    },
    {
      "id": 50014,
      "district_id": 686,
      "name": "BOYALI MAH",
      "area": "GÖRDES",
      "postal_code": "45750"
    },
    {
      "id": 50015,
      "district_id": 686,
      "name": "ÇAĞLAYAN MAH",
      "area": "GÖRDES",
      "postal_code": "45750"
    },
    {
      "id": 50016,
      "district_id": 686,
      "name": "ÇATALARMUT MAH",
      "area": "GÖRDES",
      "postal_code": "45750"
    },
    {
      "id": 50017,
      "district_id": 686,
      "name": "ÇİÇEKLİ MAH",
      "area": "ÇİÇEKLİ",
      "postal_code": "45753"
    },
    {
      "id": 50018,
      "district_id": 686,
      "name": "ÇİĞİLLER MAH",
      "area": "GÖRDES",
      "postal_code": "45750"
    },
    {
      "id": 50019,
      "district_id": 686,
      "name": "CUMA MAH",
      "area": "GÖRDES",
      "postal_code": "45750"
    },
    {
      "id": 50020,
      "district_id": 686,
      "name": "DALKARA MAH",
      "area": "GÖRDES",
      "postal_code": "45750"
    },
    {
      "id": 50021,
      "district_id": 686,
      "name": "DARGIL MAH",
      "area": "GÖRDES",
      "postal_code": "45750"
    },
    {
      "id": 50022,
      "district_id": 686,
      "name": "DELİÇOBAN MAH",
      "area": "GÖRDES",
      "postal_code": "45750"
    },
    {
      "id": 50023,
      "district_id": 686,
      "name": "DEREÇİFTLİK MAH",
      "area": "GÖRDES",
      "postal_code": "45750"
    },
    {
      "id": 50024,
      "district_id": 686,
      "name": "DİKİLİTAŞ MAH",
      "area": "GÖRDES",
      "postal_code": "45750"
    },
    {
      "id": 50025,
      "district_id": 686,
      "name": "DİVAN MAH",
      "area": "GÖRDES",
      "postal_code": "45750"
    },
    {
      "id": 50026,
      "district_id": 686,
      "name": "DOĞANPINAR MAH",
      "area": "GÖRDES",
      "postal_code": "45750"
    },
    {
      "id": 50027,
      "district_id": 686,
      "name": "DUTLUCA MAH",
      "area": "GÖRDES",
      "postal_code": "45750"
    },
    {
      "id": 50028,
      "district_id": 686,
      "name": "EFENDİLİ MAH",
      "area": "GÖRDES",
      "postal_code": "45750"
    },
    {
      "id": 50029,
      "district_id": 686,
      "name": "EVCİLER MAH",
      "area": "GÜNEŞLİ",
      "postal_code": "45760"
    },
    {
      "id": 50030,
      "district_id": 686,
      "name": "FUNDACIK MAH",
      "area": "GÖRDES",
      "postal_code": "45750"
    },
    {
      "id": 50031,
      "district_id": 686,
      "name": "GÜLPINAR MAH",
      "area": "GÖRDES",
      "postal_code": "45750"
    },
    {
      "id": 50032,
      "district_id": 686,
      "name": "GÜNEŞLİ MAH",
      "area": "GÜNEŞLİ",
      "postal_code": "45760"
    },
    {
      "id": 50033,
      "district_id": 686,
      "name": "HÜSEYNİ BABA MAH",
      "area": "GÖRDES",
      "postal_code": "45750"
    },
    {
      "id": 50034,
      "district_id": 686,
      "name": "KABAKOZ MAH",
      "area": "GÖRDES",
      "postal_code": "45750"
    },
    {
      "id": 50035,
      "district_id": 686,
      "name": "KALEMOĞLU MAH",
      "area": "GÖRDES",
      "postal_code": "45750"
    },
    {
      "id": 50036,
      "district_id": 686,
      "name": "KARAAĞAÇ MAH",
      "area": "GÖRDES",
      "postal_code": "45750"
    },
    {
      "id": 50037,
      "district_id": 686,
      "name": "KARAKEÇİLİ MAH",
      "area": "GÖRDES",
      "postal_code": "45750"
    },
    {
      "id": 50038,
      "district_id": 686,
      "name": "KARAYAĞCI MAH",
      "area": "GÖRDES",
      "postal_code": "45750"
    },
    {
      "id": 50039,
      "district_id": 686,
      "name": "KARAYAKUP MAH",
      "area": "GÖRDES",
      "postal_code": "45750"
    },
    {
      "id": 50040,
      "district_id": 686,
      "name": "KAŞIKÇI MAH",
      "area": "GÖRDES",
      "postal_code": "45750"
    },
    {
      "id": 50041,
      "district_id": 686,
      "name": "KAYACIK MAH",
      "area": "KAYACIK",
      "postal_code": "45770"
    },
    {
      "id": 50042,
      "district_id": 686,
      "name": "KILCANLAR MAH",
      "area": "GÖRDES",
      "postal_code": "45750"
    },
    {
      "id": 50043,
      "district_id": 686,
      "name": "KIRANKÖY MAH",
      "area": "GÖRDES",
      "postal_code": "45750"
    },
    {
      "id": 50044,
      "district_id": 686,
      "name": "KIYMIK MAH",
      "area": "GÖRDES",
      "postal_code": "45750"
    },
    {
      "id": 50045,
      "district_id": 686,
      "name": "KIZILDAM MAH",
      "area": "GÖRDES",
      "postal_code": "45750"
    },
    {
      "id": 50046,
      "district_id": 686,
      "name": "KOBAKLAR MAH",
      "area": "GÖRDES",
      "postal_code": "45750"
    },
    {
      "id": 50047,
      "district_id": 686,
      "name": "KORUBAŞI MAH",
      "area": "GÖRDES",
      "postal_code": "45750"
    },
    {
      "id": 50048,
      "district_id": 686,
      "name": "KÖSELER MAH",
      "area": "GÖRDES",
      "postal_code": "45750"
    },
    {
      "id": 50049,
      "district_id": 686,
      "name": "KÜREKÇİ MAH",
      "area": "GÖRDES",
      "postal_code": "45750"
    },
    {
      "id": 50050,
      "district_id": 686,
      "name": "KUŞLUKKÖY MAH",
      "area": "GÖRDES",
      "postal_code": "45750"
    },
    {
      "id": 50051,
      "district_id": 686,
      "name": "KUYUCAKKARAPINAR MAH",
      "area": "GÖRDES",
      "postal_code": "45750"
    },
    {
      "id": 50052,
      "district_id": 686,
      "name": "MALAZ MAH",
      "area": "GÖRDES",
      "postal_code": "45750"
    },
    {
      "id": 50053,
      "district_id": 686,
      "name": "MALKOCA MAH",
      "area": "GÖRDES",
      "postal_code": "45750"
    },
    {
      "id": 50054,
      "district_id": 686,
      "name": "NAKIPAĞA MAH",
      "area": "GÖRDES",
      "postal_code": "45750"
    },
    {
      "id": 50055,
      "district_id": 686,
      "name": "OĞULDURUK MAH",
      "area": "GÖRDES",
      "postal_code": "45750"
    },
    {
      "id": 50056,
      "district_id": 686,
      "name": "PINARBAŞI MAH",
      "area": "GÖRDES",
      "postal_code": "45750"
    },
    {
      "id": 50057,
      "district_id": 686,
      "name": "ŞAHİNKAYA MAH",
      "area": "GÖRDES",
      "postal_code": "45750"
    },
    {
      "id": 50058,
      "district_id": 686,
      "name": "SALUR MAH",
      "area": "GÖRDES",
      "postal_code": "45750"
    },
    {
      "id": 50059,
      "district_id": 686,
      "name": "SARIALİLER MAH",
      "area": "GÖRDES",
      "postal_code": "45750"
    },
    {
      "id": 50060,
      "district_id": 686,
      "name": "ŞEYHYAYLA MAH",
      "area": "GÖRDES",
      "postal_code": "45750"
    },
    {
      "id": 50061,
      "district_id": 686,
      "name": "TEPEKÖY MAH",
      "area": "GÖRDES",
      "postal_code": "45750"
    },
    {
      "id": 50062,
      "district_id": 686,
      "name": "TÜPÜLER MAH",
      "area": "GÖRDES",
      "postal_code": "45750"
    },
    {
      "id": 50063,
      "district_id": 686,
      "name": "ULGAR MAH",
      "area": "GÖRDES",
      "postal_code": "45750"
    },
    {
      "id": 50064,
      "district_id": 686,
      "name": "UZUNÇAM MAH",
      "area": "GÖRDES",
      "postal_code": "45750"
    },
    {
      "id": 50065,
      "district_id": 686,
      "name": "YAKAKÖY MAH",
      "area": "GÖRDES",
      "postal_code": "45750"
    },
    {
      "id": 50066,
      "district_id": 686,
      "name": "YENİKÖY MAH",
      "area": "GÖRDES",
      "postal_code": "45750"
    },
    {
      "id": 50067,
      "district_id": 686,
      "name": "YEŞİLYURT MAH",
      "area": "GÖRDES",
      "postal_code": "45750"
    },
    {
      "id": 50068,
      "district_id": 687,
      "name": "ALACALAR MAH",
      "area": "KIRKAĞAÇ",
      "postal_code": "45700"
    },
    {
      "id": 50069,
      "district_id": 687,
      "name": "ALİFAKI MAH",
      "area": "KIRKAĞAÇ",
      "postal_code": "45700"
    },
    {
      "id": 50070,
      "district_id": 687,
      "name": "BADEMLİ MAH",
      "area": "KIRKAĞAÇ",
      "postal_code": "45700"
    },
    {
      "id": 50071,
      "district_id": 687,
      "name": "BAKIR MAH",
      "area": "BAKIR",
      "postal_code": "45730"
    },
    {
      "id": 50072,
      "district_id": 687,
      "name": "BODUROĞLU MAH",
      "area": "KIRKAĞAÇ",
      "postal_code": "45700"
    },
    {
      "id": 50073,
      "district_id": 687,
      "name": "BOSTANCI MAH",
      "area": "KIRKAĞAÇ",
      "postal_code": "45700"
    },
    {
      "id": 50074,
      "district_id": 687,
      "name": "ÇALTICAK MAH",
      "area": "KIRKAĞAÇ",
      "postal_code": "45700"
    },
    {
      "id": 50075,
      "district_id": 687,
      "name": "ÇİFTLİK MAH",
      "area": "KIRKAĞAÇ",
      "postal_code": "45700"
    },
    {
      "id": 50076,
      "district_id": 687,
      "name": "CİNOSMAN MAH",
      "area": "KIRKAĞAÇ",
      "postal_code": "45700"
    },
    {
      "id": 50077,
      "district_id": 687,
      "name": "ÇOBANLAR MAH",
      "area": "KIRKAĞAÇ",
      "postal_code": "45700"
    },
    {
      "id": 50078,
      "district_id": 687,
      "name": "DEMİRTAŞ MAH",
      "area": "KIRKAĞAÇ",
      "postal_code": "45700"
    },
    {
      "id": 50079,
      "district_id": 687,
      "name": "DUALAR MAH",
      "area": "KIRKAĞAÇ",
      "postal_code": "45700"
    },
    {
      "id": 50080,
      "district_id": 687,
      "name": "FIRDANLAR MAH",
      "area": "KIRKAĞAÇ",
      "postal_code": "45700"
    },
    {
      "id": 50081,
      "district_id": 687,
      "name": "GEBELER MAH",
      "area": "KIRKAĞAÇ",
      "postal_code": "45700"
    },
    {
      "id": 50082,
      "district_id": 687,
      "name": "GELENBE MAH",
      "area": "GELENBE",
      "postal_code": "45720"
    },
    {
      "id": 50083,
      "district_id": 687,
      "name": "GÖKÇUKUR MAH",
      "area": "KIRKAĞAÇ",
      "postal_code": "45700"
    },
    {
      "id": 50084,
      "district_id": 687,
      "name": "GÜVENDİK MAH",
      "area": "KIRKAĞAÇ",
      "postal_code": "45700"
    },
    {
      "id": 50085,
      "district_id": 687,
      "name": "HACET MAH",
      "area": "KIRKAĞAÇ",
      "postal_code": "45700"
    },
    {
      "id": 50086,
      "district_id": 687,
      "name": "HACIHİMMET MAH",
      "area": "KIRKAĞAÇ",
      "postal_code": "45700"
    },
    {
      "id": 50087,
      "district_id": 687,
      "name": "HALKAHAVLU MAH",
      "area": "KIRKAĞAÇ",
      "postal_code": "45700"
    },
    {
      "id": 50088,
      "district_id": 687,
      "name": "HAMİDİYE MAH",
      "area": "KIRKAĞAÇ",
      "postal_code": "45700"
    },
    {
      "id": 50089,
      "district_id": 687,
      "name": "HAMİTLİ MAH",
      "area": "KIRKAĞAÇ",
      "postal_code": "45700"
    },
    {
      "id": 50090,
      "district_id": 687,
      "name": "HIDIRAĞA MAH",
      "area": "KIRKAĞAÇ",
      "postal_code": "45700"
    },
    {
      "id": 50091,
      "district_id": 687,
      "name": "İLYASLAR MAH",
      "area": "İLYASLAR",
      "postal_code": "45740"
    },
    {
      "id": 50092,
      "district_id": 687,
      "name": "IŞIKLAR MAH",
      "area": "KIRKAĞAÇ",
      "postal_code": "45700"
    },
    {
      "id": 50093,
      "district_id": 687,
      "name": "KADRİYE MAH",
      "area": "KIRKAĞAÇ",
      "postal_code": "45700"
    },
    {
      "id": 50094,
      "district_id": 687,
      "name": "KARAALİ MAH",
      "area": "KIRKAĞAÇ",
      "postal_code": "45700"
    },
    {
      "id": 50095,
      "district_id": 687,
      "name": "KARAKURT MAH",
      "area": "KARAKURT",
      "postal_code": "45707"
    },
    {
      "id": 50096,
      "district_id": 687,
      "name": "KAYADİBİ MAH",
      "area": "KIRKAĞAÇ",
      "postal_code": "45700"
    },
    {
      "id": 50097,
      "district_id": 687,
      "name": "KINIK MAH",
      "area": "KIRKAĞAÇ",
      "postal_code": "45700"
    },
    {
      "id": 50098,
      "district_id": 687,
      "name": "KOCAİSKAN MAH",
      "area": "KIRKAĞAÇ",
      "postal_code": "45700"
    },
    {
      "id": 50099,
      "district_id": 687,
      "name": "KOCAMEHMETAĞA MAH",
      "area": "KIRKAĞAÇ",
      "postal_code": "45700"
    },
    {
      "id": 50100,
      "district_id": 687,
      "name": "KÜÇÜKYAYA MAH",
      "area": "KIRKAĞAÇ",
      "postal_code": "45700"
    },
    {
      "id": 50101,
      "district_id": 687,
      "name": "KUYUCAK MAH",
      "area": "KIRKAĞAÇ",
      "postal_code": "45700"
    },
    {
      "id": 50102,
      "district_id": 687,
      "name": "MEMİŞ MAH",
      "area": "KIRKAĞAÇ",
      "postal_code": "45700"
    },
    {
      "id": 50103,
      "district_id": 687,
      "name": "MUSAHOCA MAH",
      "area": "KIRKAĞAÇ",
      "postal_code": "45700"
    },
    {
      "id": 50104,
      "district_id": 687,
      "name": "MUSALAR MAH",
      "area": "KIRKAĞAÇ",
      "postal_code": "45700"
    },
    {
      "id": 50105,
      "district_id": 687,
      "name": "ÖVEÇLİ MAH",
      "area": "KIRKAĞAÇ",
      "postal_code": "45700"
    },
    {
      "id": 50106,
      "district_id": 687,
      "name": "ŞAİR EŞREF MAH",
      "area": "KIRKAĞAÇ",
      "postal_code": "45700"
    },
    {
      "id": 50107,
      "district_id": 687,
      "name": "SAKARLI MAH",
      "area": "KIRKAĞAÇ",
      "postal_code": "45700"
    },
    {
      "id": 50108,
      "district_id": 687,
      "name": "SARIAĞA MAH",
      "area": "KIRKAĞAÇ",
      "postal_code": "45700"
    },
    {
      "id": 50109,
      "district_id": 687,
      "name": "SİLEDİK MAH",
      "area": "KIRKAĞAÇ",
      "postal_code": "45700"
    },
    {
      "id": 50110,
      "district_id": 687,
      "name": "SÖĞÜTALAN MAH",
      "area": "KIRKAĞAÇ",
      "postal_code": "45700"
    },
    {
      "id": 50111,
      "district_id": 687,
      "name": "TEVFİKİYE MAH",
      "area": "KIRKAĞAÇ",
      "postal_code": "45700"
    },
    {
      "id": 50112,
      "district_id": 687,
      "name": "YAĞMURLU MAH",
      "area": "KIRKAĞAÇ",
      "postal_code": "45700"
    },
    {
      "id": 50113,
      "district_id": 687,
      "name": "YENİ MAH",
      "area": "KIRKAĞAÇ",
      "postal_code": "45700"
    },
    {
      "id": 50114,
      "district_id": 687,
      "name": "ZORAĞA MAH",
      "area": "KIRKAĞAÇ",
      "postal_code": "45700"
    },
    {
      "id": 50115,
      "district_id": 688,
      "name": "AKÇAALAN MAH",
      "area": "KÖPRÜBAŞI",
      "postal_code": "45930"
    },
    {
      "id": 50116,
      "district_id": 688,
      "name": "ALANYOLU MAH",
      "area": "KÖPRÜBAŞI",
      "postal_code": "45930"
    },
    {
      "id": 50117,
      "district_id": 688,
      "name": "ARMAĞAN MAH",
      "area": "KÖPRÜBAŞI",
      "postal_code": "45930"
    },
    {
      "id": 50118,
      "district_id": 688,
      "name": "ARPACI MAH",
      "area": "KÖPRÜBAŞI",
      "postal_code": "45930"
    },
    {
      "id": 50119,
      "district_id": 688,
      "name": "ATATÜRK MAH",
      "area": "KÖPRÜBAŞI",
      "postal_code": "45930"
    },
    {
      "id": 50120,
      "district_id": 688,
      "name": "AZİMLİ MAH",
      "area": "KÖPRÜBAŞI",
      "postal_code": "45930"
    },
    {
      "id": 50121,
      "district_id": 688,
      "name": "BORLU MAH",
      "area": "KÖPRÜBAŞI",
      "postal_code": "45930"
    },
    {
      "id": 50122,
      "district_id": 688,
      "name": "BOZBURUN MAH",
      "area": "KÖPRÜBAŞI",
      "postal_code": "45930"
    },
    {
      "id": 50123,
      "district_id": 688,
      "name": "ÇARIKLAR MAH",
      "area": "KÖPRÜBAŞI",
      "postal_code": "45930"
    },
    {
      "id": 50124,
      "district_id": 688,
      "name": "ÇAVULLAR MAH",
      "area": "KÖPRÜBAŞI",
      "postal_code": "45930"
    },
    {
      "id": 50125,
      "district_id": 688,
      "name": "ÇAYKÖY MAH",
      "area": "KÖPRÜBAŞI",
      "postal_code": "45930"
    },
    {
      "id": 50126,
      "district_id": 688,
      "name": "CICIKLI MAH",
      "area": "KÖPRÜBAŞI",
      "postal_code": "45930"
    },
    {
      "id": 50127,
      "district_id": 688,
      "name": "DÖĞÜŞEREN MAH",
      "area": "KÖPRÜBAŞI",
      "postal_code": "45930"
    },
    {
      "id": 50128,
      "district_id": 688,
      "name": "ESAT MAH",
      "area": "KÖPRÜBAŞI",
      "postal_code": "45930"
    },
    {
      "id": 50129,
      "district_id": 688,
      "name": "GÖKVELİLER MAH",
      "area": "KÖPRÜBAŞI",
      "postal_code": "45930"
    },
    {
      "id": 50130,
      "district_id": 688,
      "name": "GÖLBAŞI MAH",
      "area": "KÖPRÜBAŞI",
      "postal_code": "45930"
    },
    {
      "id": 50131,
      "district_id": 688,
      "name": "GÜLPINAR MAH",
      "area": "KÖPRÜBAŞI",
      "postal_code": "45930"
    },
    {
      "id": 50132,
      "district_id": 688,
      "name": "GÜNDOĞDU MAH",
      "area": "KÖPRÜBAŞI",
      "postal_code": "45930"
    },
    {
      "id": 50133,
      "district_id": 688,
      "name": "İKİZKUYU MAH",
      "area": "KÖPRÜBAŞI",
      "postal_code": "45930"
    },
    {
      "id": 50134,
      "district_id": 688,
      "name": "KARAELMACIK MAH",
      "area": "KÖPRÜBAŞI",
      "postal_code": "45930"
    },
    {
      "id": 50135,
      "district_id": 688,
      "name": "KARYAĞDI MAH",
      "area": "KÖPRÜBAŞI",
      "postal_code": "45930"
    },
    {
      "id": 50136,
      "district_id": 688,
      "name": "KASAR MAH",
      "area": "KÖPRÜBAŞI",
      "postal_code": "45930"
    },
    {
      "id": 50137,
      "district_id": 688,
      "name": "KAVAKYERİ MAH",
      "area": "KÖPRÜBAŞI",
      "postal_code": "45930"
    },
    {
      "id": 50138,
      "district_id": 688,
      "name": "KEMHALLI MAH",
      "area": "KÖPRÜBAŞI",
      "postal_code": "45930"
    },
    {
      "id": 50139,
      "district_id": 688,
      "name": "KIDIRCIK MAH",
      "area": "KÖPRÜBAŞI",
      "postal_code": "45930"
    },
    {
      "id": 50140,
      "district_id": 688,
      "name": "KİLLİK MAH",
      "area": "KÖPRÜBAŞI",
      "postal_code": "45930"
    },
    {
      "id": 50141,
      "district_id": 688,
      "name": "KINIK MAH",
      "area": "KÖPRÜBAŞI",
      "postal_code": "45930"
    },
    {
      "id": 50142,
      "district_id": 688,
      "name": "KIRANŞEYH MAH",
      "area": "KÖPRÜBAŞI",
      "postal_code": "45930"
    },
    {
      "id": 50143,
      "district_id": 688,
      "name": "KOZAKLI MAH",
      "area": "KÖPRÜBAŞI",
      "postal_code": "45930"
    },
    {
      "id": 50144,
      "district_id": 688,
      "name": "KULALI MAH",
      "area": "KÖPRÜBAŞI",
      "postal_code": "45930"
    },
    {
      "id": 50145,
      "district_id": 688,
      "name": "KURTLAR MAH",
      "area": "KÖPRÜBAŞI",
      "postal_code": "45930"
    },
    {
      "id": 50146,
      "district_id": 688,
      "name": "MEHMET AKİF ERSOY MAH",
      "area": "KÖPRÜBAŞI",
      "postal_code": "45930"
    },
    {
      "id": 50147,
      "district_id": 688,
      "name": "MESTANLI MAH",
      "area": "KÖPRÜBAŞI",
      "postal_code": "45930"
    },
    {
      "id": 50148,
      "district_id": 688,
      "name": "NAMIK KEMAL MAH",
      "area": "KÖPRÜBAŞI",
      "postal_code": "45930"
    },
    {
      "id": 50149,
      "district_id": 688,
      "name": "RAĞILLAR MAH",
      "area": "KÖPRÜBAŞI",
      "postal_code": "45930"
    },
    {
      "id": 50150,
      "district_id": 688,
      "name": "SARAYCIK MAH",
      "area": "KÖPRÜBAŞI",
      "postal_code": "45930"
    },
    {
      "id": 50151,
      "district_id": 688,
      "name": "SARGAÇ MAH",
      "area": "KÖPRÜBAŞI",
      "postal_code": "45930"
    },
    {
      "id": 50152,
      "district_id": 688,
      "name": "SELVİLER MAH",
      "area": "KÖPRÜBAŞI",
      "postal_code": "45930"
    },
    {
      "id": 50153,
      "district_id": 688,
      "name": "TEMREK MAH",
      "area": "KÖPRÜBAŞI",
      "postal_code": "45930"
    },
    {
      "id": 50154,
      "district_id": 688,
      "name": "TOKMAKLI MAH",
      "area": "KÖPRÜBAŞI",
      "postal_code": "45930"
    },
    {
      "id": 50155,
      "district_id": 688,
      "name": "UĞURLU MAH",
      "area": "KÖPRÜBAŞI",
      "postal_code": "45930"
    },
    {
      "id": 50156,
      "district_id": 688,
      "name": "YABACI MAH",
      "area": "KÖPRÜBAŞI",
      "postal_code": "45930"
    },
    {
      "id": 50157,
      "district_id": 688,
      "name": "YARDERE MAH",
      "area": "KÖPRÜBAŞI",
      "postal_code": "45930"
    },
    {
      "id": 50158,
      "district_id": 688,
      "name": "YENİCE MAH",
      "area": "KÖPRÜBAŞI",
      "postal_code": "45930"
    },
    {
      "id": 50159,
      "district_id": 688,
      "name": "YEŞİLKÖY MAH",
      "area": "KÖPRÜBAŞI",
      "postal_code": "45930"
    },
    {
      "id": 50160,
      "district_id": 688,
      "name": "YUMUKLAR MAH",
      "area": "KÖPRÜBAŞI",
      "postal_code": "45930"
    },
    {
      "id": 50161,
      "district_id": 689,
      "name": "4 EYLÜL MAH",
      "area": "KULA",
      "postal_code": "45170"
    },
    {
      "id": 50162,
      "district_id": 689,
      "name": "AHMETLİ MAH",
      "area": "KULA",
      "postal_code": "45170"
    },
    {
      "id": 50163,
      "district_id": 689,
      "name": "AKGÜN MAH",
      "area": "KULA",
      "postal_code": "45170"
    },
    {
      "id": 50164,
      "district_id": 689,
      "name": "AKTAŞ MAH",
      "area": "KULA",
      "postal_code": "45170"
    },
    {
      "id": 50165,
      "district_id": 689,
      "name": "AYAZÖREN MAH",
      "area": "KULA",
      "postal_code": "45170"
    },
    {
      "id": 50166,
      "district_id": 689,
      "name": "AYVATLAR MAH",
      "area": "KULA",
      "postal_code": "45170"
    },
    {
      "id": 50167,
      "district_id": 689,
      "name": "BALIBEY MAH",
      "area": "KULA",
      "postal_code": "45170"
    },
    {
      "id": 50168,
      "district_id": 689,
      "name": "BAŞIBÜYÜK MAH",
      "area": "KULA",
      "postal_code": "45170"
    },
    {
      "id": 50169,
      "district_id": 689,
      "name": "BATTALMUSTAFA MAH",
      "area": "KULA",
      "postal_code": "45170"
    },
    {
      "id": 50170,
      "district_id": 689,
      "name": "BAYRAMŞAH MAH",
      "area": "KULA",
      "postal_code": "45170"
    },
    {
      "id": 50171,
      "district_id": 689,
      "name": "BEBEKLİ MAH",
      "area": "KULA",
      "postal_code": "45170"
    },
    {
      "id": 50172,
      "district_id": 689,
      "name": "BEY MAH",
      "area": "KULA",
      "postal_code": "45170"
    },
    {
      "id": 50173,
      "district_id": 689,
      "name": "BÖRTLÜCE MAH",
      "area": "KULA",
      "postal_code": "45170"
    },
    {
      "id": 50174,
      "district_id": 689,
      "name": "CAMİİ CEDİT MAH",
      "area": "KULA",
      "postal_code": "45170"
    },
    {
      "id": 50175,
      "district_id": 689,
      "name": "ÇARIKBALLI MAH",
      "area": "KULA",
      "postal_code": "45170"
    },
    {
      "id": 50176,
      "district_id": 689,
      "name": "ÇARIKMAHMUTLU MAH",
      "area": "KULA",
      "postal_code": "45170"
    },
    {
      "id": 50177,
      "district_id": 689,
      "name": "ÇİFTÇİİBRAHİM MAH",
      "area": "KULA",
      "postal_code": "45170"
    },
    {
      "id": 50178,
      "district_id": 689,
      "name": "DEREKÖY MAH",
      "area": "KULA",
      "postal_code": "45170"
    },
    {
      "id": 50179,
      "district_id": 689,
      "name": "EMRE MAH",
      "area": "KULA",
      "postal_code": "45170"
    },
    {
      "id": 50180,
      "district_id": 689,
      "name": "ENCEKLER MAH",
      "area": "KULA",
      "postal_code": "45170"
    },
    {
      "id": 50181,
      "district_id": 689,
      "name": "ERENBAĞI MAH",
      "area": "KULA",
      "postal_code": "45170"
    },
    {
      "id": 50182,
      "district_id": 689,
      "name": "EROĞLU MAH",
      "area": "KULA",
      "postal_code": "45170"
    },
    {
      "id": 50183,
      "district_id": 689,
      "name": "ESENYAZI MAH",
      "area": "KULA",
      "postal_code": "45170"
    },
    {
      "id": 50184,
      "district_id": 689,
      "name": "EVCİLER MAH",
      "area": "KULA",
      "postal_code": "45170"
    },
    {
      "id": 50185,
      "district_id": 689,
      "name": "GÖKÇEÖREN MAH",
      "area": "KULA",
      "postal_code": "45170"
    },
    {
      "id": 50186,
      "district_id": 689,
      "name": "GÖKDERE MAH",
      "area": "KULA",
      "postal_code": "45170"
    },
    {
      "id": 50187,
      "district_id": 689,
      "name": "GÖLBAŞI MAH",
      "area": "KULA",
      "postal_code": "45170"
    },
    {
      "id": 50188,
      "district_id": 689,
      "name": "GÜVERCİNLİK MAH",
      "area": "KULA",
      "postal_code": "45170"
    },
    {
      "id": 50189,
      "district_id": 689,
      "name": "HACITUFAN MAH",
      "area": "KULA",
      "postal_code": "45170"
    },
    {
      "id": 50190,
      "district_id": 689,
      "name": "HAMİDİYE MAH",
      "area": "KULA",
      "postal_code": "45170"
    },
    {
      "id": 50191,
      "district_id": 689,
      "name": "HAYALLİ MAH",
      "area": "KULA",
      "postal_code": "45170"
    },
    {
      "id": 50192,
      "district_id": 689,
      "name": "İBRAHİMAĞA MAH",
      "area": "KULA",
      "postal_code": "45170"
    },
    {
      "id": 50193,
      "district_id": 689,
      "name": "İNCESU MAH",
      "area": "KULA",
      "postal_code": "45170"
    },
    {
      "id": 50194,
      "district_id": 689,
      "name": "KALINHARMAN MAH",
      "area": "KULA",
      "postal_code": "45170"
    },
    {
      "id": 50195,
      "district_id": 689,
      "name": "KARAOBA MAH",
      "area": "KULA",
      "postal_code": "45170"
    },
    {
      "id": 50196,
      "district_id": 689,
      "name": "KAVACIK MAH",
      "area": "KULA",
      "postal_code": "45170"
    },
    {
      "id": 50197,
      "district_id": 689,
      "name": "KENGER MAH",
      "area": "KULA",
      "postal_code": "45170"
    },
    {
      "id": 50198,
      "district_id": 689,
      "name": "KIZILKAYA MAH",
      "area": "KULA",
      "postal_code": "45170"
    },
    {
      "id": 50199,
      "district_id": 689,
      "name": "KONURCA MAH",
      "area": "KULA",
      "postal_code": "45170"
    },
    {
      "id": 50200,
      "district_id": 689,
      "name": "KÖREZ MAH",
      "area": "KULA",
      "postal_code": "45170"
    },
    {
      "id": 50201,
      "district_id": 689,
      "name": "NARINCALIPITRAK MAH",
      "area": "KULA",
      "postal_code": "45170"
    },
    {
      "id": 50202,
      "district_id": 689,
      "name": "NARINCALISÜLEYMAN MAH",
      "area": "KULA",
      "postal_code": "45170"
    },
    {
      "id": 50203,
      "district_id": 689,
      "name": "ORTAKÖY MAH",
      "area": "KULA",
      "postal_code": "45170"
    },
    {
      "id": 50204,
      "district_id": 689,
      "name": "PAPUÇLU MAH",
      "area": "KULA",
      "postal_code": "45170"
    },
    {
      "id": 50205,
      "district_id": 689,
      "name": "SANDAL MAH",
      "area": "KULA",
      "postal_code": "45170"
    },
    {
      "id": 50206,
      "district_id": 689,
      "name": "SARAÇLAR MAH",
      "area": "KULA",
      "postal_code": "45170"
    },
    {
      "id": 50207,
      "district_id": 689,
      "name": "SARNIÇ MAH",
      "area": "KULA",
      "postal_code": "45170"
    },
    {
      "id": 50208,
      "district_id": 689,
      "name": "ŞEHİTLİOĞLU MAH",
      "area": "KULA",
      "postal_code": "45170"
    },
    {
      "id": 50209,
      "district_id": 689,
      "name": "ŞEREMET MAH",
      "area": "KULA",
      "postal_code": "45170"
    },
    {
      "id": 50210,
      "district_id": 689,
      "name": "ŞERİTLİ MAH",
      "area": "KULA",
      "postal_code": "45170"
    },
    {
      "id": 50211,
      "district_id": 689,
      "name": "SEYİTALİ MAH",
      "area": "KULA",
      "postal_code": "45170"
    },
    {
      "id": 50212,
      "district_id": 689,
      "name": "ŞIHLI MAH",
      "area": "KULA",
      "postal_code": "45170"
    },
    {
      "id": 50213,
      "district_id": 689,
      "name": "SÖĞÜTDERE MAH",
      "area": "KULA",
      "postal_code": "45170"
    },
    {
      "id": 50214,
      "district_id": 689,
      "name": "TATLIÇEŞME MAH",
      "area": "KULA",
      "postal_code": "45170"
    },
    {
      "id": 50215,
      "district_id": 689,
      "name": "TOPUZDAMLARI MAH",
      "area": "KULA",
      "postal_code": "45170"
    },
    {
      "id": 50216,
      "district_id": 689,
      "name": "YAĞBASTI MAH",
      "area": "KULA",
      "postal_code": "45170"
    },
    {
      "id": 50217,
      "district_id": 689,
      "name": "YENİKÖY MAH",
      "area": "KULA",
      "postal_code": "45170"
    },
    {
      "id": 50218,
      "district_id": 689,
      "name": "YEŞİLYAYLA MAH",
      "area": "KULA",
      "postal_code": "45170"
    },
    {
      "id": 50219,
      "district_id": 689,
      "name": "YURTBAŞI MAH",
      "area": "KULA",
      "postal_code": "45170"
    },
    {
      "id": 50220,
      "district_id": 689,
      "name": "ZAFERİYE MAH",
      "area": "KULA",
      "postal_code": "45170"
    },
    {
      "id": 50221,
      "district_id": 690,
      "name": "ADALA MAH",
      "area": "ADALA",
      "postal_code": "45320"
    },
    {
      "id": 50222,
      "district_id": 690,
      "name": "AKÇAKÖY MAH",
      "area": "POYRAZ",
      "postal_code": "45340"
    },
    {
      "id": 50223,
      "district_id": 690,
      "name": "AKÖREN MAH",
      "area": "POYRAZ",
      "postal_code": "45340"
    },
    {
      "id": 50224,
      "district_id": 690,
      "name": "AKSOY MAH",
      "area": "SALİHLİ",
      "postal_code": "45300"
    },
    {
      "id": 50225,
      "district_id": 690,
      "name": "AKYAR MAH",
      "area": "POYRAZ",
      "postal_code": "45340"
    },
    {
      "id": 50226,
      "district_id": 690,
      "name": "ALLAHDİYEN MAH",
      "area": "POYRAZ",
      "postal_code": "45340"
    },
    {
      "id": 50227,
      "district_id": 690,
      "name": "ATATÜRK MAH",
      "area": "SALİHLİ",
      "postal_code": "45300"
    },
    {
      "id": 50228,
      "district_id": 690,
      "name": "BAĞCILAR MAH",
      "area": "POYRAZ",
      "postal_code": "45340"
    },
    {
      "id": 50229,
      "district_id": 690,
      "name": "BAHÇECİK MAH",
      "area": "POYRAZ",
      "postal_code": "45340"
    },
    {
      "id": 50230,
      "district_id": 690,
      "name": "BARIŞ MAH",
      "area": "SALİHLİ",
      "postal_code": "45300"
    },
    {
      "id": 50231,
      "district_id": 690,
      "name": "BAŞLIOĞLU MAH",
      "area": "POYRAZ",
      "postal_code": "45340"
    },
    {
      "id": 50232,
      "district_id": 690,
      "name": "BEŞEYLÜL MAH",
      "area": "SALİHLİ",
      "postal_code": "45300"
    },
    {
      "id": 50233,
      "district_id": 690,
      "name": "BEYLİKLİ MAH",
      "area": "POYRAZ",
      "postal_code": "45340"
    },
    {
      "id": 50234,
      "district_id": 690,
      "name": "BURHAN MAH",
      "area": "POYRAZ",
      "postal_code": "45340"
    },
    {
      "id": 50235,
      "district_id": 690,
      "name": "CAFERBEY MAH",
      "area": "POYRAZ",
      "postal_code": "45340"
    },
    {
      "id": 50236,
      "district_id": 690,
      "name": "ÇAKALDOĞANLAR MAH",
      "area": "POYRAZ",
      "postal_code": "45340"
    },
    {
      "id": 50237,
      "district_id": 690,
      "name": "ÇALTILI MAH",
      "area": "POYRAZ",
      "postal_code": "45340"
    },
    {
      "id": 50238,
      "district_id": 690,
      "name": "ÇAMURHAMAMI MAH",
      "area": "POYRAZ",
      "postal_code": "45340"
    },
    {
      "id": 50239,
      "district_id": 690,
      "name": "ÇAPAKLI MAH",
      "area": "POYRAZ",
      "postal_code": "45340"
    },
    {
      "id": 50240,
      "district_id": 690,
      "name": "ÇAVLU MAH",
      "area": "POYRAZ",
      "postal_code": "45340"
    },
    {
      "id": 50241,
      "district_id": 690,
      "name": "ÇAYKÖY MAH",
      "area": "POYRAZ",
      "postal_code": "45340"
    },
    {
      "id": 50242,
      "district_id": 690,
      "name": "ÇAYPINAR MAH",
      "area": "POYRAZ",
      "postal_code": "45340"
    },
    {
      "id": 50243,
      "district_id": 690,
      "name": "ÇELİKLİ MAH",
      "area": "POYRAZ",
      "postal_code": "45340"
    },
    {
      "id": 50244,
      "district_id": 690,
      "name": "ÇÖKELEK MAH",
      "area": "POYRAZ",
      "postal_code": "45340"
    },
    {
      "id": 50245,
      "district_id": 690,
      "name": "ÇUKUROBA MAH",
      "area": "POYRAZ",
      "postal_code": "45340"
    },
    {
      "id": 50246,
      "district_id": 690,
      "name": "CUMHURİYET MAH",
      "area": "SALİHLİ",
      "postal_code": "45300"
    },
    {
      "id": 50247,
      "district_id": 690,
      "name": "DAMATLI MAH",
      "area": "POYRAZ",
      "postal_code": "45340"
    },
    {
      "id": 50248,
      "district_id": 690,
      "name": "DEDETAŞI MAH",
      "area": "SALİHLİ",
      "postal_code": "45300"
    },
    {
      "id": 50249,
      "district_id": 690,
      "name": "DELİBAŞLI MAH",
      "area": "POYRAZ",
      "postal_code": "45340"
    },
    {
      "id": 50250,
      "district_id": 690,
      "name": "DERBENT MAH",
      "area": "POYRAZ",
      "postal_code": "45340"
    },
    {
      "id": 50251,
      "district_id": 690,
      "name": "DOMBAYLI MAH",
      "area": "POYRAZ",
      "postal_code": "45340"
    },
    {
      "id": 50252,
      "district_id": 690,
      "name": "DURASILLI MAH",
      "area": "DURASILLI",
      "postal_code": "45350"
    },
    {
      "id": 50253,
      "district_id": 690,
      "name": "ELDELEK MAH",
      "area": "POYRAZ",
      "postal_code": "45340"
    },
    {
      "id": 50254,
      "district_id": 690,
      "name": "EMİNBEY MAH",
      "area": "POYRAZ",
      "postal_code": "45340"
    },
    {
      "id": 50255,
      "district_id": 690,
      "name": "EMİRHACILI MAH",
      "area": "POYRAZ",
      "postal_code": "45340"
    },
    {
      "id": 50256,
      "district_id": 690,
      "name": "ESKİ CAMİ MAH",
      "area": "SALİHLİ",
      "postal_code": "45300"
    },
    {
      "id": 50257,
      "district_id": 690,
      "name": "GAFFAR OKKAN MAH",
      "area": "SALİHLİ",
      "postal_code": "45300"
    },
    {
      "id": 50258,
      "district_id": 690,
      "name": "GAZİLER MAH",
      "area": "SALİHLİ",
      "postal_code": "45300"
    },
    {
      "id": 50259,
      "district_id": 690,
      "name": "GÖKÇEKÖY MAH",
      "area": "POYRAZ",
      "postal_code": "45340"
    },
    {
      "id": 50260,
      "district_id": 690,
      "name": "GÖKEYÜP MAH",
      "area": "POYRAZ",
      "postal_code": "45340"
    },
    {
      "id": 50261,
      "district_id": 690,
      "name": "GÖKKÖY MAH",
      "area": "POYRAZ",
      "postal_code": "45340"
    },
    {
      "id": 50262,
      "district_id": 690,
      "name": "GÜMÜŞ MAH",
      "area": "SALİHLİ",
      "postal_code": "45300"
    },
    {
      "id": 50263,
      "district_id": 690,
      "name": "GÜNEŞ MAH",
      "area": "SALİHLİ",
      "postal_code": "45300"
    },
    {
      "id": 50264,
      "district_id": 690,
      "name": "HACIBEKTAŞLI MAH",
      "area": "POYRAZ",
      "postal_code": "45340"
    },
    {
      "id": 50265,
      "district_id": 690,
      "name": "HACIHIDIR MAH",
      "area": "POYRAZ",
      "postal_code": "45340"
    },
    {
      "id": 50266,
      "district_id": 690,
      "name": "HACIKÖSELİ MAH",
      "area": "POYRAZ",
      "postal_code": "45340"
    },
    {
      "id": 50267,
      "district_id": 690,
      "name": "HACILI MAH",
      "area": "POYRAZ",
      "postal_code": "45340"
    },
    {
      "id": 50268,
      "district_id": 690,
      "name": "HASALAN MAH",
      "area": "POYRAZ",
      "postal_code": "45340"
    },
    {
      "id": 50269,
      "district_id": 690,
      "name": "İĞDECİK MAH",
      "area": "POYRAZ",
      "postal_code": "45340"
    },
    {
      "id": 50270,
      "district_id": 690,
      "name": "KABAZLI MAH",
      "area": "POYRAZ",
      "postal_code": "45340"
    },
    {
      "id": 50271,
      "district_id": 690,
      "name": "KALE MAH",
      "area": "POYRAZ",
      "postal_code": "45340"
    },
    {
      "id": 50272,
      "district_id": 690,
      "name": "KAPANCI MAH",
      "area": "POYRAZ",
      "postal_code": "45340"
    },
    {
      "id": 50273,
      "district_id": 690,
      "name": "KAPLAN MAH",
      "area": "POYRAZ",
      "postal_code": "45340"
    },
    {
      "id": 50274,
      "district_id": 690,
      "name": "KARAAĞAÇ MAH",
      "area": "POYRAZ",
      "postal_code": "45340"
    },
    {
      "id": 50275,
      "district_id": 690,
      "name": "KARAOĞLANLI MAH",
      "area": "POYRAZ",
      "postal_code": "45340"
    },
    {
      "id": 50276,
      "district_id": 690,
      "name": "KARAPINAR MAH",
      "area": "POYRAZ",
      "postal_code": "45340"
    },
    {
      "id": 50277,
      "district_id": 690,
      "name": "KARASAVCI MAH",
      "area": "POYRAZ",
      "postal_code": "45340"
    },
    {
      "id": 50278,
      "district_id": 690,
      "name": "KARAYAHŞİ MAH",
      "area": "POYRAZ",
      "postal_code": "45340"
    },
    {
      "id": 50279,
      "district_id": 690,
      "name": "KELİ MAH",
      "area": "SALİHLİ",
      "postal_code": "45300"
    },
    {
      "id": 50280,
      "district_id": 690,
      "name": "KEMER MAH",
      "area": "POYRAZ",
      "postal_code": "45340"
    },
    {
      "id": 50281,
      "district_id": 690,
      "name": "KEMERDAMLARI MAH",
      "area": "POYRAZ",
      "postal_code": "45340"
    },
    {
      "id": 50282,
      "district_id": 690,
      "name": "KIRDAMLARI MAH",
      "area": "POYRAZ",
      "postal_code": "45340"
    },
    {
      "id": 50283,
      "district_id": 690,
      "name": "KIRVELİ MAH",
      "area": "SALİHLİ",
      "postal_code": "45300"
    },
    {
      "id": 50284,
      "district_id": 690,
      "name": "KIZILHAVLU MAH",
      "area": "POYRAZ",
      "postal_code": "45340"
    },
    {
      "id": 50285,
      "district_id": 690,
      "name": "KOCAÇEŞME MAH",
      "area": "SALİHLİ",
      "postal_code": "45300"
    },
    {
      "id": 50286,
      "district_id": 690,
      "name": "KORDON MAH",
      "area": "POYRAZ",
      "postal_code": "45340"
    },
    {
      "id": 50287,
      "district_id": 690,
      "name": "KÖSEALİ MAH",
      "area": "POYRAZ",
      "postal_code": "45340"
    },
    {
      "id": 50288,
      "district_id": 690,
      "name": "KURTTUTAN MAH",
      "area": "POYRAZ",
      "postal_code": "45340"
    },
    {
      "id": 50289,
      "district_id": 690,
      "name": "KURTULUŞ MAH",
      "area": "SALİHLİ",
      "postal_code": "45300"
    },
    {
      "id": 50290,
      "district_id": 690,
      "name": "MAMATLI MAH",
      "area": "POYRAZ",
      "postal_code": "45340"
    },
    {
      "id": 50291,
      "district_id": 690,
      "name": "MERSİNDERE MAH",
      "area": "POYRAZ",
      "postal_code": "45340"
    },
    {
      "id": 50292,
      "district_id": 690,
      "name": "MERSİNLİ MAH",
      "area": "POYRAZ",
      "postal_code": "45340"
    },
    {
      "id": 50293,
      "district_id": 690,
      "name": "MEVLUTLU MAH",
      "area": "POYRAZ",
      "postal_code": "45340"
    },
    {
      "id": 50294,
      "district_id": 690,
      "name": "MİTATPAŞA MAH",
      "area": "SALİHLİ",
      "postal_code": "45300"
    },
    {
      "id": 50295,
      "district_id": 690,
      "name": "NAMIK KEMAL MAH",
      "area": "SALİHLİ",
      "postal_code": "45300"
    },
    {
      "id": 50296,
      "district_id": 690,
      "name": "ORAKLAR MAH",
      "area": "POYRAZ",
      "postal_code": "45340"
    },
    {
      "id": 50297,
      "district_id": 690,
      "name": "ORTAKÖY MAH",
      "area": "POYRAZ",
      "postal_code": "45340"
    },
    {
      "id": 50298,
      "district_id": 690,
      "name": "ÖZYURT MAH",
      "area": "SALİHLİ",
      "postal_code": "45300"
    },
    {
      "id": 50299,
      "district_id": 690,
      "name": "PAZARKÖY MAH",
      "area": "POYRAZ",
      "postal_code": "45340"
    },
    {
      "id": 50300,
      "district_id": 690,
      "name": "POYRAZ MAH",
      "area": "POYRAZ",
      "postal_code": "45340"
    },
    {
      "id": 50301,
      "district_id": 690,
      "name": "POYRAZDAMLARI MAH",
      "area": "POYRAZ",
      "postal_code": "45340"
    },
    {
      "id": 50302,
      "district_id": 690,
      "name": "SAĞLIK MAH",
      "area": "SALİHLİ",
      "postal_code": "45300"
    },
    {
      "id": 50303,
      "district_id": 690,
      "name": "SALİHLİ OSB MAH",
      "area": "POYRAZ",
      "postal_code": "45340"
    },
    {
      "id": 50304,
      "district_id": 690,
      "name": "SARIPINAR MAH",
      "area": "SALİHLİ",
      "postal_code": "45300"
    },
    {
      "id": 50305,
      "district_id": 690,
      "name": "SART MAH",
      "area": "SART",
      "postal_code": "45330"
    },
    {
      "id": 50306,
      "district_id": 690,
      "name": "ŞEHİTLER MAH",
      "area": "SALİHLİ",
      "postal_code": "45300"
    },
    {
      "id": 50307,
      "district_id": 690,
      "name": "SEYRANTEPE MAH",
      "area": "SALİHLİ",
      "postal_code": "45300"
    },
    {
      "id": 50308,
      "district_id": 690,
      "name": "SİNDEL MAH",
      "area": "POYRAZ",
      "postal_code": "45340"
    },
    {
      "id": 50309,
      "district_id": 690,
      "name": "ŞİRİNYER MAH",
      "area": "POYRAZ",
      "postal_code": "45340"
    },
    {
      "id": 50310,
      "district_id": 690,
      "name": "SÜLEYMANİYE MAH",
      "area": "POYRAZ",
      "postal_code": "45340"
    },
    {
      "id": 50311,
      "district_id": 690,
      "name": "TAYTAN MAH",
      "area": "POYRAZ",
      "postal_code": "45340"
    },
    {
      "id": 50312,
      "district_id": 690,
      "name": "TEKELİOĞLU MAH",
      "area": "POYRAZ",
      "postal_code": "45340"
    },
    {
      "id": 50313,
      "district_id": 690,
      "name": "TORUNLU MAH",
      "area": "POYRAZ",
      "postal_code": "45340"
    },
    {
      "id": 50314,
      "district_id": 690,
      "name": "ÜÇTEPE MAH",
      "area": "POYRAZ",
      "postal_code": "45340"
    },
    {
      "id": 50315,
      "district_id": 690,
      "name": "YAĞBASAN MAH",
      "area": "POYRAZ",
      "postal_code": "45340"
    },
    {
      "id": 50316,
      "district_id": 690,
      "name": "YAĞMURLAR MAH",
      "area": "POYRAZ",
      "postal_code": "45340"
    },
    {
      "id": 50317,
      "district_id": 690,
      "name": "YENİKÖY MAH",
      "area": "POYRAZ",
      "postal_code": "45340"
    },
    {
      "id": 50318,
      "district_id": 690,
      "name": "YENİPAZAR MAH",
      "area": "POYRAZ",
      "postal_code": "45340"
    },
    {
      "id": 50319,
      "district_id": 690,
      "name": "YEŞİLKAVAK MAH",
      "area": "POYRAZ",
      "postal_code": "45340"
    },
    {
      "id": 50320,
      "district_id": 690,
      "name": "YEŞİLOVA MAH",
      "area": "POYRAZ",
      "postal_code": "45340"
    },
    {
      "id": 50321,
      "district_id": 690,
      "name": "YEŞİLYURT MAH",
      "area": "SALİHLİ",
      "postal_code": "45300"
    },
    {
      "id": 50322,
      "district_id": 690,
      "name": "YILMAZ MAH",
      "area": "SALİHLİ",
      "postal_code": "45300"
    },
    {
      "id": 50323,
      "district_id": 690,
      "name": "YÖRÜK MAH",
      "area": "SALİHLİ",
      "postal_code": "45300"
    },
    {
      "id": 50324,
      "district_id": 690,
      "name": "ZAFER MAH",
      "area": "SALİHLİ",
      "postal_code": "45300"
    },
    {
      "id": 50325,
      "district_id": 692,
      "name": "ADİLOBA MAH",
      "area": "SARUHANLI",
      "postal_code": "45800"
    },
    {
      "id": 50326,
      "district_id": 692,
      "name": "ALİBEYLİ MAH",
      "area": "ALİBEYLİ",
      "postal_code": "45880"
    },
    {
      "id": 50327,
      "district_id": 692,
      "name": "APAK MAH",
      "area": "SARUHANLI",
      "postal_code": "45800"
    },
    {
      "id": 50328,
      "district_id": 692,
      "name": "ATATÜRK MAH",
      "area": "SARUHANLI",
      "postal_code": "45800"
    },
    {
      "id": 50329,
      "district_id": 692,
      "name": "AYDINLAR MAH",
      "area": "SARUHANLI",
      "postal_code": "45800"
    },
    {
      "id": 50330,
      "district_id": 692,
      "name": "AZİMLİ MAH",
      "area": "SARUHANLI",
      "postal_code": "45800"
    },
    {
      "id": 50331,
      "district_id": 692,
      "name": "BAHADIR MAH",
      "area": "SARUHANLI",
      "postal_code": "45800"
    },
    {
      "id": 50332,
      "district_id": 692,
      "name": "BEDELLER MAH",
      "area": "SARUHANLI",
      "postal_code": "45800"
    },
    {
      "id": 50333,
      "district_id": 692,
      "name": "BÜYÜKBELEN MAH",
      "area": "BÜYÜKBELEN",
      "postal_code": "45830"
    },
    {
      "id": 50334,
      "district_id": 692,
      "name": "ÇAKMAKLI MAH",
      "area": "SARUHANLI",
      "postal_code": "45800"
    },
    {
      "id": 50335,
      "district_id": 692,
      "name": "ÇALTEPE MAH",
      "area": "SARUHANLI",
      "postal_code": "45800"
    },
    {
      "id": 50336,
      "district_id": 692,
      "name": "ÇAMLIYURT MAH",
      "area": "SARUHANLI",
      "postal_code": "45800"
    },
    {
      "id": 50337,
      "district_id": 692,
      "name": "CENGİZ TOPEL MAH",
      "area": "SARUHANLI",
      "postal_code": "45800"
    },
    {
      "id": 50338,
      "district_id": 692,
      "name": "ÇERKEZ OSMANİYE MAH",
      "area": "SARUHANLI",
      "postal_code": "45800"
    },
    {
      "id": 50339,
      "district_id": 692,
      "name": "ÇINAROBA MAH",
      "area": "SARUHANLI",
      "postal_code": "45800"
    },
    {
      "id": 50340,
      "district_id": 692,
      "name": "ÇULLUGÖRECE MAH",
      "area": "SARUHANLI",
      "postal_code": "45800"
    },
    {
      "id": 50341,
      "district_id": 692,
      "name": "CUMHURİYET MAH",
      "area": "SARUHANLI",
      "postal_code": "45800"
    },
    {
      "id": 50342,
      "district_id": 692,
      "name": "DEVELİ MAH",
      "area": "SARUHANLI",
      "postal_code": "45800"
    },
    {
      "id": 50343,
      "district_id": 692,
      "name": "DİLEK MAH",
      "area": "DİLEK",
      "postal_code": "45804"
    },
    {
      "id": 50344,
      "district_id": 692,
      "name": "GÖKÇEKÖY MAH",
      "area": "GÖKÇEKÖY",
      "postal_code": "45815"
    },
    {
      "id": 50345,
      "district_id": 692,
      "name": "GÖZLET MAH",
      "area": "SARUHANLI",
      "postal_code": "45800"
    },
    {
      "id": 50346,
      "district_id": 692,
      "name": "GÜMÜLCELİ MAH",
      "area": "GÜMÜLCELİ",
      "postal_code": "45805"
    },
    {
      "id": 50347,
      "district_id": 692,
      "name": "HACIMUSA MAH",
      "area": "SARUHANLI",
      "postal_code": "45800"
    },
    {
      "id": 50348,
      "district_id": 692,
      "name": "HACIRAHMANLI MAH",
      "area": "HACIRAHMANLI",
      "postal_code": "45810"
    },
    {
      "id": 50349,
      "district_id": 692,
      "name": "HALİTPAŞA MAH",
      "area": "HALİTPAŞA",
      "postal_code": "45850"
    },
    {
      "id": 50350,
      "district_id": 692,
      "name": "HATIPLAR MAH",
      "area": "SARUHANLI",
      "postal_code": "45800"
    },
    {
      "id": 50351,
      "district_id": 692,
      "name": "HEYBELİ MAH",
      "area": "SARUHANLI",
      "postal_code": "45800"
    },
    {
      "id": 50352,
      "district_id": 692,
      "name": "İSHAKÇELEBİ MAH",
      "area": "İSHAKÇELEBİ",
      "postal_code": "45820"
    },
    {
      "id": 50353,
      "district_id": 692,
      "name": "İSTASYON MAH",
      "area": "SARUHANLI",
      "postal_code": "45800"
    },
    {
      "id": 50354,
      "district_id": 692,
      "name": "KAYIŞLAR MAH",
      "area": "SARUHANLI",
      "postal_code": "45800"
    },
    {
      "id": 50355,
      "district_id": 692,
      "name": "KEMİKLİDERE MAH",
      "area": "SARUHANLI",
      "postal_code": "45800"
    },
    {
      "id": 50356,
      "district_id": 692,
      "name": "KEPENEKLİ MAH",
      "area": "SARUHANLI",
      "postal_code": "45800"
    },
    {
      "id": 50357,
      "district_id": 692,
      "name": "KOLDERE MAH",
      "area": "KOLDERE",
      "postal_code": "45840"
    },
    {
      "id": 50358,
      "district_id": 692,
      "name": "KOYUNCU MAH",
      "area": "SARUHANLI",
      "postal_code": "45800"
    },
    {
      "id": 50359,
      "district_id": 692,
      "name": "KUMKUYUCAK MAH",
      "area": "KUMKUYUCAK",
      "postal_code": "45835"
    },
    {
      "id": 50360,
      "district_id": 692,
      "name": "KURTULUŞ MAH",
      "area": "SARUHANLI",
      "postal_code": "45800"
    },
    {
      "id": 50361,
      "district_id": 692,
      "name": "LÜTFİYE MAH",
      "area": "SARUHANLI",
      "postal_code": "45800"
    },
    {
      "id": 50362,
      "district_id": 692,
      "name": "MÜTEVELLİ MAH",
      "area": "MÜTEVELLİ",
      "postal_code": "45860"
    },
    {
      "id": 50363,
      "district_id": 692,
      "name": "NURİYE MAH",
      "area": "NURİYE",
      "postal_code": "45870"
    },
    {
      "id": 50364,
      "district_id": 692,
      "name": "PAŞAKÖY MAH",
      "area": "PAŞAKÖY",
      "postal_code": "45890"
    },
    {
      "id": 50365,
      "district_id": 692,
      "name": "PINARBAŞI MAH",
      "area": "SARUHANLI",
      "postal_code": "45800"
    },
    {
      "id": 50366,
      "district_id": 692,
      "name": "SARIÇAM MAH",
      "area": "SARUHANLI",
      "postal_code": "45800"
    },
    {
      "id": 50367,
      "district_id": 692,
      "name": "SARISIĞIRLI MAH",
      "area": "SARUHANLI",
      "postal_code": "45800"
    },
    {
      "id": 50368,
      "district_id": 692,
      "name": "SARUHAN MAH",
      "area": "SARUHANLI",
      "postal_code": "45800"
    },
    {
      "id": 50369,
      "district_id": 692,
      "name": "ŞATIRLAR MAH",
      "area": "SARUHANLI",
      "postal_code": "45800"
    },
    {
      "id": 50370,
      "district_id": 692,
      "name": "ŞEHİTLER MAH",
      "area": "SARUHANLI",
      "postal_code": "45800"
    },
    {
      "id": 50371,
      "district_id": 692,
      "name": "SEYİTOBA MAH",
      "area": "SARUHANLI",
      "postal_code": "45800"
    },
    {
      "id": 50372,
      "district_id": 692,
      "name": "TAŞDİBİ MAH",
      "area": "SARUHANLI",
      "postal_code": "45800"
    },
    {
      "id": 50373,
      "district_id": 692,
      "name": "TİRKEŞ MAH",
      "area": "SARUHANLI",
      "postal_code": "45800"
    },
    {
      "id": 50374,
      "district_id": 692,
      "name": "YILMAZ MAH",
      "area": "SARUHANLI",
      "postal_code": "45800"
    },
    {
      "id": 50375,
      "district_id": 693,
      "name": "AKÇAKERTİL MAH",
      "area": "SELENDİ",
      "postal_code": "45970"
    },
    {
      "id": 50376,
      "district_id": 693,
      "name": "ALTINKÖY MAH",
      "area": "SELENDİ",
      "postal_code": "45970"
    },
    {
      "id": 50377,
      "district_id": 693,
      "name": "AŞAĞITEFEN MAH",
      "area": "SELENDİ",
      "postal_code": "45970"
    },
    {
      "id": 50378,
      "district_id": 693,
      "name": "AVLAŞA MAH",
      "area": "SELENDİ",
      "postal_code": "45970"
    },
    {
      "id": 50379,
      "district_id": 693,
      "name": "BEKİRAĞALAR MAH",
      "area": "SELENDİ",
      "postal_code": "45970"
    },
    {
      "id": 50380,
      "district_id": 693,
      "name": "BEYPINAR MAH",
      "area": "SELENDİ",
      "postal_code": "45970"
    },
    {
      "id": 50381,
      "district_id": 693,
      "name": "ÇALIKLI MAH",
      "area": "SELENDİ",
      "postal_code": "45970"
    },
    {
      "id": 50382,
      "district_id": 693,
      "name": "ÇAMKÖY MAH",
      "area": "SELENDİ",
      "postal_code": "45970"
    },
    {
      "id": 50383,
      "district_id": 693,
      "name": "ÇAMLICA MAH",
      "area": "SELENDİ",
      "postal_code": "45970"
    },
    {
      "id": 50384,
      "district_id": 693,
      "name": "ÇAMPINAR MAH",
      "area": "SELENDİ",
      "postal_code": "45970"
    },
    {
      "id": 50385,
      "district_id": 693,
      "name": "ÇAMYAYLA MAH",
      "area": "SELENDİ",
      "postal_code": "45970"
    },
    {
      "id": 50386,
      "district_id": 693,
      "name": "ÇANŞA MAH",
      "area": "SELENDİ",
      "postal_code": "45970"
    },
    {
      "id": 50387,
      "district_id": 693,
      "name": "ÇIKRIKÇI MAH",
      "area": "SELENDİ",
      "postal_code": "45970"
    },
    {
      "id": 50388,
      "district_id": 693,
      "name": "ÇİNAN MAH",
      "area": "SELENDİ",
      "postal_code": "45970"
    },
    {
      "id": 50389,
      "district_id": 693,
      "name": "ÇORTAK MAH",
      "area": "SELENDİ",
      "postal_code": "45970"
    },
    {
      "id": 50390,
      "district_id": 693,
      "name": "DEDELER MAH",
      "area": "SELENDİ",
      "postal_code": "45970"
    },
    {
      "id": 50391,
      "district_id": 693,
      "name": "DUMANLAR MAH",
      "area": "SELENDİ",
      "postal_code": "45970"
    },
    {
      "id": 50392,
      "district_id": 693,
      "name": "ESKİCAMİ MAH",
      "area": "SELENDİ",
      "postal_code": "45970"
    },
    {
      "id": 50393,
      "district_id": 693,
      "name": "ESKİN MAH",
      "area": "SELENDİ",
      "postal_code": "45970"
    },
    {
      "id": 50394,
      "district_id": 693,
      "name": "FATİH MAH",
      "area": "SELENDİ",
      "postal_code": "45970"
    },
    {
      "id": 50395,
      "district_id": 693,
      "name": "GÖLBAŞI MAH",
      "area": "SELENDİ",
      "postal_code": "45970"
    },
    {
      "id": 50396,
      "district_id": 693,
      "name": "HACIHALİLLER MAH",
      "area": "SELENDİ",
      "postal_code": "45970"
    },
    {
      "id": 50397,
      "district_id": 693,
      "name": "HACILAR MAH",
      "area": "SELENDİ",
      "postal_code": "45970"
    },
    {
      "id": 50398,
      "district_id": 693,
      "name": "HALILAR MAH",
      "area": "SELENDİ",
      "postal_code": "45970"
    },
    {
      "id": 50399,
      "district_id": 693,
      "name": "HAVAOĞLU MAH",
      "area": "SELENDİ",
      "postal_code": "45970"
    },
    {
      "id": 50400,
      "district_id": 693,
      "name": "İNNİCE MAH",
      "area": "SELENDİ",
      "postal_code": "45970"
    },
    {
      "id": 50401,
      "district_id": 693,
      "name": "KABAKLAR MAH",
      "area": "SELENDİ",
      "postal_code": "45970"
    },
    {
      "id": 50402,
      "district_id": 693,
      "name": "KARABEYLER MAH",
      "area": "SELENDİ",
      "postal_code": "45970"
    },
    {
      "id": 50403,
      "district_id": 693,
      "name": "KARAKOZAN MAH",
      "area": "SELENDİ",
      "postal_code": "45970"
    },
    {
      "id": 50404,
      "district_id": 693,
      "name": "KARASELENDİ MAH",
      "area": "SELENDİ",
      "postal_code": "45970"
    },
    {
      "id": 50405,
      "district_id": 693,
      "name": "KARATAŞTERZİLER MAH",
      "area": "SELENDİ",
      "postal_code": "45970"
    },
    {
      "id": 50406,
      "district_id": 693,
      "name": "KARŞIOVA MAH",
      "area": "SELENDİ",
      "postal_code": "45970"
    },
    {
      "id": 50407,
      "district_id": 693,
      "name": "KAYRANLAR MAH",
      "area": "SELENDİ",
      "postal_code": "45970"
    },
    {
      "id": 50408,
      "district_id": 693,
      "name": "KAZIKLI MAH",
      "area": "SELENDİ",
      "postal_code": "45970"
    },
    {
      "id": 50409,
      "district_id": 693,
      "name": "KINIK MAH",
      "area": "SELENDİ",
      "postal_code": "45970"
    },
    {
      "id": 50410,
      "district_id": 693,
      "name": "KÜRKÇÜ MAH",
      "area": "SELENDİ",
      "postal_code": "45970"
    },
    {
      "id": 50411,
      "district_id": 693,
      "name": "KURŞUNLU MAH",
      "area": "SELENDİ",
      "postal_code": "45970"
    },
    {
      "id": 50412,
      "district_id": 693,
      "name": "KURTULUŞ MAH",
      "area": "SELENDİ",
      "postal_code": "45970"
    },
    {
      "id": 50413,
      "district_id": 693,
      "name": "MIDIKLI MAH",
      "area": "SELENDİ",
      "postal_code": "45970"
    },
    {
      "id": 50414,
      "district_id": 693,
      "name": "MOLLAAHMETLER MAH",
      "area": "SELENDİ",
      "postal_code": "45970"
    },
    {
      "id": 50415,
      "district_id": 693,
      "name": "OMURLAR MAH",
      "area": "SELENDİ",
      "postal_code": "45970"
    },
    {
      "id": 50416,
      "district_id": 693,
      "name": "PINARLAR MAH",
      "area": "SELENDİ",
      "postal_code": "45970"
    },
    {
      "id": 50417,
      "district_id": 693,
      "name": "RAHMANLAR MAH",
      "area": "SELENDİ",
      "postal_code": "45970"
    },
    {
      "id": 50418,
      "district_id": 693,
      "name": "ŞEHİRLİOĞLU MAH",
      "area": "SELENDİ",
      "postal_code": "45970"
    },
    {
      "id": 50419,
      "district_id": 693,
      "name": "SELMANHACILAR MAH",
      "area": "SELENDİ",
      "postal_code": "45970"
    },
    {
      "id": 50420,
      "district_id": 693,
      "name": "ŞEREFİYE MAH",
      "area": "SELENDİ",
      "postal_code": "45970"
    },
    {
      "id": 50421,
      "district_id": 693,
      "name": "TAVAK MAH",
      "area": "SELENDİ",
      "postal_code": "45970"
    },
    {
      "id": 50422,
      "district_id": 693,
      "name": "TEPEYNİHAN MAH",
      "area": "SELENDİ",
      "postal_code": "45970"
    },
    {
      "id": 50423,
      "district_id": 693,
      "name": "TURPÇU MAH",
      "area": "SELENDİ",
      "postal_code": "45970"
    },
    {
      "id": 50424,
      "district_id": 693,
      "name": "YAĞCI MAH",
      "area": "SELENDİ",
      "postal_code": "45970"
    },
    {
      "id": 50425,
      "district_id": 693,
      "name": "YENİCAMİ MAH",
      "area": "SELENDİ",
      "postal_code": "45970"
    },
    {
      "id": 50426,
      "district_id": 693,
      "name": "YENİCE MAH",
      "area": "SELENDİ",
      "postal_code": "45970"
    },
    {
      "id": 50427,
      "district_id": 693,
      "name": "YEŞİL MAH",
      "area": "SELENDİ",
      "postal_code": "45970"
    },
    {
      "id": 50428,
      "district_id": 693,
      "name": "YILDIZ MAH",
      "area": "SELENDİ",
      "postal_code": "45970"
    },
    {
      "id": 50429,
      "district_id": 693,
      "name": "YUKARITEFEN MAH",
      "area": "SELENDİ",
      "postal_code": "45970"
    },
    {
      "id": 50430,
      "district_id": 693,
      "name": "ZAFER MAH",
      "area": "SELENDİ",
      "postal_code": "45970"
    },
    {
      "id": 50431,
      "district_id": 693,
      "name": "ZIRAMANLAR MAH",
      "area": "SELENDİ",
      "postal_code": "45970"
    },
    {
      "id": 50432,
      "district_id": 694,
      "name": "ADİL MAH",
      "area": "SOMA",
      "postal_code": "45500"
    },
    {
      "id": 50433,
      "district_id": 694,
      "name": "AKÇAAVLU MAH",
      "area": "SOMA",
      "postal_code": "45500"
    },
    {
      "id": 50434,
      "district_id": 694,
      "name": "ATATÜRK MAH",
      "area": "SOMA",
      "postal_code": "45500"
    },
    {
      "id": 50435,
      "district_id": 694,
      "name": "AVDAN MAH",
      "area": "AVDAN",
      "postal_code": "45520"
    },
    {
      "id": 50436,
      "district_id": 694,
      "name": "BAYAT MAH",
      "area": "SOMA",
      "postal_code": "45500"
    },
    {
      "id": 50437,
      "district_id": 694,
      "name": "BEYCE MAH",
      "area": "SOMA",
      "postal_code": "45500"
    },
    {
      "id": 50438,
      "district_id": 694,
      "name": "BONCUKLU MAH",
      "area": "SOMA",
      "postal_code": "45500"
    },
    {
      "id": 50439,
      "district_id": 694,
      "name": "BOZARMUT MAH",
      "area": "SOMA",
      "postal_code": "45500"
    },
    {
      "id": 50440,
      "district_id": 694,
      "name": "BÜYÜK GÜNEY MAH",
      "area": "SOMA",
      "postal_code": "45500"
    },
    {
      "id": 50441,
      "district_id": 694,
      "name": "BÜYÜK IŞIKLAR MAH",
      "area": "SOMA",
      "postal_code": "45500"
    },
    {
      "id": 50442,
      "district_id": 694,
      "name": "ÇATALÇAM MAH",
      "area": "SOMA",
      "postal_code": "45500"
    },
    {
      "id": 50443,
      "district_id": 694,
      "name": "ÇAVDIR MAH",
      "area": "SOMA",
      "postal_code": "45500"
    },
    {
      "id": 50444,
      "district_id": 694,
      "name": "CENKYERİ MAH",
      "area": "CENKYERİ",
      "postal_code": "45530"
    },
    {
      "id": 50445,
      "district_id": 694,
      "name": "ÇEVİRCEK MAH",
      "area": "SOMA",
      "postal_code": "45500"
    },
    {
      "id": 50446,
      "district_id": 694,
      "name": "CUMA MAH",
      "area": "SOMA",
      "postal_code": "45500"
    },
    {
      "id": 50447,
      "district_id": 694,
      "name": "CUMHURİYET MAH",
      "area": "SOMA",
      "postal_code": "45500"
    },
    {
      "id": 50448,
      "district_id": 694,
      "name": "DARKALE MAH",
      "area": "SOMA",
      "postal_code": "45500"
    },
    {
      "id": 50449,
      "district_id": 694,
      "name": "DENİŞ MAH",
      "area": "SOMA",
      "postal_code": "45500"
    },
    {
      "id": 50450,
      "district_id": 694,
      "name": "DEREKÖY MAH",
      "area": "SOMA",
      "postal_code": "45500"
    },
    {
      "id": 50451,
      "district_id": 694,
      "name": "DEVLETHAN MAH",
      "area": "SOMA",
      "postal_code": "45500"
    },
    {
      "id": 50452,
      "district_id": 694,
      "name": "DUALAR MAH",
      "area": "SOMA",
      "postal_code": "45500"
    },
    {
      "id": 50453,
      "district_id": 694,
      "name": "DUĞLA MAH",
      "area": "SOMA",
      "postal_code": "45500"
    },
    {
      "id": 50454,
      "district_id": 694,
      "name": "EĞNEZ MAH",
      "area": "SOMA",
      "postal_code": "45500"
    },
    {
      "id": 50455,
      "district_id": 694,
      "name": "EVCİLER MAH",
      "area": "SOMA",
      "postal_code": "45500"
    },
    {
      "id": 50456,
      "district_id": 694,
      "name": "GÖKTAŞ MAH",
      "area": "SOMA",
      "postal_code": "45500"
    },
    {
      "id": 50457,
      "district_id": 694,
      "name": "HACIYUSUF MAH",
      "area": "SOMA",
      "postal_code": "45500"
    },
    {
      "id": 50458,
      "district_id": 694,
      "name": "HAMİDİYE  MAH (MERKEZ MAH)",
      "area": "SOMA",
      "postal_code": "45500"
    },
    {
      "id": 50459,
      "district_id": 694,
      "name": "HAMİDİYE MAH",
      "area": "SOMA",
      "postal_code": "45500"
    },
    {
      "id": 50460,
      "district_id": 694,
      "name": "HATUN MAH",
      "area": "SOMA",
      "postal_code": "45500"
    },
    {
      "id": 50461,
      "district_id": 694,
      "name": "HECİZ MAH",
      "area": "SOMA",
      "postal_code": "45500"
    },
    {
      "id": 50462,
      "district_id": 694,
      "name": "HÜRRİYET MAH",
      "area": "SOMA",
      "postal_code": "45500"
    },
    {
      "id": 50463,
      "district_id": 694,
      "name": "İNÖNÜ MAH",
      "area": "SOMA",
      "postal_code": "45500"
    },
    {
      "id": 50464,
      "district_id": 694,
      "name": "İSTASYON MAH",
      "area": "SOMA",
      "postal_code": "45500"
    },
    {
      "id": 50465,
      "district_id": 694,
      "name": "KAPLAN MAH",
      "area": "SOMA",
      "postal_code": "45500"
    },
    {
      "id": 50466,
      "district_id": 694,
      "name": "KARACAHİSAR MAH",
      "area": "SOMA",
      "postal_code": "45500"
    },
    {
      "id": 50467,
      "district_id": 694,
      "name": "KARACAKAŞ MAH",
      "area": "SOMA",
      "postal_code": "45500"
    },
    {
      "id": 50468,
      "district_id": 694,
      "name": "KARAÇAM MAH",
      "area": "SOMA",
      "postal_code": "45500"
    },
    {
      "id": 50469,
      "district_id": 694,
      "name": "KARAMANLI MAH",
      "area": "SOMA",
      "postal_code": "45500"
    },
    {
      "id": 50470,
      "district_id": 694,
      "name": "KAYRAKALTI MAH",
      "area": "SOMA",
      "postal_code": "45500"
    },
    {
      "id": 50471,
      "district_id": 694,
      "name": "KİRAZ MAH",
      "area": "SOMA",
      "postal_code": "45500"
    },
    {
      "id": 50472,
      "district_id": 694,
      "name": "KIZILÖREN MAH",
      "area": "SOMA",
      "postal_code": "45500"
    },
    {
      "id": 50473,
      "district_id": 694,
      "name": "KOBAKLAR MAH",
      "area": "SOMA",
      "postal_code": "45500"
    },
    {
      "id": 50474,
      "district_id": 694,
      "name": "KOYUNDERE MAH",
      "area": "SOMA",
      "postal_code": "45500"
    },
    {
      "id": 50475,
      "district_id": 694,
      "name": "KOZANLI MAH",
      "area": "SOMA",
      "postal_code": "45500"
    },
    {
      "id": 50476,
      "district_id": 694,
      "name": "KOZLUÖREN MAH",
      "area": "SOMA",
      "postal_code": "45500"
    },
    {
      "id": 50477,
      "district_id": 694,
      "name": "KÜÇÜK GÜNEY MAH",
      "area": "SOMA",
      "postal_code": "45500"
    },
    {
      "id": 50478,
      "district_id": 694,
      "name": "KUM MAH",
      "area": "SOMA",
      "postal_code": "45500"
    },
    {
      "id": 50479,
      "district_id": 694,
      "name": "KURTULUŞ MAH",
      "area": "SOMA",
      "postal_code": "45500"
    },
    {
      "id": 50480,
      "district_id": 694,
      "name": "MENTEŞE MAH",
      "area": "SOMA",
      "postal_code": "45500"
    },
    {
      "id": 50481,
      "district_id": 694,
      "name": "NALDÖKEN MAH",
      "area": "SOMA",
      "postal_code": "45500"
    },
    {
      "id": 50482,
      "district_id": 694,
      "name": "NAMAZGAH MAH",
      "area": "SOMA",
      "postal_code": "45500"
    },
    {
      "id": 50483,
      "district_id": 694,
      "name": "NİHAT DANIŞMAN MAH",
      "area": "SOMA",
      "postal_code": "45500"
    },
    {
      "id": 50484,
      "district_id": 694,
      "name": "ONÜÇ EYLÜL MAH",
      "area": "SOMA",
      "postal_code": "45500"
    },
    {
      "id": 50485,
      "district_id": 694,
      "name": "PİRAHMET MAH",
      "area": "SOMA",
      "postal_code": "45500"
    },
    {
      "id": 50486,
      "district_id": 694,
      "name": "SAMSACI MAH",
      "area": "SOMA",
      "postal_code": "45500"
    },
    {
      "id": 50487,
      "district_id": 694,
      "name": "SARIKAYA MAH",
      "area": "SOMA",
      "postal_code": "45500"
    },
    {
      "id": 50488,
      "district_id": 694,
      "name": "SEVİŞLER MAH",
      "area": "SOMA",
      "postal_code": "45500"
    },
    {
      "id": 50489,
      "district_id": 694,
      "name": "SÖĞÜTÇÜK MAH",
      "area": "SOMA",
      "postal_code": "45500"
    },
    {
      "id": 50490,
      "district_id": 694,
      "name": "SULTANİYE MAH",
      "area": "SOMA",
      "postal_code": "45500"
    },
    {
      "id": 50491,
      "district_id": 694,
      "name": "TABANLAR MAH",
      "area": "SOMA",
      "postal_code": "45500"
    },
    {
      "id": 50492,
      "district_id": 694,
      "name": "TEKELİ IŞIKLAR MAH",
      "area": "SOMA",
      "postal_code": "45500"
    },
    {
      "id": 50493,
      "district_id": 694,
      "name": "TURGUTALP MAH",
      "area": "TURGUTALP",
      "postal_code": "45540"
    },
    {
      "id": 50494,
      "district_id": 694,
      "name": "TÜRKALİ MAH",
      "area": "SOMA",
      "postal_code": "45500"
    },
    {
      "id": 50495,
      "district_id": 694,
      "name": "TÜRKPİYALA MAH",
      "area": "SOMA",
      "postal_code": "45500"
    },
    {
      "id": 50496,
      "district_id": 694,
      "name": "ULARCA MAH",
      "area": "SOMA",
      "postal_code": "45500"
    },
    {
      "id": 50497,
      "district_id": 694,
      "name": "URUZLAR MAH",
      "area": "SOMA",
      "postal_code": "45500"
    },
    {
      "id": 50498,
      "district_id": 694,
      "name": "VAKIFLI MAH",
      "area": "SOMA",
      "postal_code": "45500"
    },
    {
      "id": 50499,
      "district_id": 694,
      "name": "YAĞCILI MAH",
      "area": "YAĞCILI",
      "postal_code": "45510"
    },
    {
      "id": 50500,
      "district_id": 694,
      "name": "YAYLADALI MAH",
      "area": "SOMA",
      "postal_code": "45500"
    },
    {
      "id": 50501,
      "district_id": 694,
      "name": "YIRCA MAH",
      "area": "SOMA",
      "postal_code": "45500"
    },
    {
      "id": 50502,
      "district_id": 694,
      "name": "ZAFER MAH",
      "area": "SOMA",
      "postal_code": "45500"
    },
    {
      "id": 50503,
      "district_id": 695,
      "name": "1.ANAFARTALAR MAH",
      "area": "ÇARŞI",
      "postal_code": "45020"
    },
    {
      "id": 50504,
      "district_id": 695,
      "name": "2.ANAFARTALAR MAH",
      "area": "ÇARŞI",
      "postal_code": "45020"
    },
    {
      "id": 50505,
      "district_id": 695,
      "name": "ADAKALE MAH",
      "area": "KARAKÖY",
      "postal_code": "45010"
    },
    {
      "id": 50506,
      "district_id": 695,
      "name": "ADNAN MENDERES MAH",
      "area": "KUZEY",
      "postal_code": "45040"
    },
    {
      "id": 50507,
      "district_id": 695,
      "name": "AHMET BEDEVİ MAH",
      "area": "KUZEY",
      "postal_code": "45040"
    },
    {
      "id": 50508,
      "district_id": 695,
      "name": "AKINCILAR MAH",
      "area": "KARAKÖY",
      "postal_code": "45010"
    },
    {
      "id": 50509,
      "district_id": 695,
      "name": "AKPINAR MAH",
      "area": "KUZEY",
      "postal_code": "45040"
    },
    {
      "id": 50510,
      "district_id": 695,
      "name": "ALAYBEY MAH",
      "area": "ÇARŞI",
      "postal_code": "45020"
    },
    {
      "id": 50511,
      "district_id": 695,
      "name": "ARDA MAH",
      "area": "ÇARŞI",
      "postal_code": "45020"
    },
    {
      "id": 50512,
      "district_id": 695,
      "name": "AŞAĞIÇOBANİSA MAH",
      "area": "AŞAĞIÇOBANİSA",
      "postal_code": "45060"
    },
    {
      "id": 50513,
      "district_id": 695,
      "name": "AYVACIK MAH",
      "area": "ŞEHZADELER",
      "postal_code": "45050"
    },
    {
      "id": 50514,
      "district_id": 695,
      "name": "BAYINDIRLIK MAH",
      "area": "KARAKÖY",
      "postal_code": "45010"
    },
    {
      "id": 50515,
      "district_id": 695,
      "name": "BELENYENİCE MAH",
      "area": "ŞEHZADELER",
      "postal_code": "45050"
    },
    {
      "id": 50516,
      "district_id": 695,
      "name": "ÇAMKÖY MAH",
      "area": "ŞEHZADELER",
      "postal_code": "45050"
    },
    {
      "id": 50517,
      "district_id": 695,
      "name": "ÇARŞI MAH",
      "area": "KARAKÖY",
      "postal_code": "45010"
    },
    {
      "id": 50518,
      "district_id": 695,
      "name": "ÇAVUŞOĞLU MAH",
      "area": "ŞEHZADELER",
      "postal_code": "45050"
    },
    {
      "id": 50519,
      "district_id": 695,
      "name": "ÇERKEZMAHMUDİYE MAH",
      "area": "ŞEHZADELER",
      "postal_code": "45050"
    },
    {
      "id": 50520,
      "district_id": 695,
      "name": "ÇINARLIKUYU MAH",
      "area": "ŞEHZADELER",
      "postal_code": "45050"
    },
    {
      "id": 50521,
      "district_id": 695,
      "name": "DERE MAH",
      "area": "KARAKÖY",
      "postal_code": "45010"
    },
    {
      "id": 50522,
      "district_id": 695,
      "name": "DİLŞİKAR MAH",
      "area": "KARAKÖY",
      "postal_code": "45010"
    },
    {
      "id": 50523,
      "district_id": 695,
      "name": "DİNÇER MAH",
      "area": "ÇARŞI",
      "postal_code": "45020"
    },
    {
      "id": 50524,
      "district_id": 695,
      "name": "EGE MAH",
      "area": "KARAKÖY",
      "postal_code": "45010"
    },
    {
      "id": 50525,
      "district_id": 695,
      "name": "GEDİZ MAH",
      "area": "KARAKÖY",
      "postal_code": "45010"
    },
    {
      "id": 50526,
      "district_id": 695,
      "name": "GÖKBEL MAH",
      "area": "ŞEHZADELER",
      "postal_code": "45050"
    },
    {
      "id": 50527,
      "district_id": 695,
      "name": "GÖKTAŞLI MAH",
      "area": "KARAKÖY",
      "postal_code": "45010"
    },
    {
      "id": 50528,
      "district_id": 695,
      "name": "GÜZELKÖY MAH",
      "area": "ŞEHZADELER",
      "postal_code": "45050"
    },
    {
      "id": 50529,
      "district_id": 695,
      "name": "HACIHALİLLER MAH",
      "area": "HACIHALİLLER",
      "postal_code": "45090"
    },
    {
      "id": 50530,
      "district_id": 695,
      "name": "HALITLI MAH",
      "area": "ŞEHZADELER",
      "postal_code": "45050"
    },
    {
      "id": 50531,
      "district_id": 695,
      "name": "HAMZABEYLİ MAH",
      "area": "ŞEHZADELER",
      "postal_code": "45050"
    },
    {
      "id": 50532,
      "district_id": 695,
      "name": "İBRAHİMÇELEBİ MAH",
      "area": "KARAKÖY",
      "postal_code": "45010"
    },
    {
      "id": 50533,
      "district_id": 695,
      "name": "İSHAKÇELEBI MAH",
      "area": "KARAKÖY",
      "postal_code": "45010"
    },
    {
      "id": 50534,
      "district_id": 695,
      "name": "KAĞAN MAH",
      "area": "ŞEHZADELER",
      "postal_code": "45050"
    },
    {
      "id": 50535,
      "district_id": 695,
      "name": "KALEKÖY MAH",
      "area": "ŞEHZADELER",
      "postal_code": "45050"
    },
    {
      "id": 50536,
      "district_id": 695,
      "name": "KALEMLİ MAH",
      "area": "ŞEHZADELER",
      "postal_code": "45050"
    },
    {
      "id": 50537,
      "district_id": 695,
      "name": "KARAAĞAÇLI MAH",
      "area": "KARAAĞAÇLI",
      "postal_code": "45080"
    },
    {
      "id": 50538,
      "district_id": 695,
      "name": "KARAOĞLANLI MAH",
      "area": "KARAOĞLANLI",
      "postal_code": "45070"
    },
    {
      "id": 50539,
      "district_id": 695,
      "name": "KARAYENİCE MAH",
      "area": "ŞEHZADELER",
      "postal_code": "45050"
    },
    {
      "id": 50540,
      "district_id": 695,
      "name": "KAZIM KARABEKİR MAH",
      "area": "KUZEY",
      "postal_code": "45040"
    },
    {
      "id": 50541,
      "district_id": 695,
      "name": "KIRANÇİFTLİĞİ MAH",
      "area": "ŞEHZADELER",
      "postal_code": "45050"
    },
    {
      "id": 50542,
      "district_id": 695,
      "name": "KOCATEPE MAH",
      "area": "KARAKÖY",
      "postal_code": "45010"
    },
    {
      "id": 50543,
      "district_id": 695,
      "name": "KUŞLUBAHÇE MAH",
      "area": "KUZEY",
      "postal_code": "45040"
    },
    {
      "id": 50544,
      "district_id": 695,
      "name": "MİMARSİNAN MAH",
      "area": "KARAKÖY",
      "postal_code": "45010"
    },
    {
      "id": 50545,
      "district_id": 695,
      "name": "NİŞANCIPAŞA MAH",
      "area": "ÇARŞI",
      "postal_code": "45020"
    },
    {
      "id": 50546,
      "district_id": 695,
      "name": "NURLUPINAR MAH",
      "area": "KUZEY",
      "postal_code": "45040"
    },
    {
      "id": 50547,
      "district_id": 695,
      "name": "PEKER MAH",
      "area": "ÇARŞI",
      "postal_code": "45020"
    },
    {
      "id": 50548,
      "district_id": 695,
      "name": "SAKARYA MAH",
      "area": "ÇARŞI",
      "postal_code": "45020"
    },
    {
      "id": 50549,
      "district_id": 695,
      "name": "SANCAKLIBOZKÖY MAH",
      "area": "SANCAKLIBOZKÖY",
      "postal_code": "45072"
    },
    {
      "id": 50550,
      "district_id": 695,
      "name": "SANCAKLIÇEŞMEBAŞI MAH",
      "area": "ŞEHZADELER",
      "postal_code": "45050"
    },
    {
      "id": 50551,
      "district_id": 695,
      "name": "SANCAKLIİĞDECİK MAH",
      "area": "ŞEHZADELER",
      "postal_code": "45050"
    },
    {
      "id": 50552,
      "district_id": 695,
      "name": "SANCAKLIKAYADİBİ MAH",
      "area": "ŞEHZADELER",
      "postal_code": "45050"
    },
    {
      "id": 50553,
      "district_id": 695,
      "name": "SANCAKLIUZUNÇINAR MAH",
      "area": "ŞEHZADELER",
      "postal_code": "45050"
    },
    {
      "id": 50554,
      "district_id": 695,
      "name": "SARIALAN MAH",
      "area": "ŞEHZADELER",
      "postal_code": "45050"
    },
    {
      "id": 50555,
      "district_id": 695,
      "name": "SARUHAN MAH",
      "area": "KARAKÖY",
      "postal_code": "45010"
    },
    {
      "id": 50556,
      "district_id": 695,
      "name": "ŞEHİTLER MAH",
      "area": "ÇARŞI",
      "postal_code": "45020"
    },
    {
      "id": 50557,
      "district_id": 695,
      "name": "SELİMŞAHLAR MAH",
      "area": "ŞEHZADELER",
      "postal_code": "45050"
    },
    {
      "id": 50558,
      "district_id": 695,
      "name": "TEKELİLER MAH",
      "area": "ŞEHZADELER",
      "postal_code": "45050"
    },
    {
      "id": 50559,
      "district_id": 695,
      "name": "TEPECİK MAH",
      "area": "ŞEHZADELER",
      "postal_code": "45050"
    },
    {
      "id": 50560,
      "district_id": 695,
      "name": "TİLKİSÜLEYMANİYE MAH",
      "area": "ŞEHZADELER",
      "postal_code": "45050"
    },
    {
      "id": 50561,
      "district_id": 695,
      "name": "TUNCA MAH",
      "area": "KARAKÖY",
      "postal_code": "45010"
    },
    {
      "id": 50562,
      "district_id": 695,
      "name": "TURGUT ÖZAL MAH",
      "area": "KUZEY",
      "postal_code": "45040"
    },
    {
      "id": 50563,
      "district_id": 695,
      "name": "UTKU MAH",
      "area": "KARAKÖY",
      "postal_code": "45010"
    },
    {
      "id": 50564,
      "district_id": 695,
      "name": "VEZİROĞLU MAH",
      "area": "ŞEHZADELER",
      "postal_code": "45050"
    },
    {
      "id": 50565,
      "district_id": 695,
      "name": "YARHASANLAR MAH",
      "area": "ÇARŞI",
      "postal_code": "45020"
    },
    {
      "id": 50566,
      "district_id": 695,
      "name": "YENİHARMANDALI MAH",
      "area": "ŞEHZADELER",
      "postal_code": "45050"
    },
    {
      "id": 50567,
      "district_id": 695,
      "name": "YENİKÖY MAH",
      "area": "ŞEHZADELER",
      "postal_code": "45050"
    },
    {
      "id": 50568,
      "district_id": 695,
      "name": "YEŞİLKÖY MAH",
      "area": "ŞEHZADELER",
      "postal_code": "45050"
    },
    {
      "id": 50569,
      "district_id": 695,
      "name": "YUKARIÇOBANİSA MAH",
      "area": "ŞEHZADELER",
      "postal_code": "45050"
    },
    {
      "id": 50570,
      "district_id": 696,
      "name": "ACARLAR MAH",
      "area": "TURGUTLU",
      "postal_code": "45400"
    },
    {
      "id": 50571,
      "district_id": 696,
      "name": "AKÇAPINAR MAH",
      "area": "TURGUTLU",
      "postal_code": "45400"
    },
    {
      "id": 50572,
      "district_id": 696,
      "name": "AKKÖY MAH",
      "area": "TURGUTLU",
      "postal_code": "45400"
    },
    {
      "id": 50573,
      "district_id": 696,
      "name": "ALBAYRAK MAH",
      "area": "TURGUTLU",
      "postal_code": "45400"
    },
    {
      "id": 50574,
      "district_id": 696,
      "name": "ALTAY MAH",
      "area": "TURGUTLU",
      "postal_code": "45400"
    },
    {
      "id": 50575,
      "district_id": 696,
      "name": "AŞAĞIBOZKIR MAH",
      "area": "TURGUTLU",
      "postal_code": "45400"
    },
    {
      "id": 50576,
      "district_id": 696,
      "name": "ATATÜRK MAH",
      "area": "TURGUTLU",
      "postal_code": "45400"
    },
    {
      "id": 50577,
      "district_id": 696,
      "name": "AVŞAR MAH",
      "area": "TURGUTLU",
      "postal_code": "45400"
    },
    {
      "id": 50578,
      "district_id": 696,
      "name": "AYVACIK MAH",
      "area": "TURGUTLU",
      "postal_code": "45400"
    },
    {
      "id": 50579,
      "district_id": 696,
      "name": "BAKTIRLI MAH",
      "area": "TURGUTLU",
      "postal_code": "45400"
    },
    {
      "id": 50580,
      "district_id": 696,
      "name": "BOZKIR MAH",
      "area": "TURGUTLU",
      "postal_code": "45400"
    },
    {
      "id": 50581,
      "district_id": 696,
      "name": "BOZKURT MAH",
      "area": "TURGUTLU",
      "postal_code": "45400"
    },
    {
      "id": 50582,
      "district_id": 696,
      "name": "ÇAMPINAR MAH",
      "area": "TURGUTLU",
      "postal_code": "45400"
    },
    {
      "id": 50583,
      "district_id": 696,
      "name": "ÇATALKÖPRÜ MAH",
      "area": "TURGUTLU",
      "postal_code": "45400"
    },
    {
      "id": 50584,
      "district_id": 696,
      "name": "ÇEPNİBEKTAŞ MAH",
      "area": "TURGUTLU",
      "postal_code": "45400"
    },
    {
      "id": 50585,
      "district_id": 696,
      "name": "ÇEPNİDERE MAH",
      "area": "TURGUTLU",
      "postal_code": "45400"
    },
    {
      "id": 50586,
      "district_id": 696,
      "name": "ÇIKRIKÇI MAH",
      "area": "TURGUTLU",
      "postal_code": "45400"
    },
    {
      "id": 50587,
      "district_id": 696,
      "name": "CUMHURİYET MAH",
      "area": "TURGUTLU",
      "postal_code": "45400"
    },
    {
      "id": 50588,
      "district_id": 696,
      "name": "DAĞYENİKÖY MAH",
      "area": "TURGUTLU",
      "postal_code": "45400"
    },
    {
      "id": 50589,
      "district_id": 696,
      "name": "DALBAHÇE MAH",
      "area": "TURGUTLU",
      "postal_code": "45400"
    },
    {
      "id": 50590,
      "district_id": 696,
      "name": "DERBENT MAH",
      "area": "DERBENT",
      "postal_code": "45415"
    },
    {
      "id": 50591,
      "district_id": 696,
      "name": "ERGENEKON MAH",
      "area": "TURGUTLU",
      "postal_code": "45400"
    },
    {
      "id": 50592,
      "district_id": 696,
      "name": "GÖKGEDİK MAH",
      "area": "TURGUTLU",
      "postal_code": "45400"
    },
    {
      "id": 50593,
      "district_id": 696,
      "name": "GÜNEY MAH",
      "area": "TURGUTLU",
      "postal_code": "45400"
    },
    {
      "id": 50594,
      "district_id": 696,
      "name": "HACIİSALAR MAH",
      "area": "TURGUTLU",
      "postal_code": "45400"
    },
    {
      "id": 50595,
      "district_id": 696,
      "name": "IRLAMAZ MAH",
      "area": "TURGUTLU",
      "postal_code": "45400"
    },
    {
      "id": 50596,
      "district_id": 696,
      "name": "İSTASYONALTI MAH",
      "area": "TURGUTLU",
      "postal_code": "45400"
    },
    {
      "id": 50597,
      "district_id": 696,
      "name": "İSTİKLAL MAH",
      "area": "TURGUTLU",
      "postal_code": "45400"
    },
    {
      "id": 50598,
      "district_id": 696,
      "name": "İZZETTİN MAH",
      "area": "TURGUTLU",
      "postal_code": "45400"
    },
    {
      "id": 50599,
      "district_id": 696,
      "name": "KABAÇINAR MAH",
      "area": "TURGUTLU",
      "postal_code": "45400"
    },
    {
      "id": 50600,
      "district_id": 696,
      "name": "KARAKÖY MAH",
      "area": "TURGUTLU",
      "postal_code": "45400"
    },
    {
      "id": 50601,
      "district_id": 696,
      "name": "KARAOLUK MAH",
      "area": "TURGUTLU",
      "postal_code": "45400"
    },
    {
      "id": 50602,
      "district_id": 696,
      "name": "KAYRAK MAH",
      "area": "TURGUTLU",
      "postal_code": "45400"
    },
    {
      "id": 50603,
      "district_id": 696,
      "name": "KURTULUŞ MAH",
      "area": "TURGUTLU",
      "postal_code": "45400"
    },
    {
      "id": 50604,
      "district_id": 696,
      "name": "KURUDERE MAH",
      "area": "TURGUTLU",
      "postal_code": "45400"
    },
    {
      "id": 50605,
      "district_id": 696,
      "name": "KUŞLAR MAH",
      "area": "TURGUTLU",
      "postal_code": "45400"
    },
    {
      "id": 50606,
      "district_id": 696,
      "name": "MUSACALI MAH",
      "area": "TURGUTLU",
      "postal_code": "45400"
    },
    {
      "id": 50607,
      "district_id": 696,
      "name": "MUSALARYENİKÖY MAH",
      "area": "TURGUTLU",
      "postal_code": "45400"
    },
    {
      "id": 50608,
      "district_id": 696,
      "name": "MUSTAFA KEMAL MAH",
      "area": "TURGUTLU",
      "postal_code": "45400"
    },
    {
      "id": 50609,
      "district_id": 696,
      "name": "ÖREN MAH",
      "area": "TURGUTLU",
      "postal_code": "45400"
    },
    {
      "id": 50610,
      "district_id": 696,
      "name": "OSMANCIK MAH",
      "area": "TURGUTLU",
      "postal_code": "45400"
    },
    {
      "id": 50611,
      "district_id": 696,
      "name": "ÖZYURT MAH",
      "area": "TURGUTLU",
      "postal_code": "45400"
    },
    {
      "id": 50612,
      "district_id": 696,
      "name": "SARIBEY MAH",
      "area": "TURGUTLU",
      "postal_code": "45400"
    },
    {
      "id": 50613,
      "district_id": 696,
      "name": "ŞEHİTLER MAH",
      "area": "TURGUTLU",
      "postal_code": "45400"
    },
    {
      "id": 50614,
      "district_id": 696,
      "name": "SELVİLİTEPE MAH",
      "area": "TURGUTLU",
      "postal_code": "45400"
    },
    {
      "id": 50615,
      "district_id": 696,
      "name": "SELVİLİTEPEOSB MAH",
      "area": "TURGUTLU",
      "postal_code": "45400"
    },
    {
      "id": 50616,
      "district_id": 696,
      "name": "SİNİRLİ MAH",
      "area": "TURGUTLU",
      "postal_code": "45400"
    },
    {
      "id": 50617,
      "district_id": 696,
      "name": "SİVRİCE MAH",
      "area": "TURGUTLU",
      "postal_code": "45400"
    },
    {
      "id": 50618,
      "district_id": 696,
      "name": "SUBAŞI MAH",
      "area": "TURGUTLU",
      "postal_code": "45400"
    },
    {
      "id": 50619,
      "district_id": 696,
      "name": "TEMREK MAH",
      "area": "TURGUTLU",
      "postal_code": "45400"
    },
    {
      "id": 50620,
      "district_id": 696,
      "name": "TURAN MAH",
      "area": "TURGUTLU",
      "postal_code": "45400"
    },
    {
      "id": 50621,
      "district_id": 696,
      "name": "TURGUTLAR MAH",
      "area": "TURGUTLU",
      "postal_code": "45400"
    },
    {
      "id": 50622,
      "district_id": 696,
      "name": "URGANLI MAH",
      "area": "URGANLI",
      "postal_code": "45420"
    },
    {
      "id": 50623,
      "district_id": 696,
      "name": "YAKUPLAR MAH",
      "area": "TURGUTLU",
      "postal_code": "45400"
    },
    {
      "id": 50624,
      "district_id": 696,
      "name": "YAYLA MAH",
      "area": "TURGUTLU",
      "postal_code": "45400"
    },
    {
      "id": 50625,
      "district_id": 696,
      "name": "YEDİ EYLÜL MAH",
      "area": "TURGUTLU",
      "postal_code": "45400"
    },
    {
      "id": 50626,
      "district_id": 696,
      "name": "YENİ MAH",
      "area": "TURGUTLU",
      "postal_code": "45400"
    },
    {
      "id": 50627,
      "district_id": 696,
      "name": "YENİKÖY MAH",
      "area": "TURGUTLU",
      "postal_code": "45400"
    },
    {
      "id": 50628,
      "district_id": 696,
      "name": "YİĞİTLER MAH",
      "area": "TURGUTLU",
      "postal_code": "45400"
    },
    {
      "id": 50629,
      "district_id": 696,
      "name": "YILDIRIM MAH",
      "area": "TURGUTLU",
      "postal_code": "45400"
    },
    {
      "id": 50630,
      "district_id": 696,
      "name": "YILMAZLAR MAH",
      "area": "TURGUTLU",
      "postal_code": "45400"
    },
    {
      "id": 50631,
      "district_id": 696,
      "name": "YUNUSDERE MAH",
      "area": "TURGUTLU",
      "postal_code": "45400"
    },
    {
      "id": 50632,
      "district_id": 697,
      "name": "50.YIL MAH",
      "area": "50.YIL",
      "postal_code": "45125"
    },
    {
      "id": 50633,
      "district_id": 697,
      "name": "75. YIL MAH",
      "area": "LALELİ",
      "postal_code": "45030"
    },
    {
      "id": 50634,
      "district_id": 697,
      "name": "AKÇAKÖY MAH",
      "area": "YUNUSEMRE",
      "postal_code": "45110"
    },
    {
      "id": 50635,
      "district_id": 697,
      "name": "AKGEDİK MAH",
      "area": "YUNUSEMRE",
      "postal_code": "45110"
    },
    {
      "id": 50636,
      "district_id": 697,
      "name": "AKMESCİT MAH",
      "area": "YUNUSEMRE",
      "postal_code": "45110"
    },
    {
      "id": 50637,
      "district_id": 697,
      "name": "ASMACIK MAH",
      "area": "YUNUSEMRE",
      "postal_code": "45110"
    },
    {
      "id": 50638,
      "district_id": 697,
      "name": "ATATÜRK MAH",
      "area": "50.YIL",
      "postal_code": "45125"
    },
    {
      "id": 50639,
      "district_id": 697,
      "name": "AVDAL MAH",
      "area": "YUNUSEMRE",
      "postal_code": "45110"
    },
    {
      "id": 50640,
      "district_id": 697,
      "name": "AYNİ ALİ MAH",
      "area": "TEVFİKİYE",
      "postal_code": "45120"
    },
    {
      "id": 50641,
      "district_id": 697,
      "name": "BAĞYOLU MAH",
      "area": "YUNUSEMRE",
      "postal_code": "45110"
    },
    {
      "id": 50642,
      "district_id": 697,
      "name": "BARBAROS MAH",
      "area": "50.YIL",
      "postal_code": "45125"
    },
    {
      "id": 50643,
      "district_id": 697,
      "name": "BEYDERE MAH",
      "area": "YUNUSEMRE",
      "postal_code": "45110"
    },
    {
      "id": 50644,
      "district_id": 697,
      "name": "BOSTANLAR MAH",
      "area": "YUNUSEMRE",
      "postal_code": "45110"
    },
    {
      "id": 50645,
      "district_id": 697,
      "name": "BÜYÜKSÜMBÜLLER MAH",
      "area": "YUNUSEMRE",
      "postal_code": "45110"
    },
    {
      "id": 50646,
      "district_id": 697,
      "name": "ÇAMLICA MAH",
      "area": "YUNUSEMRE",
      "postal_code": "45110"
    },
    {
      "id": 50647,
      "district_id": 697,
      "name": "CUMHURİYET MAH",
      "area": "LALELİ",
      "postal_code": "45030"
    },
    {
      "id": 50648,
      "district_id": 697,
      "name": "DAVUTLAR MAH",
      "area": "YUNUSEMRE",
      "postal_code": "45110"
    },
    {
      "id": 50649,
      "district_id": 697,
      "name": "DAZYURT MAH",
      "area": "YUNUSEMRE",
      "postal_code": "45110"
    },
    {
      "id": 50650,
      "district_id": 697,
      "name": "DEMİRCİ MAH",
      "area": "YUNUSEMRE",
      "postal_code": "45110"
    },
    {
      "id": 50651,
      "district_id": 697,
      "name": "DURASILLI MAH",
      "area": "YUNUSEMRE",
      "postal_code": "45110"
    },
    {
      "id": 50652,
      "district_id": 697,
      "name": "DÜZLEN MAH",
      "area": "YUNUSEMRE",
      "postal_code": "45110"
    },
    {
      "id": 50653,
      "district_id": 697,
      "name": "EMLAKDERE MAH",
      "area": "YUNUSEMRE",
      "postal_code": "45110"
    },
    {
      "id": 50654,
      "district_id": 697,
      "name": "EVRENOS MAH",
      "area": "YUNUSEMRE",
      "postal_code": "45110"
    },
    {
      "id": 50655,
      "district_id": 697,
      "name": "FATİH MAH",
      "area": "LALELİ",
      "postal_code": "45030"
    },
    {
      "id": 50656,
      "district_id": 697,
      "name": "GÖKÇELER MAH",
      "area": "YUNUSEMRE",
      "postal_code": "45110"
    },
    {
      "id": 50657,
      "district_id": 697,
      "name": "GÜLBAHÇE MAH",
      "area": "YUNUSEMRE",
      "postal_code": "45110"
    },
    {
      "id": 50658,
      "district_id": 697,
      "name": "GÜRLE MAH",
      "area": "YUNUSEMRE",
      "postal_code": "45110"
    },
    {
      "id": 50659,
      "district_id": 697,
      "name": "GÜZELYURT MAH",
      "area": "LALELİ",
      "postal_code": "45030"
    },
    {
      "id": 50660,
      "district_id": 697,
      "name": "HAFSA SULTAN MAH",
      "area": "LALELİ",
      "postal_code": "45030"
    },
    {
      "id": 50661,
      "district_id": 697,
      "name": "İLYASÇILAR MAH",
      "area": "YUNUSEMRE",
      "postal_code": "45110"
    },
    {
      "id": 50662,
      "district_id": 697,
      "name": "KARAAHMETLİ MAH",
      "area": "YUNUSEMRE",
      "postal_code": "45110"
    },
    {
      "id": 50663,
      "district_id": 697,
      "name": "KARAALİ MAH",
      "area": "YUNUSEMRE",
      "postal_code": "45110"
    },
    {
      "id": 50664,
      "district_id": 697,
      "name": "KARAHÜSEYİNLİ MAH",
      "area": "YUNUSEMRE",
      "postal_code": "45110"
    },
    {
      "id": 50665,
      "district_id": 697,
      "name": "KARAKILIÇLI MAH",
      "area": "YUNUSEMRE",
      "postal_code": "45110"
    },
    {
      "id": 50666,
      "district_id": 697,
      "name": "KARAKOCA MAH",
      "area": "YUNUSEMRE",
      "postal_code": "45110"
    },
    {
      "id": 50667,
      "district_id": 697,
      "name": "KARAVELİLER MAH",
      "area": "YUNUSEMRE",
      "postal_code": "45110"
    },
    {
      "id": 50668,
      "district_id": 697,
      "name": "KARAYAĞCIHACILAR MAH",
      "area": "YUNUSEMRE",
      "postal_code": "45110"
    },
    {
      "id": 50669,
      "district_id": 697,
      "name": "KAYAPINAR MAH",
      "area": "YUNUSEMRE",
      "postal_code": "45110"
    },
    {
      "id": 50670,
      "district_id": 697,
      "name": "KAYNAK MAH",
      "area": "YUNUSEMRE",
      "postal_code": "45110"
    },
    {
      "id": 50671,
      "district_id": 697,
      "name": "KEÇİLİ KÖY MAH",
      "area": "LALELİ",
      "postal_code": "45030"
    },
    {
      "id": 50672,
      "district_id": 697,
      "name": "KEÇİLİKÖYOSB MAH",
      "area": "LALELİ",
      "postal_code": "45030"
    },
    {
      "id": 50673,
      "district_id": 697,
      "name": "KIŞLAKÖY MAH",
      "area": "YUNUSEMRE",
      "postal_code": "45110"
    },
    {
      "id": 50674,
      "district_id": 697,
      "name": "KOCAKORU MAH",
      "area": "YUNUSEMRE",
      "postal_code": "45110"
    },
    {
      "id": 50675,
      "district_id": 697,
      "name": "KORUKÖY MAH",
      "area": "YUNUSEMRE",
      "postal_code": "45110"
    },
    {
      "id": 50676,
      "district_id": 697,
      "name": "KOZAKLAR MAH",
      "area": "YUNUSEMRE",
      "postal_code": "45110"
    },
    {
      "id": 50677,
      "district_id": 697,
      "name": "KÜÇÜKBELEN MAH",
      "area": "YUNUSEMRE",
      "postal_code": "45110"
    },
    {
      "id": 50678,
      "district_id": 697,
      "name": "KÜÇÜKSÜMBÜLLER MAH",
      "area": "YUNUSEMRE",
      "postal_code": "45110"
    },
    {
      "id": 50679,
      "district_id": 697,
      "name": "KUYUALAN MAH",
      "area": "YUNUSEMRE",
      "postal_code": "45110"
    },
    {
      "id": 50680,
      "district_id": 697,
      "name": "LALAPAŞA MAH",
      "area": "YUNUSEMRE",
      "postal_code": "45110"
    },
    {
      "id": 50681,
      "district_id": 697,
      "name": "LALELİ MAH",
      "area": "LALELİ",
      "postal_code": "45030"
    },
    {
      "id": 50682,
      "district_id": 697,
      "name": "MALDAN MAH",
      "area": "YUNUSEMRE",
      "postal_code": "45110"
    },
    {
      "id": 50683,
      "district_id": 697,
      "name": "MAREŞAL FEVZİ ÇAKMAK MAH",
      "area": "50.YIL",
      "postal_code": "45125"
    },
    {
      "id": 50684,
      "district_id": 697,
      "name": "MERKEZ EFENDİ MAH",
      "area": "TEVFİKİYE",
      "postal_code": "45120"
    },
    {
      "id": 50685,
      "district_id": 697,
      "name": "MESİR MAH",
      "area": "LALELİ",
      "postal_code": "45030"
    },
    {
      "id": 50686,
      "district_id": 697,
      "name": "MOLLASÜLEYMANLI MAH",
      "area": "YUNUSEMRE",
      "postal_code": "45110"
    },
    {
      "id": 50687,
      "district_id": 697,
      "name": "MURADİYE MAH",
      "area": "MURADİYE",
      "postal_code": "45140"
    },
    {
      "id": 50688,
      "district_id": 697,
      "name": "MÜSLİH MAH",
      "area": "YUNUSEMRE",
      "postal_code": "45110"
    },
    {
      "id": 50689,
      "district_id": 697,
      "name": "MUTLU MAH",
      "area": "YUNUSEMRE",
      "postal_code": "45110"
    },
    {
      "id": 50690,
      "district_id": 697,
      "name": "ÖRENCİK MAH",
      "area": "YUNUSEMRE",
      "postal_code": "45110"
    },
    {
      "id": 50691,
      "district_id": 697,
      "name": "ÖRSELLİ MAH",
      "area": "YUNUSEMRE",
      "postal_code": "45110"
    },
    {
      "id": 50692,
      "district_id": 697,
      "name": "ORTAKÖY MAH",
      "area": "YUNUSEMRE",
      "postal_code": "45110"
    },
    {
      "id": 50693,
      "district_id": 697,
      "name": "OSMANCALI MAH",
      "area": "YUNUSEMRE",
      "postal_code": "45110"
    },
    {
      "id": 50694,
      "district_id": 697,
      "name": "OTMANLAR MAH",
      "area": "YUNUSEMRE",
      "postal_code": "45110"
    },
    {
      "id": 50695,
      "district_id": 697,
      "name": "PELİTALAN MAH",
      "area": "YUNUSEMRE",
      "postal_code": "45110"
    },
    {
      "id": 50696,
      "district_id": 697,
      "name": "PINARKÖY MAH",
      "area": "YUNUSEMRE",
      "postal_code": "45110"
    },
    {
      "id": 50697,
      "district_id": 697,
      "name": "RECEPLİ MAH",
      "area": "YUNUSEMRE",
      "postal_code": "45110"
    },
    {
      "id": 50698,
      "district_id": 697,
      "name": "SAKALLI MAH",
      "area": "YUNUSEMRE",
      "postal_code": "45110"
    },
    {
      "id": 50699,
      "district_id": 697,
      "name": "ŞAMAR MAH",
      "area": "YUNUSEMRE",
      "postal_code": "45110"
    },
    {
      "id": 50700,
      "district_id": 697,
      "name": "SARIAHMETLİ MAH",
      "area": "YUNUSEMRE",
      "postal_code": "45110"
    },
    {
      "id": 50701,
      "district_id": 697,
      "name": "SARINASUHLAR MAH",
      "area": "YUNUSEMRE",
      "postal_code": "45110"
    },
    {
      "id": 50702,
      "district_id": 697,
      "name": "SARMA MAH",
      "area": "YUNUSEMRE",
      "postal_code": "45110"
    },
    {
      "id": 50703,
      "district_id": 697,
      "name": "SEYİTLİ MAH",
      "area": "YUNUSEMRE",
      "postal_code": "45110"
    },
    {
      "id": 50704,
      "district_id": 697,
      "name": "SPİL MAH",
      "area": "50.YIL",
      "postal_code": "45125"
    },
    {
      "id": 50705,
      "district_id": 697,
      "name": "SÜMBÜLTEPE MAH",
      "area": "YUNUSEMRE",
      "postal_code": "45110"
    },
    {
      "id": 50706,
      "district_id": 697,
      "name": "SÜNGÜLLÜ MAH",
      "area": "YUNUSEMRE",
      "postal_code": "45110"
    },
    {
      "id": 50707,
      "district_id": 697,
      "name": "TEVFİKİYE MAH",
      "area": "TEVFİKİYE",
      "postal_code": "45120"
    },
    {
      "id": 50708,
      "district_id": 697,
      "name": "TOPÇUASIM MAH",
      "area": "YUNUSEMRE",
      "postal_code": "45110"
    },
    {
      "id": 50709,
      "district_id": 697,
      "name": "TURGUTALP MAH",
      "area": "YUNUSEMRE",
      "postal_code": "45110"
    },
    {
      "id": 50710,
      "district_id": 697,
      "name": "TÜRKMEN MAH",
      "area": "YUNUSEMRE",
      "postal_code": "45110"
    },
    {
      "id": 50711,
      "district_id": 697,
      "name": "ÜÇPINAR MAH",
      "area": "ÜÇPINAR",
      "postal_code": "45150"
    },
    {
      "id": 50712,
      "district_id": 697,
      "name": "UNCUBOZKÖY MAH",
      "area": "LALELİ",
      "postal_code": "45030"
    },
    {
      "id": 50713,
      "district_id": 697,
      "name": "UZUNBURUN MAH",
      "area": "YUNUSEMRE",
      "postal_code": "45110"
    },
    {
      "id": 50714,
      "district_id": 697,
      "name": "UZUNLAR MAH",
      "area": "YUNUSEMRE",
      "postal_code": "45110"
    },
    {
      "id": 50715,
      "district_id": 697,
      "name": "YAĞCILAR MAH",
      "area": "YUNUSEMRE",
      "postal_code": "45110"
    },
    {
      "id": 50716,
      "district_id": 697,
      "name": "YAYLAKÖY MAH",
      "area": "YUNUSEMRE",
      "postal_code": "45110"
    },
    {
      "id": 50717,
      "district_id": 697,
      "name": "YENİMAHALLE MAH",
      "area": "LALELİ",
      "postal_code": "45030"
    },
    {
      "id": 50718,
      "district_id": 697,
      "name": "YUNTDAĞIKÖSELER MAH",
      "area": "YUNUSEMRE",
      "postal_code": "45110"
    },
    {
      "id": 50719,
      "district_id": 697,
      "name": "YUNTDAĞYENİCE MAH",
      "area": "YUNUSEMRE",
      "postal_code": "45110"
    },
    {
      "id": 73114,
      "district_id": 691,
      "name": "AFŞAR MAH",
      "area": "SARIGÖL",
      "postal_code": "45470"
    },
    {
      "id": 73115,
      "district_id": 691,
      "name": "AHMETAĞA MAH",
      "area": "SARIGÖL",
      "postal_code": "45470"
    },
    {
      "id": 73116,
      "district_id": 691,
      "name": "ALEMŞAHLI MAH",
      "area": "SARIGÖL",
      "postal_code": "45470"
    },
    {
      "id": 73117,
      "district_id": 691,
      "name": "AŞAĞI KOÇAKLAR MAH",
      "area": "SARIGÖL",
      "postal_code": "45470"
    },
    {
      "id": 73118,
      "district_id": 691,
      "name": "AYAN MAH",
      "area": "SARIGÖL",
      "postal_code": "45470"
    },
    {
      "id": 73119,
      "district_id": 691,
      "name": "BAĞLICA MAH",
      "area": "SARIGÖL",
      "postal_code": "45470"
    },
    {
      "id": 73120,
      "district_id": 691,
      "name": "BAHADIRLAR MAH",
      "area": "SARIGÖL",
      "postal_code": "45470"
    },
    {
      "id": 73121,
      "district_id": 691,
      "name": "BAHARLAR MAH",
      "area": "SARIGÖL",
      "postal_code": "45470"
    },
    {
      "id": 73122,
      "district_id": 691,
      "name": "BEREKETLİ MAH",
      "area": "SARIGÖL",
      "postal_code": "45470"
    },
    {
      "id": 73123,
      "district_id": 691,
      "name": "BEYHARMANI MAH",
      "area": "SARIGÖL",
      "postal_code": "45470"
    },
    {
      "id": 73124,
      "district_id": 691,
      "name": "ÇANAKÇI MAH",
      "area": "SARIGÖL",
      "postal_code": "45470"
    },
    {
      "id": 73125,
      "district_id": 691,
      "name": "ÇAVUŞLAR MAH",
      "area": "SARIGÖL",
      "postal_code": "45470"
    },
    {
      "id": 73126,
      "district_id": 691,
      "name": "ÇİMENTEPE MAH",
      "area": "SARIGÖL",
      "postal_code": "45470"
    },
    {
      "id": 73127,
      "district_id": 691,
      "name": "CUMHURİYET MAH",
      "area": "SARIGÖL",
      "postal_code": "45470"
    },
    {
      "id": 73128,
      "district_id": 691,
      "name": "DADAĞLI MAH",
      "area": "SARIGÖL",
      "postal_code": "45470"
    },
    {
      "id": 73129,
      "district_id": 691,
      "name": "DİNDARLI MAH",
      "area": "SARIGÖL",
      "postal_code": "45470"
    },
    {
      "id": 73130,
      "district_id": 691,
      "name": "DOĞUŞLAR MAH",
      "area": "SARIGÖL",
      "postal_code": "45470"
    },
    {
      "id": 73131,
      "district_id": 691,
      "name": "EMCELLİ MAH",
      "area": "SARIGÖL",
      "postal_code": "45470"
    },
    {
      "id": 73132,
      "district_id": 691,
      "name": "GÜNEYDAMLARI MAH",
      "area": "SARIGÖL",
      "postal_code": "45470"
    },
    {
      "id": 73133,
      "district_id": 691,
      "name": "GÜNYAKA MAH",
      "area": "SARIGÖL",
      "postal_code": "45470"
    },
    {
      "id": 73134,
      "district_id": 691,
      "name": "KAHRAMANLAR MAH",
      "area": "SARIGÖL",
      "postal_code": "45470"
    },
    {
      "id": 73135,
      "district_id": 691,
      "name": "KARACAALİ MAH",
      "area": "SARIGÖL",
      "postal_code": "45470"
    },
    {
      "id": 73136,
      "district_id": 691,
      "name": "KIZILÇUKUR MAH",
      "area": "SARIGÖL",
      "postal_code": "45470"
    },
    {
      "id": 73137,
      "district_id": 691,
      "name": "KONAK MAH",
      "area": "SARIGÖL",
      "postal_code": "45470"
    },
    {
      "id": 73138,
      "district_id": 691,
      "name": "MİMAR SİNAN MAH",
      "area": "SARIGÖL",
      "postal_code": "45470"
    },
    {
      "id": 73139,
      "district_id": 691,
      "name": "ÖZPINAR MAH",
      "area": "SARIGÖL",
      "postal_code": "45470"
    },
    {
      "id": 73140,
      "district_id": 691,
      "name": "SELİMİYE MAH",
      "area": "SARIGÖL",
      "postal_code": "45470"
    },
    {
      "id": 73141,
      "district_id": 691,
      "name": "ŞEYHDAVUTLAR MAH",
      "area": "SARIGÖL",
      "postal_code": "45470"
    },
    {
      "id": 73142,
      "district_id": 691,
      "name": "SIĞIRTMAÇLI MAH",
      "area": "SARIGÖL",
      "postal_code": "45470"
    },
    {
      "id": 73143,
      "district_id": 691,
      "name": "SİTELER MAH",
      "area": "SARIGÖL",
      "postal_code": "45470"
    },
    {
      "id": 73144,
      "district_id": 691,
      "name": "TIRAZLAR MAH",
      "area": "SARIGÖL",
      "postal_code": "45470"
    },
    {
      "id": 73145,
      "district_id": 691,
      "name": "YENİKÖY MAH",
      "area": "SARIGÖL",
      "postal_code": "45470"
    },
    {
      "id": 73146,
      "district_id": 691,
      "name": "YEŞİLTEPE MAH",
      "area": "SARIGÖL",
      "postal_code": "45470"
    },
    {
      "id": 73147,
      "district_id": 691,
      "name": "YUKARIKOÇAKLAR MAH",
      "area": "SARIGÖL",
      "postal_code": "45470"
    },
    {
      "id": 73148,
      "district_id": 691,
      "name": "ZİYANLAR MAH",
      "area": "SARIGÖL",
      "postal_code": "45470"
    }
  ]
}