{
  "neighborhoods": [
    {
      "id": 69098,
      "district_id": 927,
      "name": "31 AĞUSTOS MAH",
      "area": "BANAZ",
      "postal_code": "64500"
    },
    {
      "id": 69099,
      "district_id": 927,
      "name": "AHAT KÖYÜ",
      "area": "MERKEZKÖYLER",
      "postal_code": "64502"
    },
    {
      "id": 69100,
      "district_id": 927,
      "name": "ALABA KÖYÜ",
      "area": "MERKEZKÖYLER",
      "postal_code": "64502"
    },
    {
      "id": 69101,
      "district_id": 927,
      "name": "AŞAĞI MAH (DERBENT KÖYÜ)",
      "area": "MERKEZKÖYLER",
      "postal_code": "64502"
    },
    {
      "id": 69102,
      "district_id": 927,
      "name": "AŞAĞI MAH (HATİPLER KÖYÜ)",
      "area": "MERKEZKÖYLER",
      "postal_code": "64502"
    },
    {
      "id": 69103,
      "district_id": 927,
      "name": "AŞAĞI MAH (KIZILHİSAR KÖYÜ)",
      "area": "MERKEZKÖYLER",
      "postal_code": "64502"
    },
    {
      "id": 69104,
      "district_id": 927,
      "name": "ASFALT MAH (KAPLANGI KÖYÜ)",
      "area": "MERKEZKÖYLER",
      "postal_code": "64502"
    },
    {
      "id": 69105,
      "district_id": 927,
      "name": "AVGAN MAH (YAZITEPE KÖYÜ)",
      "area": "MERKEZKÖYLER",
      "postal_code": "64502"
    },
    {
      "id": 69106,
      "district_id": 927,
      "name": "AYRANCI KÖYÜ",
      "area": "MERKEZKÖYLER",
      "postal_code": "64502"
    },
    {
      "id": 69107,
      "district_id": 927,
      "name": "BAĞKONAK KÖYÜ",
      "area": "MERKEZKÖYLER",
      "postal_code": "64502"
    },
    {
      "id": 69108,
      "district_id": 927,
      "name": "BAHADIR KÖYÜ",
      "area": "MERKEZKÖYLER",
      "postal_code": "64502"
    },
    {
      "id": 69109,
      "district_id": 927,
      "name": "BALCIDAMI KÖYÜ",
      "area": "MERKEZKÖYLER",
      "postal_code": "64502"
    },
    {
      "id": 69110,
      "district_id": 927,
      "name": "BALTALI KÖYÜ",
      "area": "MERKEZKÖYLER",
      "postal_code": "64502"
    },
    {
      "id": 69111,
      "district_id": 927,
      "name": "BANAZ KÖYÜ",
      "area": "MERKEZKÖYLER",
      "postal_code": "64502"
    },
    {
      "id": 69112,
      "district_id": 927,
      "name": "BARIŞ MAH (KIZILCASÖĞÜT BELDESİ)",
      "area": "KIZILCASÖĞÜT",
      "postal_code": "64520"
    },
    {
      "id": 69113,
      "district_id": 927,
      "name": "BODUÇDAMI MAH (ULUPINAR KÖYÜ)",
      "area": "MERKEZKÖYLER",
      "postal_code": "64502"
    },
    {
      "id": 69114,
      "district_id": 927,
      "name": "BURHANİYE KÖYÜ",
      "area": "MERKEZKÖYLER",
      "postal_code": "64502"
    },
    {
      "id": 69115,
      "district_id": 927,
      "name": "ÇAMLAR MAH (KIZILHİSAR KÖYÜ)",
      "area": "MERKEZKÖYLER",
      "postal_code": "64502"
    },
    {
      "id": 69116,
      "district_id": 927,
      "name": "ÇAMSU KÖYÜ",
      "area": "MERKEZKÖYLER",
      "postal_code": "64502"
    },
    {
      "id": 69117,
      "district_id": 927,
      "name": "ÇİFTLİK KÖYÜ",
      "area": "MERKEZKÖYLER",
      "postal_code": "64502"
    },
    {
      "id": 69118,
      "district_id": 927,
      "name": "ÇÖĞÜRLÜ KÖYÜ",
      "area": "MERKEZKÖYLER",
      "postal_code": "64502"
    },
    {
      "id": 69119,
      "district_id": 927,
      "name": "CORUM KÖYÜ",
      "area": "MERKEZKÖYLER",
      "postal_code": "64502"
    },
    {
      "id": 69120,
      "district_id": 927,
      "name": "CUMHURİYET MAH",
      "area": "BANAZ",
      "postal_code": "64500"
    },
    {
      "id": 69121,
      "district_id": 927,
      "name": "CUMHURİYET MAH (KIZILCASÖĞÜT BELDESİ)",
      "area": "KIZILCASÖĞÜT",
      "postal_code": "64520"
    },
    {
      "id": 69122,
      "district_id": 927,
      "name": "DANAOĞLU MAH (KIZILHİSAR KÖYÜ)",
      "area": "MERKEZKÖYLER",
      "postal_code": "64502"
    },
    {
      "id": 69123,
      "district_id": 927,
      "name": "DEPREMEVLERİ MAH (DÜMENLER KÖYÜ)",
      "area": "MERKEZKÖYLER",
      "postal_code": "64502"
    },
    {
      "id": 69124,
      "district_id": 927,
      "name": "DEPREMEVLERİ MAH (HALAÇLAR KÖYÜ)",
      "area": "MERKEZKÖYLER",
      "postal_code": "64502"
    },
    {
      "id": 69125,
      "district_id": 927,
      "name": "DERE MAH (BAHADIR KÖYÜ)",
      "area": "MERKEZKÖYLER",
      "postal_code": "64502"
    },
    {
      "id": 69126,
      "district_id": 927,
      "name": "DERE MAH (DÜZLÜCE KÖYÜ)",
      "area": "MERKEZKÖYLER",
      "postal_code": "64502"
    },
    {
      "id": 69127,
      "district_id": 927,
      "name": "DERE MAH. (YEŞİLYURT KÖYÜ)",
      "area": "MERKEZKÖYLER",
      "postal_code": "64502"
    },
    {
      "id": 69128,
      "district_id": 927,
      "name": "DİLEK MAH",
      "area": "BANAZ",
      "postal_code": "64500"
    },
    {
      "id": 69129,
      "district_id": 927,
      "name": "DÜZKIŞLA KÖYÜ",
      "area": "MERKEZKÖYLER",
      "postal_code": "64502"
    },
    {
      "id": 69130,
      "district_id": 927,
      "name": "DÜZLÜCE KÖYÜ",
      "area": "MERKEZKÖYLER",
      "postal_code": "64502"
    },
    {
      "id": 69131,
      "district_id": 927,
      "name": "EMEK MAH (KIZILCASÖĞÜT BELDESİ)",
      "area": "KIZILCASÖĞÜT",
      "postal_code": "64520"
    },
    {
      "id": 69132,
      "district_id": 927,
      "name": "FAKIDAMI MAH (ULUPINAR KÖYÜ)",
      "area": "MERKEZKÖYLER",
      "postal_code": "64502"
    },
    {
      "id": 69133,
      "district_id": 927,
      "name": "GEBEKAVAK MAH (DERBENT KÖYÜ)",
      "area": "MERKEZKÖYLER",
      "postal_code": "64502"
    },
    {
      "id": 69134,
      "district_id": 927,
      "name": "GEDİKLER KÖYÜ",
      "area": "MERKEZKÖYLER",
      "postal_code": "64502"
    },
    {
      "id": 69135,
      "district_id": 927,
      "name": "GÜLLÜÇAM KÖYÜ",
      "area": "MERKEZKÖYLER",
      "postal_code": "64502"
    },
    {
      "id": 69136,
      "district_id": 927,
      "name": "GÜRLEK KÖYÜ",
      "area": "MERKEZKÖYLER",
      "postal_code": "64502"
    },
    {
      "id": 69137,
      "district_id": 927,
      "name": "HALAÇLAR KÖYÜ",
      "area": "MERKEZKÖYLER",
      "postal_code": "64502"
    },
    {
      "id": 69138,
      "district_id": 927,
      "name": "HALIYAZI MAH (HATİPLER KÖYÜ)",
      "area": "MERKEZKÖYLER",
      "postal_code": "64502"
    },
    {
      "id": 69139,
      "district_id": 927,
      "name": "HAMAMBOĞAZI MAH",
      "area": "MERKEZKÖYLER",
      "postal_code": "64502"
    },
    {
      "id": 69140,
      "district_id": 927,
      "name": "HANÖNÜ MAH (DERBENT KÖYÜ)",
      "area": "MERKEZKÖYLER",
      "postal_code": "64502"
    },
    {
      "id": 69141,
      "district_id": 927,
      "name": "HASANKÖY KÖYÜ",
      "area": "MERKEZKÖYLER",
      "postal_code": "64502"
    },
    {
      "id": 69142,
      "district_id": 927,
      "name": "İMREZ KÖYÜ",
      "area": "MERKEZKÖYLER",
      "postal_code": "64502"
    },
    {
      "id": 69143,
      "district_id": 927,
      "name": "İSLAM MAH",
      "area": "BANAZ",
      "postal_code": "64500"
    },
    {
      "id": 69144,
      "district_id": 927,
      "name": "KAPLANGI KÖYÜ",
      "area": "MERKEZKÖYLER",
      "postal_code": "64502"
    },
    {
      "id": 69145,
      "district_id": 927,
      "name": "KARACAHİSAR KÖYÜ",
      "area": "MERKEZKÖYLER",
      "postal_code": "64502"
    },
    {
      "id": 69146,
      "district_id": 927,
      "name": "KARAKÖSE KÖYÜ",
      "area": "MERKEZKÖYLER",
      "postal_code": "64502"
    },
    {
      "id": 69147,
      "district_id": 927,
      "name": "KAVACIK KÖYÜ",
      "area": "MERKEZKÖYLER",
      "postal_code": "64502"
    },
    {
      "id": 69148,
      "district_id": 927,
      "name": "KAYAARDI MAH (GÜRLEK KÖYÜ)",
      "area": "MERKEZKÖYLER",
      "postal_code": "64502"
    },
    {
      "id": 69149,
      "district_id": 927,
      "name": "KAYILI KÖYÜ",
      "area": "MERKEZKÖYLER",
      "postal_code": "64502"
    },
    {
      "id": 69150,
      "district_id": 927,
      "name": "KIZILCAÖREN KÖYÜ",
      "area": "MERKEZKÖYLER",
      "postal_code": "64502"
    },
    {
      "id": 69151,
      "district_id": 927,
      "name": "KOZVİRAN MAH (BÜYÜKOTURAK KÖYÜ)",
      "area": "MERKEZKÖYLER",
      "postal_code": "64502"
    },
    {
      "id": 69152,
      "district_id": 927,
      "name": "KÜÇÜKLER KÖYÜ",
      "area": "MERKEZKÖYLER",
      "postal_code": "64502"
    },
    {
      "id": 69153,
      "district_id": 927,
      "name": "KÜÇÜKOTURAK KÖYÜ",
      "area": "MERKEZKÖYLER",
      "postal_code": "64502"
    },
    {
      "id": 69154,
      "district_id": 927,
      "name": "KÜKÜRT MAH (KUŞDEMİR KÖYÜ)",
      "area": "MERKEZKÖYLER",
      "postal_code": "64502"
    },
    {
      "id": 69155,
      "district_id": 927,
      "name": "MERKEZ MAH (BÜYÜKOTURAK KÖYÜ)",
      "area": "MERKEZKÖYLER",
      "postal_code": "64502"
    },
    {
      "id": 69156,
      "district_id": 927,
      "name": "MERKEZ MAH (DÜMENLER KÖYÜ)",
      "area": "MERKEZKÖYLER",
      "postal_code": "64502"
    },
    {
      "id": 69157,
      "district_id": 927,
      "name": "MERKEZ MAH (KUŞDEMİR KÖYÜ)",
      "area": "MERKEZKÖYLER",
      "postal_code": "64502"
    },
    {
      "id": 69158,
      "district_id": 927,
      "name": "MERKEZ MAH (YAZITEPE KÖYÜ)",
      "area": "MERKEZKÖYLER",
      "postal_code": "64502"
    },
    {
      "id": 69159,
      "district_id": 927,
      "name": "MISTIKDAMLARI MAH (KUŞDEMİR KÖYÜ)",
      "area": "MERKEZKÖYLER",
      "postal_code": "64502"
    },
    {
      "id": 69160,
      "district_id": 927,
      "name": "MURATLI KÖYÜ",
      "area": "MERKEZKÖYLER",
      "postal_code": "64502"
    },
    {
      "id": 69161,
      "district_id": 927,
      "name": "NOHUTOVA MAH (DERBENT KÖYÜ)",
      "area": "MERKEZKÖYLER",
      "postal_code": "64502"
    },
    {
      "id": 69162,
      "district_id": 927,
      "name": "ÖKSÜZ KÖYÜ",
      "area": "MERKEZKÖYLER",
      "postal_code": "64502"
    },
    {
      "id": 69163,
      "district_id": 927,
      "name": "OKUL MAH (DERBENT KÖYÜ)",
      "area": "MERKEZKÖYLER",
      "postal_code": "64502"
    },
    {
      "id": 69164,
      "district_id": 927,
      "name": "OVACIK KÖYÜ",
      "area": "MERKEZKÖYLER",
      "postal_code": "64502"
    },
    {
      "id": 69165,
      "district_id": 927,
      "name": "PAŞACIK KÖYÜ",
      "area": "MERKEZKÖYLER",
      "postal_code": "64502"
    },
    {
      "id": 69166,
      "district_id": 927,
      "name": "REŞADİYE KÖYÜ",
      "area": "MERKEZKÖYLER",
      "postal_code": "64502"
    },
    {
      "id": 69167,
      "district_id": 927,
      "name": "ŞABAN KÖYÜ",
      "area": "MERKEZKÖYLER",
      "postal_code": "64502"
    },
    {
      "id": 69168,
      "district_id": 927,
      "name": "SARIYAZI MAH (HATİPLER KÖYÜ)",
      "area": "MERKEZKÖYLER",
      "postal_code": "64502"
    },
    {
      "id": 69169,
      "district_id": 927,
      "name": "ŞEHİTLER MAH",
      "area": "BANAZ",
      "postal_code": "64500"
    },
    {
      "id": 69170,
      "district_id": 927,
      "name": "ŞİRİNDERE MAH (KAPLANGI KÖYÜ)",
      "area": "MERKEZKÖYLER",
      "postal_code": "64502"
    },
    {
      "id": 69171,
      "district_id": 927,
      "name": "SUSUZ KÖYÜ",
      "area": "MERKEZKÖYLER",
      "postal_code": "64502"
    },
    {
      "id": 69172,
      "district_id": 927,
      "name": "ULUPINAR KÖYÜ",
      "area": "MERKEZKÖYLER",
      "postal_code": "64502"
    },
    {
      "id": 69173,
      "district_id": 927,
      "name": "YENİ MAH (GÜRLEK KÖYÜ)",
      "area": "MERKEZKÖYLER",
      "postal_code": "64502"
    },
    {
      "id": 69174,
      "district_id": 927,
      "name": "YENİ MAH (YEŞİLYURT KÖYÜ)",
      "area": "MERKEZKÖYLER",
      "postal_code": "64502"
    },
    {
      "id": 69175,
      "district_id": 927,
      "name": "YENİ MAHALLE (YAZITEPE KÖYÜ)",
      "area": "MERKEZKÖYLER",
      "postal_code": "64502"
    },
    {
      "id": 69176,
      "district_id": 927,
      "name": "YENİCAMİ MAH (KIZILHİSAR KÖYÜ)",
      "area": "MERKEZKÖYLER",
      "postal_code": "64502"
    },
    {
      "id": 69177,
      "district_id": 927,
      "name": "YENİCE KÖYÜ",
      "area": "MERKEZKÖYLER",
      "postal_code": "64502"
    },
    {
      "id": 69178,
      "district_id": 927,
      "name": "YENİMAHALLE MAH (KIZILHİSAR KÖYÜ)",
      "area": "MERKEZKÖYLER",
      "postal_code": "64502"
    },
    {
      "id": 69179,
      "district_id": 927,
      "name": "YEŞİLYURT KÖYÜ",
      "area": "MERKEZKÖYLER",
      "postal_code": "64502"
    },
    {
      "id": 69180,
      "district_id": 927,
      "name": "YUKARI MAH (DERBENT KÖYÜ)",
      "area": "MERKEZKÖYLER",
      "postal_code": "64502"
    },
    {
      "id": 69181,
      "district_id": 927,
      "name": "YUKARI MAH (HATİPLER KÖYÜ)",
      "area": "MERKEZKÖYLER",
      "postal_code": "64502"
    },
    {
      "id": 69182,
      "district_id": 927,
      "name": "YUKARI MAH (KIZILHİSAR KÖYÜ)",
      "area": "MERKEZKÖYLER",
      "postal_code": "64502"
    },
    {
      "id": 69183,
      "district_id": 928,
      "name": "ABACILAR MAH (DEREKÖY KÖYÜ)",
      "area": "MERKEZKÖYLER",
      "postal_code": "64602"
    },
    {
      "id": 69184,
      "district_id": 928,
      "name": "ABDİL ÇAVUŞ MAH (NARINCALI KÖYÜ)",
      "area": "MERKEZKÖYLER",
      "postal_code": "64602"
    },
    {
      "id": 69185,
      "district_id": 928,
      "name": "ABDURRAHMANLI MAH (SARAYCIK KÖYÜ)",
      "area": "MERKEZKÖYLER",
      "postal_code": "64602"
    },
    {
      "id": 69186,
      "district_id": 928,
      "name": "AĞABEY KÖYÜ",
      "area": "MERKEZKÖYLER",
      "postal_code": "64602"
    },
    {
      "id": 69187,
      "district_id": 928,
      "name": "AHMET ÇAVUŞLAR MAH (EŞMELİ KÖYÜ)",
      "area": "MERKEZKÖYLER",
      "postal_code": "64602"
    },
    {
      "id": 69188,
      "district_id": 928,
      "name": "AKÇAKÖY KÖYÜ",
      "area": "MERKEZKÖYLER",
      "postal_code": "64602"
    },
    {
      "id": 69189,
      "district_id": 928,
      "name": "ALAHABALI KÖYÜ",
      "area": "MERKEZKÖYLER",
      "postal_code": "64602"
    },
    {
      "id": 69190,
      "district_id": 928,
      "name": "ALİAĞALAR MAH (DAVUTLAR KÖYÜ)",
      "area": "MERKEZKÖYLER",
      "postal_code": "64602"
    },
    {
      "id": 69191,
      "district_id": 928,
      "name": "ALİAĞALAR MAH (GÜNYAKA KÖYÜ)",
      "area": "MERKEZKÖYLER",
      "postal_code": "64602"
    },
    {
      "id": 69192,
      "district_id": 928,
      "name": "ALİBEYLİ MAH (BOZLAR KÖYÜ)",
      "area": "MERKEZKÖYLER",
      "postal_code": "64602"
    },
    {
      "id": 69193,
      "district_id": 928,
      "name": "ALIÇLI KÖYÜ",
      "area": "MERKEZKÖYLER",
      "postal_code": "64602"
    },
    {
      "id": 69194,
      "district_id": 928,
      "name": "AMCALAR MAH (DAVUTLAR KÖYÜ)",
      "area": "MERKEZKÖYLER",
      "postal_code": "64602"
    },
    {
      "id": 69195,
      "district_id": 928,
      "name": "ARAPLAR KÖYÜ",
      "area": "MERKEZKÖYLER",
      "postal_code": "64602"
    },
    {
      "id": 69196,
      "district_id": 928,
      "name": "ARIKLI MAH (ALAHABALI KÖYÜ)",
      "area": "MERKEZKÖYLER",
      "postal_code": "64602"
    },
    {
      "id": 69197,
      "district_id": 928,
      "name": "ARMUTLU KÖYÜ",
      "area": "MERKEZKÖYLER",
      "postal_code": "64602"
    },
    {
      "id": 69198,
      "district_id": 928,
      "name": "ARZULAR MAH (GÜNYAKA KÖYÜ)",
      "area": "MERKEZKÖYLER",
      "postal_code": "64602"
    },
    {
      "id": 69199,
      "district_id": 928,
      "name": "AŞAĞI MAH (KARABACAKLI KÖYÜ)",
      "area": "MERKEZKÖYLER",
      "postal_code": "64602"
    },
    {
      "id": 69200,
      "district_id": 928,
      "name": "AŞILIK MAH (ÇAYKIŞLA KÖYÜ)",
      "area": "MERKEZKÖYLER",
      "postal_code": "64602"
    },
    {
      "id": 69201,
      "district_id": 928,
      "name": "AYDINLI KÖYÜ",
      "area": "MERKEZKÖYLER",
      "postal_code": "64602"
    },
    {
      "id": 69202,
      "district_id": 928,
      "name": "AYDINLI MAH (EŞMELİ KÖYÜ)",
      "area": "MERKEZKÖYLER",
      "postal_code": "64602"
    },
    {
      "id": 69203,
      "district_id": 928,
      "name": "AYDOĞANLAR MAH (OYMALI KÖYÜ)",
      "area": "MERKEZKÖYLER",
      "postal_code": "64602"
    },
    {
      "id": 69204,
      "district_id": 928,
      "name": "BAHÇE MAH (TAKMAK KÖYÜ)",
      "area": "MERKEZKÖYLER",
      "postal_code": "64602"
    },
    {
      "id": 69205,
      "district_id": 928,
      "name": "BALABANCI KÖYÜ",
      "area": "MERKEZKÖYLER",
      "postal_code": "64602"
    },
    {
      "id": 69206,
      "district_id": 928,
      "name": "BAYERLER MAH (ARMUTLU KÖYÜ)",
      "area": "MERKEZKÖYLER",
      "postal_code": "64602"
    },
    {
      "id": 69207,
      "district_id": 928,
      "name": "BEKİR DAMLARI MAH (GÜNYAKA KÖYÜ)",
      "area": "MERKEZKÖYLER",
      "postal_code": "64602"
    },
    {
      "id": 69208,
      "district_id": 928,
      "name": "BEKİŞLİ KÖYÜ",
      "area": "MERKEZKÖYLER",
      "postal_code": "64602"
    },
    {
      "id": 69209,
      "district_id": 928,
      "name": "BETERLER MAH (AĞABEY KÖYÜ)",
      "area": "MERKEZKÖYLER",
      "postal_code": "64602"
    },
    {
      "id": 69210,
      "district_id": 928,
      "name": "BOZLAR KÖYÜ",
      "area": "MERKEZKÖYLER",
      "postal_code": "64602"
    },
    {
      "id": 69211,
      "district_id": 928,
      "name": "BOZLAR MERKEZ MAH (BOZLAR KÖYÜ)",
      "area": "MERKEZKÖYLER",
      "postal_code": "64602"
    },
    {
      "id": 69212,
      "district_id": 928,
      "name": "ÇABAR DAMI MAH (TAKMAK KÖYÜ)",
      "area": "MERKEZKÖYLER",
      "postal_code": "64602"
    },
    {
      "id": 69213,
      "district_id": 928,
      "name": "CABERLER KÖYÜ",
      "area": "MERKEZKÖYLER",
      "postal_code": "64602"
    },
    {
      "id": 69214,
      "district_id": 928,
      "name": "ÇAKIRLAR MAH (EŞMELİ KÖYÜ)",
      "area": "MERKEZKÖYLER",
      "postal_code": "64602"
    },
    {
      "id": 69215,
      "district_id": 928,
      "name": "CAMİLİ KÖYÜ",
      "area": "MERKEZKÖYLER",
      "postal_code": "64602"
    },
    {
      "id": 69216,
      "district_id": 928,
      "name": "ÇATAL MAH (HAMAMDERE KÖYÜ)",
      "area": "MERKEZKÖYLER",
      "postal_code": "64602"
    },
    {
      "id": 69217,
      "district_id": 928,
      "name": "ÇAVUŞLU MAH (ALAHABALI KÖYÜ)",
      "area": "MERKEZKÖYLER",
      "postal_code": "64602"
    },
    {
      "id": 69218,
      "district_id": 928,
      "name": "ÇAVUŞLU MAH (KÖSELER KÖYÜ)",
      "area": "MERKEZKÖYLER",
      "postal_code": "64602"
    },
    {
      "id": 69219,
      "district_id": 928,
      "name": "ÇAYKIŞLA KÖYÜ",
      "area": "MERKEZKÖYLER",
      "postal_code": "64602"
    },
    {
      "id": 69220,
      "district_id": 928,
      "name": "CEMAL MAH (CEMALÇAVUŞ KÖYÜ)",
      "area": "MERKEZKÖYLER",
      "postal_code": "64602"
    },
    {
      "id": 69221,
      "district_id": 928,
      "name": "CEMALÇAVUŞ KÖYÜ",
      "area": "MERKEZKÖYLER",
      "postal_code": "64602"
    },
    {
      "id": 69222,
      "district_id": 928,
      "name": "CEVİZLİ KÖYÜ",
      "area": "MERKEZKÖYLER",
      "postal_code": "64602"
    },
    {
      "id": 69223,
      "district_id": 928,
      "name": "ÇOBANLAR MAH (KOLANKAYA KÖYÜ)",
      "area": "MERKEZKÖYLER",
      "postal_code": "64602"
    },
    {
      "id": 69224,
      "district_id": 928,
      "name": "ÇOLAKLAR MAH (SARAYCIK KÖYÜ)",
      "area": "MERKEZKÖYLER",
      "postal_code": "64602"
    },
    {
      "id": 69225,
      "district_id": 928,
      "name": "ÇÖNELER MAH (PUSLU KÖYÜ)",
      "area": "MERKEZKÖYLER",
      "postal_code": "64602"
    },
    {
      "id": 69226,
      "district_id": 928,
      "name": "COŞLU MAH (KÖSELER KÖYÜ)",
      "area": "MERKEZKÖYLER",
      "postal_code": "64602"
    },
    {
      "id": 69227,
      "district_id": 928,
      "name": "CUMHURİYET MAH",
      "area": "EŞME",
      "postal_code": "64600"
    },
    {
      "id": 69228,
      "district_id": 928,
      "name": "ÇÜRÜKLER MAH (EŞMELİ KÖYÜ)",
      "area": "MERKEZKÖYLER",
      "postal_code": "64602"
    },
    {
      "id": 69229,
      "district_id": 928,
      "name": "DAĞDELEN MAH (TAKMAK KÖYÜ)",
      "area": "MERKEZKÖYLER",
      "postal_code": "64602"
    },
    {
      "id": 69230,
      "district_id": 928,
      "name": "DELİBAŞLI KÖYÜ",
      "area": "MERKEZKÖYLER",
      "postal_code": "64602"
    },
    {
      "id": 69231,
      "district_id": 928,
      "name": "DERE MAH (KOCABEY KÖYÜ)",
      "area": "MERKEZKÖYLER",
      "postal_code": "64602"
    },
    {
      "id": 69232,
      "district_id": 928,
      "name": "DERE MAH (MANAVLI KÖYÜ)",
      "area": "MERKEZKÖYLER",
      "postal_code": "64602"
    },
    {
      "id": 69233,
      "district_id": 928,
      "name": "DEREBEYLER MAH (AĞABEY KÖYÜ)",
      "area": "MERKEZKÖYLER",
      "postal_code": "64602"
    },
    {
      "id": 69234,
      "district_id": 928,
      "name": "DEREKÖY KÖYÜ",
      "area": "MERKEZKÖYLER",
      "postal_code": "64602"
    },
    {
      "id": 69235,
      "district_id": 928,
      "name": "DERELİ KÖYÜ",
      "area": "MERKEZKÖYLER",
      "postal_code": "64602"
    },
    {
      "id": 69236,
      "district_id": 928,
      "name": "DERVİŞLİ KÖYÜ",
      "area": "MERKEZKÖYLER",
      "postal_code": "64602"
    },
    {
      "id": 69237,
      "district_id": 928,
      "name": "DEVECİOĞLU MAH (EŞMELİ KÖYÜ)",
      "area": "MERKEZKÖYLER",
      "postal_code": "64602"
    },
    {
      "id": 69238,
      "district_id": 928,
      "name": "DIYILILAR MAH (DERVİŞLİ KÖYÜ)",
      "area": "MERKEZKÖYLER",
      "postal_code": "64602"
    },
    {
      "id": 69239,
      "district_id": 928,
      "name": "DOĞULAR MAH (BOZLAR KÖYÜ)",
      "area": "MERKEZKÖYLER",
      "postal_code": "64602"
    },
    {
      "id": 69240,
      "district_id": 928,
      "name": "DÜDÜKÇÜ MAH (KOCABEY KÖYÜ)",
      "area": "MERKEZKÖYLER",
      "postal_code": "64602"
    },
    {
      "id": 69241,
      "district_id": 928,
      "name": "DUMANLAR MAH (TAKMAK KÖYÜ)",
      "area": "MERKEZKÖYLER",
      "postal_code": "64602"
    },
    {
      "id": 69242,
      "district_id": 928,
      "name": "DÜZKÖY MAH (AYDINLI KÖYÜ)",
      "area": "MERKEZKÖYLER",
      "postal_code": "64602"
    },
    {
      "id": 69243,
      "district_id": 928,
      "name": "EFELER MAH (CEMALÇAVUŞ KÖYÜ)",
      "area": "MERKEZKÖYLER",
      "postal_code": "64602"
    },
    {
      "id": 69244,
      "district_id": 928,
      "name": "EKERLİ MAH (BOZLAR KÖYÜ)",
      "area": "MERKEZKÖYLER",
      "postal_code": "64602"
    },
    {
      "id": 69245,
      "district_id": 928,
      "name": "ELMA GEDİĞİ MAH (EŞMELİ KÖYÜ)",
      "area": "MERKEZKÖYLER",
      "postal_code": "64602"
    },
    {
      "id": 69246,
      "district_id": 928,
      "name": "ELVANLAR MAH",
      "area": "EŞME",
      "postal_code": "64600"
    },
    {
      "id": 69247,
      "district_id": 928,
      "name": "EMİRLİ KÖYÜ",
      "area": "MERKEZKÖYLER",
      "postal_code": "64602"
    },
    {
      "id": 69248,
      "district_id": 928,
      "name": "EŞELİ MAH (KÖSELER KÖYÜ)",
      "area": "MERKEZKÖYLER",
      "postal_code": "64602"
    },
    {
      "id": 69249,
      "district_id": 928,
      "name": "ESKİ KÖY MAH (ÇAYKIŞLA KÖYÜ)",
      "area": "MERKEZKÖYLER",
      "postal_code": "64602"
    },
    {
      "id": 69250,
      "district_id": 928,
      "name": "EŞMETAŞ KÖYÜ",
      "area": "MERKEZKÖYLER",
      "postal_code": "64602"
    },
    {
      "id": 69251,
      "district_id": 928,
      "name": "FARAŞATLAR MAH (DAVUTLAR KÖYÜ)",
      "area": "MERKEZKÖYLER",
      "postal_code": "64602"
    },
    {
      "id": 69252,
      "district_id": 928,
      "name": "FARSAKDERE MAH (DELİBAŞLI KÖYÜ)",
      "area": "MERKEZKÖYLER",
      "postal_code": "64602"
    },
    {
      "id": 69253,
      "district_id": 928,
      "name": "FIRTINALAR MAH (DELİBAŞLI KÖYÜ)",
      "area": "MERKEZKÖYLER",
      "postal_code": "64602"
    },
    {
      "id": 69254,
      "district_id": 928,
      "name": "GEDİK TAVUKÇULUK MAH (AYDINLI KÖYÜ)",
      "area": "MERKEZKÖYLER",
      "postal_code": "64602"
    },
    {
      "id": 69255,
      "district_id": 928,
      "name": "GEDİKLER MAH (OYMALI KÖYÜ)",
      "area": "MERKEZKÖYLER",
      "postal_code": "64602"
    },
    {
      "id": 69256,
      "district_id": 928,
      "name": "GENÇLER-1 MAH (NARINCALI KÖYÜ)",
      "area": "MERKEZKÖYLER",
      "postal_code": "64602"
    },
    {
      "id": 69257,
      "district_id": 928,
      "name": "GENÇLER-2 MAH (NARINCALI KÖYÜ)",
      "area": "MERKEZKÖYLER",
      "postal_code": "64602"
    },
    {
      "id": 69258,
      "district_id": 928,
      "name": "GERALİ MAH (DEREKÖY KÖYÜ)",
      "area": "MERKEZKÖYLER",
      "postal_code": "64602"
    },
    {
      "id": 69259,
      "district_id": 928,
      "name": "GÖKBEL MAH (HAMAMDERE KÖYÜ)",
      "area": "MERKEZKÖYLER",
      "postal_code": "64602"
    },
    {
      "id": 69260,
      "district_id": 928,
      "name": "GÖKÇUKUR KÖYÜ",
      "area": "MERKEZKÖYLER",
      "postal_code": "64602"
    },
    {
      "id": 69261,
      "district_id": 928,
      "name": "GÜLLÜBAĞ KÖYÜ",
      "area": "MERKEZKÖYLER",
      "postal_code": "64602"
    },
    {
      "id": 69262,
      "district_id": 928,
      "name": "GÜNEY KÖYÜ",
      "area": "MERKEZKÖYLER",
      "postal_code": "64602"
    },
    {
      "id": 69263,
      "district_id": 928,
      "name": "GÜZEL AHMETLER MAH (EŞMELİ KÖYÜ)",
      "area": "MERKEZKÖYLER",
      "postal_code": "64602"
    },
    {
      "id": 69264,
      "district_id": 928,
      "name": "GÜZEL KÖY MAH (KARACAÖMERLİ KÖYÜ)",
      "area": "MERKEZKÖYLER",
      "postal_code": "64602"
    },
    {
      "id": 69265,
      "district_id": 928,
      "name": "HACI HÜSEYİNLİ MAH (DERVİŞLİ KÖYÜ)",
      "area": "MERKEZKÖYLER",
      "postal_code": "64602"
    },
    {
      "id": 69266,
      "district_id": 928,
      "name": "HACI İSMAİLLER MAH (DAVUTLAR KÖYÜ)",
      "area": "MERKEZKÖYLER",
      "postal_code": "64602"
    },
    {
      "id": 69267,
      "district_id": 928,
      "name": "HACI KIRLAR MAH (AĞABEY KÖYÜ)",
      "area": "MERKEZKÖYLER",
      "postal_code": "64602"
    },
    {
      "id": 69268,
      "district_id": 928,
      "name": "HACI YEŞİLLER MAH (DAVUTLAR KÖYÜ)",
      "area": "MERKEZKÖYLER",
      "postal_code": "64602"
    },
    {
      "id": 69269,
      "district_id": 928,
      "name": "HACI YEŞİLLER MAH (NARINCALI KÖYÜ)",
      "area": "MERKEZKÖYLER",
      "postal_code": "64602"
    },
    {
      "id": 69270,
      "district_id": 928,
      "name": "HACIBEKİRLİ MAH (AĞABEY KÖYÜ)",
      "area": "MERKEZKÖYLER",
      "postal_code": "64602"
    },
    {
      "id": 69271,
      "district_id": 928,
      "name": "HACIBEKİRLİ MAH (SARAYCIK KÖYÜ)",
      "area": "MERKEZKÖYLER",
      "postal_code": "64602"
    },
    {
      "id": 69272,
      "district_id": 928,
      "name": "HACIBİLLER MAH (OYMALI KÖYÜ)",
      "area": "MERKEZKÖYLER",
      "postal_code": "64602"
    },
    {
      "id": 69273,
      "district_id": 928,
      "name": "HACIKADİRLİ MAH (KOLANKAYA KÖYÜ)",
      "area": "MERKEZKÖYLER",
      "postal_code": "64602"
    },
    {
      "id": 69274,
      "district_id": 928,
      "name": "HACILAR MAH (BOZLAR KÖYÜ)",
      "area": "MERKEZKÖYLER",
      "postal_code": "64602"
    },
    {
      "id": 69275,
      "district_id": 928,
      "name": "HACIMAHMUTLU MAH (BOZLAR KÖYÜ)",
      "area": "MERKEZKÖYLER",
      "postal_code": "64602"
    },
    {
      "id": 69276,
      "district_id": 928,
      "name": "HACIŞERİFLİ MAH (BOZLAR KÖYÜ)",
      "area": "MERKEZKÖYLER",
      "postal_code": "64602"
    },
    {
      "id": 69277,
      "district_id": 928,
      "name": "HAKKI HOCALAR MAH (DAVUTLAR KÖYÜ)",
      "area": "MERKEZKÖYLER",
      "postal_code": "64602"
    },
    {
      "id": 69278,
      "district_id": 928,
      "name": "HALİLLİKLER MAH (ARMUTLU KÖYÜ)",
      "area": "MERKEZKÖYLER",
      "postal_code": "64602"
    },
    {
      "id": 69279,
      "district_id": 928,
      "name": "HAMAMDERE KÖYÜ",
      "area": "MERKEZKÖYLER",
      "postal_code": "64602"
    },
    {
      "id": 69280,
      "district_id": 928,
      "name": "HAMELİ MAH (KOCABEY KÖYÜ)",
      "area": "MERKEZKÖYLER",
      "postal_code": "64602"
    },
    {
      "id": 69281,
      "district_id": 928,
      "name": "HARDALLI KÖYÜ",
      "area": "MERKEZKÖYLER",
      "postal_code": "64602"
    },
    {
      "id": 69282,
      "district_id": 928,
      "name": "HARMANDALI MAH (ÇAYKIŞLA KÖYÜ)",
      "area": "MERKEZKÖYLER",
      "postal_code": "64602"
    },
    {
      "id": 69283,
      "district_id": 928,
      "name": "HAZIRLAR MAH (AĞABEY KÖYÜ)",
      "area": "MERKEZKÖYLER",
      "postal_code": "64602"
    },
    {
      "id": 69284,
      "district_id": 928,
      "name": "HELİMLİ MAH (DERVİŞLİ KÖYÜ)",
      "area": "MERKEZKÖYLER",
      "postal_code": "64602"
    },
    {
      "id": 69285,
      "district_id": 928,
      "name": "HEMİTLİ MAH (GÜNYAKA KÖYÜ)",
      "area": "MERKEZKÖYLER",
      "postal_code": "64602"
    },
    {
      "id": 69286,
      "district_id": 928,
      "name": "HIDIRLAR MAH (EŞMELİ KÖYÜ)",
      "area": "MERKEZKÖYLER",
      "postal_code": "64602"
    },
    {
      "id": 69287,
      "district_id": 928,
      "name": "HOCALAR MAH (KARABACAKLI KÖYÜ)",
      "area": "MERKEZKÖYLER",
      "postal_code": "64602"
    },
    {
      "id": 69288,
      "district_id": 928,
      "name": "HÜRRİYET MAH (YELEĞEN BELDESİ)",
      "area": "YELEĞEN",
      "postal_code": "64610"
    },
    {
      "id": 69289,
      "district_id": 928,
      "name": "İBRAHİM MAH (GÜNYAKA KÖYÜ)",
      "area": "MERKEZKÖYLER",
      "postal_code": "64602"
    },
    {
      "id": 69290,
      "district_id": 928,
      "name": "İLİKLİ MAH (GÜNYAKA KÖYÜ)",
      "area": "MERKEZKÖYLER",
      "postal_code": "64602"
    },
    {
      "id": 69291,
      "district_id": 928,
      "name": "İSAHOCALAR MAH (KÖYLÜOĞLU KÖYÜ)",
      "area": "MERKEZKÖYLER",
      "postal_code": "64602"
    },
    {
      "id": 69292,
      "district_id": 928,
      "name": "İSALAR KÖYÜ",
      "area": "MERKEZKÖYLER",
      "postal_code": "64602"
    },
    {
      "id": 69293,
      "district_id": 928,
      "name": "İSTASYON MAH",
      "area": "EŞME",
      "postal_code": "64600"
    },
    {
      "id": 69294,
      "district_id": 928,
      "name": "İSTASYON MAH (AHMETLER KÖYÜ)",
      "area": "MERKEZKÖYLER",
      "postal_code": "64602"
    },
    {
      "id": 69295,
      "district_id": 928,
      "name": "İSTASYON MAH (GÜNEY KÖYÜ)",
      "area": "MERKEZKÖYLER",
      "postal_code": "64602"
    },
    {
      "id": 69296,
      "district_id": 928,
      "name": "İSTİKLAL MAH (YELEĞEN BELDESİ)",
      "area": "YELEĞEN",
      "postal_code": "64610"
    },
    {
      "id": 69297,
      "district_id": 928,
      "name": "KADILAR MAH (SARAYCIK KÖYÜ)",
      "area": "MERKEZKÖYLER",
      "postal_code": "64602"
    },
    {
      "id": 69298,
      "district_id": 928,
      "name": "KANDEMİRLER KÖYÜ",
      "area": "MERKEZKÖYLER",
      "postal_code": "64602"
    },
    {
      "id": 69299,
      "district_id": 928,
      "name": "KARA İMAMLAR MAH (EŞMELİ KÖYÜ)",
      "area": "MERKEZKÖYLER",
      "postal_code": "64602"
    },
    {
      "id": 69300,
      "district_id": 928,
      "name": "KARA MUSALAR MAH (AĞABEY KÖYÜ)",
      "area": "MERKEZKÖYLER",
      "postal_code": "64602"
    },
    {
      "id": 69301,
      "district_id": 928,
      "name": "KARAAHMETLİ KÖYÜ",
      "area": "MERKEZKÖYLER",
      "postal_code": "64602"
    },
    {
      "id": 69302,
      "district_id": 928,
      "name": "KARACAÖMERLİ KÖYÜ",
      "area": "MERKEZKÖYLER",
      "postal_code": "64602"
    },
    {
      "id": 69303,
      "district_id": 928,
      "name": "KARAKUYU MAH (GÜLLÜ KÖYÜ)",
      "area": "MERKEZKÖYLER",
      "postal_code": "64602"
    },
    {
      "id": 69304,
      "district_id": 928,
      "name": "KARAMAHMUTLU MAH (ÇAYKIŞLA KÖYÜ)",
      "area": "MERKEZKÖYLER",
      "postal_code": "64602"
    },
    {
      "id": 69305,
      "district_id": 928,
      "name": "KARAPINAR MAH (KATRANCILAR KÖYÜ)",
      "area": "MERKEZKÖYLER",
      "postal_code": "64602"
    },
    {
      "id": 69306,
      "district_id": 928,
      "name": "KATRANCILAR KÖYÜ",
      "area": "MERKEZKÖYLER",
      "postal_code": "64602"
    },
    {
      "id": 69307,
      "district_id": 928,
      "name": "KAYADAMLARI MAH (CEMALÇAVUŞ KÖYÜ)",
      "area": "MERKEZKÖYLER",
      "postal_code": "64602"
    },
    {
      "id": 69308,
      "district_id": 928,
      "name": "KAYALI KÖYÜ",
      "area": "MERKEZKÖYLER",
      "postal_code": "64602"
    },
    {
      "id": 69309,
      "district_id": 928,
      "name": "KAYAPINAR KÖYÜ",
      "area": "MERKEZKÖYLER",
      "postal_code": "64602"
    },
    {
      "id": 69310,
      "district_id": 928,
      "name": "KAZAKLAR KÖYÜ",
      "area": "MERKEZKÖYLER",
      "postal_code": "64602"
    },
    {
      "id": 69311,
      "district_id": 928,
      "name": "KEKLİKLİ KÖYÜ",
      "area": "MERKEZKÖYLER",
      "postal_code": "64602"
    },
    {
      "id": 69312,
      "district_id": 928,
      "name": "KELEŞ ALİ MAH (NARINCALI KÖYÜ)",
      "area": "MERKEZKÖYLER",
      "postal_code": "64602"
    },
    {
      "id": 69313,
      "district_id": 928,
      "name": "KEMER MAH",
      "area": "EŞME",
      "postal_code": "64600"
    },
    {
      "id": 69314,
      "district_id": 928,
      "name": "KESTELLİ MAH (ÇAYKIŞLA KÖYÜ)",
      "area": "MERKEZKÖYLER",
      "postal_code": "64602"
    },
    {
      "id": 69315,
      "district_id": 928,
      "name": "KILIÇLI MAH (SARAYCIK KÖYÜ)",
      "area": "MERKEZKÖYLER",
      "postal_code": "64602"
    },
    {
      "id": 69316,
      "district_id": 928,
      "name": "KIRANKÖY KÖYÜ",
      "area": "MERKEZKÖYLER",
      "postal_code": "64602"
    },
    {
      "id": 69317,
      "district_id": 928,
      "name": "KIRLAR MAH (NARINCALI KÖYÜ)",
      "area": "MERKEZKÖYLER",
      "postal_code": "64602"
    },
    {
      "id": 69318,
      "district_id": 928,
      "name": "KIYALAR MAH (ÇAYKIŞLA KÖYÜ)",
      "area": "MERKEZKÖYLER",
      "postal_code": "64602"
    },
    {
      "id": 69319,
      "district_id": 928,
      "name": "KOCA AHMETLER MAH (DEREKÖY KÖYÜ)",
      "area": "MERKEZKÖYLER",
      "postal_code": "64602"
    },
    {
      "id": 69320,
      "district_id": 928,
      "name": "KOCAHÜSEYİNLER MAH (ALAHABALI KÖYÜ)",
      "area": "MERKEZKÖYLER",
      "postal_code": "64602"
    },
    {
      "id": 69321,
      "district_id": 928,
      "name": "KOLANKAYA KÖYÜ",
      "area": "MERKEZKÖYLER",
      "postal_code": "64602"
    },
    {
      "id": 69322,
      "district_id": 928,
      "name": "KONAK KÖYÜ",
      "area": "MERKEZKÖYLER",
      "postal_code": "64602"
    },
    {
      "id": 69323,
      "district_id": 928,
      "name": "KÖPRÜ MAH (NARINCALI KÖYÜ)",
      "area": "MERKEZKÖYLER",
      "postal_code": "64602"
    },
    {
      "id": 69324,
      "district_id": 928,
      "name": "KÖSELER KÖYÜ",
      "area": "MERKEZKÖYLER",
      "postal_code": "64602"
    },
    {
      "id": 69325,
      "district_id": 928,
      "name": "KÖYLÜOĞLU KÖYÜ",
      "area": "MERKEZKÖYLER",
      "postal_code": "64602"
    },
    {
      "id": 69326,
      "district_id": 928,
      "name": "KOZAKLAR MAH (EŞMELİ KÖYÜ)",
      "area": "MERKEZKÖYLER",
      "postal_code": "64602"
    },
    {
      "id": 69327,
      "district_id": 928,
      "name": "KUŞLULAR MAH (ÇAYKIŞLA KÖYÜ)",
      "area": "MERKEZKÖYLER",
      "postal_code": "64602"
    },
    {
      "id": 69328,
      "district_id": 928,
      "name": "KUZYAKA MAH (KARAAHMETLİ KÖYÜ)",
      "area": "MERKEZKÖYLER",
      "postal_code": "64602"
    },
    {
      "id": 69329,
      "district_id": 928,
      "name": "MANAVLI KÖYÜ",
      "area": "MERKEZKÖYLER",
      "postal_code": "64602"
    },
    {
      "id": 69330,
      "district_id": 928,
      "name": "MEMİLİ MAH (EŞMELİ KÖYÜ)",
      "area": "MERKEZKÖYLER",
      "postal_code": "64602"
    },
    {
      "id": 69331,
      "district_id": 928,
      "name": "MERKEZ MAH (AHMETLER KÖYÜ)",
      "area": "MERKEZKÖYLER",
      "postal_code": "64602"
    },
    {
      "id": 69332,
      "district_id": 928,
      "name": "MERKEZ MAH (DAVUTLAR KÖYÜ)",
      "area": "MERKEZKÖYLER",
      "postal_code": "64602"
    },
    {
      "id": 69333,
      "district_id": 928,
      "name": "MERKEZ MAH (KARABACAKLI KÖYÜ)",
      "area": "MERKEZKÖYLER",
      "postal_code": "64602"
    },
    {
      "id": 69334,
      "district_id": 928,
      "name": "MERYEM OĞLU MAH (EŞMELİ KÖYÜ)",
      "area": "MERKEZKÖYLER",
      "postal_code": "64602"
    },
    {
      "id": 69335,
      "district_id": 928,
      "name": "MESTANLAR MAH (AĞABEY KÖYÜ)",
      "area": "MERKEZKÖYLER",
      "postal_code": "64602"
    },
    {
      "id": 69336,
      "district_id": 928,
      "name": "MESTANLAR MAH (KEKLİKLİ KÖYÜ)",
      "area": "MERKEZKÖYLER",
      "postal_code": "64602"
    },
    {
      "id": 69337,
      "district_id": 928,
      "name": "MESTANLI MAH (DELİBAŞLI KÖYÜ)",
      "area": "MERKEZKÖYLER",
      "postal_code": "64602"
    },
    {
      "id": 69338,
      "district_id": 928,
      "name": "MIÇIKLI MAH (ÇAYKIŞLA KÖYÜ)",
      "area": "MERKEZKÖYLER",
      "postal_code": "64602"
    },
    {
      "id": 69339,
      "district_id": 928,
      "name": "MOLLA OSMANLI MAH (DEREKÖY KÖYÜ)",
      "area": "MERKEZKÖYLER",
      "postal_code": "64602"
    },
    {
      "id": 69340,
      "district_id": 928,
      "name": "MOLLA SÜLEYMANLI MAH (DERVİŞLİ KÖYÜ)",
      "area": "MERKEZKÖYLER",
      "postal_code": "64602"
    },
    {
      "id": 69341,
      "district_id": 928,
      "name": "MOLLAHALİL MAH (OYMALI KÖYÜ)",
      "area": "MERKEZKÖYLER",
      "postal_code": "64602"
    },
    {
      "id": 69342,
      "district_id": 928,
      "name": "MÜDÜRLÜ MAH (OYMALI KÖYÜ)",
      "area": "MERKEZKÖYLER",
      "postal_code": "64602"
    },
    {
      "id": 69343,
      "district_id": 928,
      "name": "MUSALAR MAH (EŞMELİ KÖYÜ)",
      "area": "MERKEZKÖYLER",
      "postal_code": "64602"
    },
    {
      "id": 69344,
      "district_id": 928,
      "name": "MUSALAR MAH (GÜNYAKA KÖYÜ)",
      "area": "MERKEZKÖYLER",
      "postal_code": "64602"
    },
    {
      "id": 69345,
      "district_id": 928,
      "name": "NARLI KÖYÜ",
      "area": "MERKEZKÖYLER",
      "postal_code": "64602"
    },
    {
      "id": 69346,
      "district_id": 928,
      "name": "NAZLI MAH (GÜNYAKA KÖYÜ)",
      "area": "MERKEZKÖYLER",
      "postal_code": "64602"
    },
    {
      "id": 69347,
      "district_id": 928,
      "name": "NESLİHANLAR MAH (ARMUTLU KÖYÜ)",
      "area": "MERKEZKÖYLER",
      "postal_code": "64602"
    },
    {
      "id": 69348,
      "district_id": 928,
      "name": "NOTULAR MAH (BOZLAR KÖYÜ)",
      "area": "MERKEZKÖYLER",
      "postal_code": "64602"
    },
    {
      "id": 69349,
      "district_id": 928,
      "name": "ÖMER AĞALAR MAH (GÜNYAKA KÖYÜ)",
      "area": "MERKEZKÖYLER",
      "postal_code": "64602"
    },
    {
      "id": 69350,
      "district_id": 928,
      "name": "ÖMERLER MAH (ARMUTLU KÖYÜ)",
      "area": "MERKEZKÖYLER",
      "postal_code": "64602"
    },
    {
      "id": 69351,
      "district_id": 928,
      "name": "ORTA MAH (GÜNYAKA KÖYÜ)",
      "area": "MERKEZKÖYLER",
      "postal_code": "64602"
    },
    {
      "id": 69352,
      "district_id": 928,
      "name": "ORTA MAHALLE (AĞABEY KÖYÜ)",
      "area": "MERKEZKÖYLER",
      "postal_code": "64602"
    },
    {
      "id": 69353,
      "district_id": 928,
      "name": "OSMANOĞLU MAH (DAVUTLAR KÖYÜ)",
      "area": "MERKEZKÖYLER",
      "postal_code": "64602"
    },
    {
      "id": 69354,
      "district_id": 928,
      "name": "OYMALI KÖYÜ",
      "area": "MERKEZKÖYLER",
      "postal_code": "64602"
    },
    {
      "id": 69355,
      "district_id": 928,
      "name": "PALALI MAH (ALAHABALI KÖYÜ)",
      "area": "MERKEZKÖYLER",
      "postal_code": "64602"
    },
    {
      "id": 69356,
      "district_id": 928,
      "name": "PİŞTAVLI MAH (OYMALI KÖYÜ)",
      "area": "MERKEZKÖYLER",
      "postal_code": "64602"
    },
    {
      "id": 69357,
      "district_id": 928,
      "name": "PUSLU KÖYÜ",
      "area": "MERKEZKÖYLER",
      "postal_code": "64602"
    },
    {
      "id": 69358,
      "district_id": 928,
      "name": "RECEPLER MAH (EŞMELİ KÖYÜ)",
      "area": "MERKEZKÖYLER",
      "postal_code": "64602"
    },
    {
      "id": 69359,
      "district_id": 928,
      "name": "ŞALVARLI MAH (OYMALI KÖYÜ)",
      "area": "MERKEZKÖYLER",
      "postal_code": "64602"
    },
    {
      "id": 69360,
      "district_id": 928,
      "name": "SANDAL MAH (AĞABEY KÖYÜ)",
      "area": "MERKEZKÖYLER",
      "postal_code": "64602"
    },
    {
      "id": 69361,
      "district_id": 928,
      "name": "SARAÇLAR MAH (DAVUTLAR KÖYÜ)",
      "area": "MERKEZKÖYLER",
      "postal_code": "64602"
    },
    {
      "id": 69362,
      "district_id": 928,
      "name": "SARAYCIK KÖYÜ",
      "area": "MERKEZKÖYLER",
      "postal_code": "64602"
    },
    {
      "id": 69363,
      "district_id": 928,
      "name": "SARIAHMETLİ MAH (KÖSELER KÖYÜ)",
      "area": "MERKEZKÖYLER",
      "postal_code": "64602"
    },
    {
      "id": 69364,
      "district_id": 928,
      "name": "SARIHASAN MAH (KÖYLÜOĞLU KÖYÜ)",
      "area": "MERKEZKÖYLER",
      "postal_code": "64602"
    },
    {
      "id": 69365,
      "district_id": 928,
      "name": "SARILAR MAH (ÇAYKIŞLA KÖYÜ)",
      "area": "MERKEZKÖYLER",
      "postal_code": "64602"
    },
    {
      "id": 69366,
      "district_id": 928,
      "name": "ŞEHİTALİBEY MAH",
      "area": "EŞME",
      "postal_code": "64600"
    },
    {
      "id": 69367,
      "district_id": 928,
      "name": "ŞEHİTLİ KÖYÜ",
      "area": "MERKEZKÖYLER",
      "postal_code": "64602"
    },
    {
      "id": 69368,
      "district_id": 928,
      "name": "SEPETLER MAH (EŞMELİ KÖYÜ)",
      "area": "MERKEZKÖYLER",
      "postal_code": "64602"
    },
    {
      "id": 69369,
      "district_id": 928,
      "name": "ŞERİF DAMLARI MAH (GÜNYAKA KÖYÜ)",
      "area": "MERKEZKÖYLER",
      "postal_code": "64602"
    },
    {
      "id": 69370,
      "district_id": 928,
      "name": "SİHİRBAZLI MAH (AYDINLI KÖYÜ)",
      "area": "MERKEZKÖYLER",
      "postal_code": "64602"
    },
    {
      "id": 69371,
      "district_id": 928,
      "name": "SÜLEYMAN HOCALAR MAH (DAVUTLAR KÖYÜ)",
      "area": "MERKEZKÖYLER",
      "postal_code": "64602"
    },
    {
      "id": 69372,
      "district_id": 928,
      "name": "TAKMAK KÖYÜ",
      "area": "MERKEZKÖYLER",
      "postal_code": "64602"
    },
    {
      "id": 69373,
      "district_id": 928,
      "name": "TAŞ MAH (GÜLLÜ KÖYÜ)",
      "area": "MERKEZKÖYLER",
      "postal_code": "64602"
    },
    {
      "id": 69374,
      "district_id": 928,
      "name": "TAŞÇILAR MAH (MANAVLI KÖYÜ)",
      "area": "MERKEZKÖYLER",
      "postal_code": "64602"
    },
    {
      "id": 69375,
      "district_id": 928,
      "name": "TAŞDİBİ MAH (ÇAYKIŞLA KÖYÜ)",
      "area": "MERKEZKÖYLER",
      "postal_code": "64602"
    },
    {
      "id": 69376,
      "district_id": 928,
      "name": "TAŞKÖY MAH (BOZLAR KÖYÜ)",
      "area": "MERKEZKÖYLER",
      "postal_code": "64602"
    },
    {
      "id": 69377,
      "district_id": 928,
      "name": "TATLAR MAH (EŞMELİ KÖYÜ)",
      "area": "MERKEZKÖYLER",
      "postal_code": "64602"
    },
    {
      "id": 69378,
      "district_id": 928,
      "name": "TEPE DAMLARI MAH (DAVUTLAR KÖYÜ)",
      "area": "MERKEZKÖYLER",
      "postal_code": "64602"
    },
    {
      "id": 69379,
      "district_id": 928,
      "name": "TEPE MAH (KOCABEY KÖYÜ)",
      "area": "MERKEZKÖYLER",
      "postal_code": "64602"
    },
    {
      "id": 69380,
      "district_id": 928,
      "name": "TEPELİ MAH (KÖSELER KÖYÜ)",
      "area": "MERKEZKÖYLER",
      "postal_code": "64602"
    },
    {
      "id": 69381,
      "district_id": 928,
      "name": "TOMLU MAH (OYMALI KÖYÜ)",
      "area": "MERKEZKÖYLER",
      "postal_code": "64602"
    },
    {
      "id": 69382,
      "district_id": 928,
      "name": "TOPALLAR",
      "area": "UZUN TARLA MAH (DAVUTLAR KÖYÜ)",
      "postal_code": "MERKEZKÖYLER"
    },
    {
      "id": 69383,
      "district_id": 928,
      "name": "TOPUZLU MAH (KÖYLÜOĞLU KÖYÜ)",
      "area": "MERKEZKÖYLER",
      "postal_code": "64602"
    },
    {
      "id": 69384,
      "district_id": 928,
      "name": "TOZLUTEPE MAH (OYMALI KÖYÜ)",
      "area": "MERKEZKÖYLER",
      "postal_code": "64602"
    },
    {
      "id": 69385,
      "district_id": 928,
      "name": "TÜLÜLER MAH (ARMUTLU KÖYÜ)",
      "area": "MERKEZKÖYLER",
      "postal_code": "64602"
    },
    {
      "id": 69386,
      "district_id": 928,
      "name": "ÜÇEYLÜL MAH",
      "area": "EŞME",
      "postal_code": "64600"
    },
    {
      "id": 69387,
      "district_id": 928,
      "name": "ULUYAYLA KÖYÜ",
      "area": "MERKEZKÖYLER",
      "postal_code": "64602"
    },
    {
      "id": 69388,
      "district_id": 928,
      "name": "ÜNALLI MAH (ÇAYKIŞLA KÖYÜ)",
      "area": "MERKEZKÖYLER",
      "postal_code": "64602"
    },
    {
      "id": 69389,
      "district_id": 928,
      "name": "UZUNLU MAH (BOZLAR KÖYÜ)",
      "area": "MERKEZKÖYLER",
      "postal_code": "64602"
    },
    {
      "id": 69390,
      "district_id": 928,
      "name": "VELİBEYLER MAH (DAVUTLAR KÖYÜ)",
      "area": "MERKEZKÖYLER",
      "postal_code": "64602"
    },
    {
      "id": 69391,
      "district_id": 928,
      "name": "YAĞCILAR MAH (KEKLİKLİ KÖYÜ)",
      "area": "MERKEZKÖYLER",
      "postal_code": "64602"
    },
    {
      "id": 69392,
      "district_id": 928,
      "name": "YAHYALAR MAH (DERVİŞLİ KÖYÜ)",
      "area": "MERKEZKÖYLER",
      "postal_code": "64602"
    },
    {
      "id": 69393,
      "district_id": 928,
      "name": "YAYLAKÖY KÖYÜ",
      "area": "MERKEZKÖYLER",
      "postal_code": "64602"
    },
    {
      "id": 69394,
      "district_id": 928,
      "name": "YENİ ŞEHİTLİ MAH (ŞEHİTLİ KÖYÜ)",
      "area": "MERKEZKÖYLER",
      "postal_code": "64602"
    },
    {
      "id": 69395,
      "district_id": 928,
      "name": "YENİKENT MAH",
      "area": "EŞME",
      "postal_code": "64600"
    },
    {
      "id": 69396,
      "district_id": 928,
      "name": "YENİKÖY KÖYÜ",
      "area": "MERKEZKÖYLER",
      "postal_code": "64602"
    },
    {
      "id": 69397,
      "district_id": 928,
      "name": "YENİKÖY MAH (BOZLAR KÖYÜ)",
      "area": "MERKEZKÖYLER",
      "postal_code": "64602"
    },
    {
      "id": 69398,
      "district_id": 928,
      "name": "YEŞİLKAVAK KÖYÜ",
      "area": "MERKEZKÖYLER",
      "postal_code": "64602"
    },
    {
      "id": 69399,
      "district_id": 928,
      "name": "YILDIRIMLAR MAH (YELEĞEN BELDESİ)",
      "area": "YELEĞEN",
      "postal_code": "64610"
    },
    {
      "id": 69400,
      "district_id": 928,
      "name": "YÖRÜK KOÇ MAH (KARABACAKLI KÖYÜ)",
      "area": "MERKEZKÖYLER",
      "postal_code": "64602"
    },
    {
      "id": 69401,
      "district_id": 928,
      "name": "ZABDİYELİ MAH (OYMALI KÖYÜ)",
      "area": "MERKEZKÖYLER",
      "postal_code": "64602"
    },
    {
      "id": 69402,
      "district_id": 929,
      "name": "ALFAKLAR KÖYÜ",
      "area": "MERKEZKÖYLER",
      "postal_code": "64702"
    },
    {
      "id": 69403,
      "district_id": 929,
      "name": "BEKİ KÖYÜ",
      "area": "MERKEZKÖYLER",
      "postal_code": "64702"
    },
    {
      "id": 69404,
      "district_id": 929,
      "name": "BOĞAZ MAH",
      "area": "KARAHALLI",
      "postal_code": "64700"
    },
    {
      "id": 69405,
      "district_id": 929,
      "name": "BUĞDAYLI MAH",
      "area": "KARAHALLI",
      "postal_code": "64700"
    },
    {
      "id": 69406,
      "district_id": 929,
      "name": "ÇOĞUPLU KÖYÜ",
      "area": "MERKEZKÖYLER",
      "postal_code": "64702"
    },
    {
      "id": 69407,
      "district_id": 929,
      "name": "ÇOKAKLI KÖYÜ",
      "area": "MERKEZKÖYLER",
      "postal_code": "64702"
    },
    {
      "id": 69408,
      "district_id": 929,
      "name": "DELİHIDIRLI KÖYÜ",
      "area": "MERKEZKÖYLER",
      "postal_code": "64702"
    },
    {
      "id": 69409,
      "district_id": 929,
      "name": "DERE MAH",
      "area": "KARAHALLI",
      "postal_code": "64700"
    },
    {
      "id": 69410,
      "district_id": 929,
      "name": "DERE MAH (PAŞALAR KÖYÜ)",
      "area": "MERKEZKÖYLER",
      "postal_code": "64702"
    },
    {
      "id": 69411,
      "district_id": 929,
      "name": "DERİNCİK MAH (ÇOĞUPLU KÖYÜ)",
      "area": "MERKEZKÖYLER",
      "postal_code": "64702"
    },
    {
      "id": 69412,
      "district_id": 929,
      "name": "DUMANLI KÖYÜ",
      "area": "MERKEZKÖYLER",
      "postal_code": "64702"
    },
    {
      "id": 69413,
      "district_id": 929,
      "name": "DURAKLI KÖYÜ",
      "area": "MERKEZKÖYLER",
      "postal_code": "64702"
    },
    {
      "id": 69414,
      "district_id": 929,
      "name": "KARAYAKUPLU KÖYÜ",
      "area": "MERKEZKÖYLER",
      "postal_code": "64702"
    },
    {
      "id": 69415,
      "district_id": 929,
      "name": "KARBASAN MAH",
      "area": "KARAHALLI",
      "postal_code": "64700"
    },
    {
      "id": 69416,
      "district_id": 929,
      "name": "KAVAKLI KÖYÜ",
      "area": "MERKEZKÖYLER",
      "postal_code": "64702"
    },
    {
      "id": 69417,
      "district_id": 929,
      "name": "KAYKILLI KÖYÜ",
      "area": "MERKEZKÖYLER",
      "postal_code": "64702"
    },
    {
      "id": 69418,
      "district_id": 929,
      "name": "KIRKYAREN KÖYÜ",
      "area": "MERKEZKÖYLER",
      "postal_code": "64702"
    },
    {
      "id": 69419,
      "district_id": 929,
      "name": "KONAK MAH",
      "area": "KARAHALLI",
      "postal_code": "64700"
    },
    {
      "id": 69420,
      "district_id": 929,
      "name": "KONAK OSB MAH",
      "area": "KARAHALLI",
      "postal_code": "64700"
    },
    {
      "id": 69421,
      "district_id": 929,
      "name": "KÜLKÖY KÖYÜ",
      "area": "MERKEZKÖYLER",
      "postal_code": "64702"
    },
    {
      "id": 69422,
      "district_id": 929,
      "name": "PAŞALAR KÖYÜ",
      "area": "MERKEZKÖYLER",
      "postal_code": "64702"
    },
    {
      "id": 69423,
      "district_id": 929,
      "name": "PINAR MAH (ALFAKLAR KÖYÜ)",
      "area": "MERKEZKÖYLER",
      "postal_code": "64702"
    },
    {
      "id": 69424,
      "district_id": 929,
      "name": "YEDİDEĞİRMEN MAH (DURAKLI KÖYÜ)",
      "area": "MERKEZKÖYLER",
      "postal_code": "64702"
    },
    {
      "id": 69425,
      "district_id": 929,
      "name": "YENİ MAH",
      "area": "KARAHALLI",
      "postal_code": "64700"
    },
    {
      "id": 69426,
      "district_id": 930,
      "name": "ABDALLAR MAH (SORKUN KÖYÜ)",
      "area": "MERKEZKÖYLER",
      "postal_code": "64050"
    },
    {
      "id": 69427,
      "district_id": 930,
      "name": "ABDİLER MAH (KARAKUYU KÖYÜ)",
      "area": "MERKEZKÖYLER",
      "postal_code": "64050"
    },
    {
      "id": 69428,
      "district_id": 930,
      "name": "ABDİLLER MAH (ZAHMAN KÖYÜ)",
      "area": "MERKEZKÖYLER",
      "postal_code": "64050"
    },
    {
      "id": 69429,
      "district_id": 930,
      "name": "ADA MAH (EYNEHAN KÖYÜ)",
      "area": "MERKEZKÖYLER",
      "postal_code": "64050"
    },
    {
      "id": 69430,
      "district_id": 930,
      "name": "ADIYALAR MAH (ÜÇKUYULAR KÖYÜ)",
      "area": "MERKEZKÖYLER",
      "postal_code": "64050"
    },
    {
      "id": 69431,
      "district_id": 930,
      "name": "AKBIYIKOĞLU MAH (ÇAMYAZI KÖYÜ)",
      "area": "MERKEZKÖYLER",
      "postal_code": "64050"
    },
    {
      "id": 69432,
      "district_id": 930,
      "name": "AKKAYA MAH (PAÇACILAR KÖYÜ)",
      "area": "MERKEZKÖYLER",
      "postal_code": "64050"
    },
    {
      "id": 69433,
      "district_id": 930,
      "name": "AKSE MAH",
      "area": "MERKEZKÖYLER",
      "postal_code": "64050"
    },
    {
      "id": 69434,
      "district_id": 930,
      "name": "AKTAŞ KÖYÜ",
      "area": "MERKEZKÖYLER",
      "postal_code": "64050"
    },
    {
      "id": 69435,
      "district_id": 930,
      "name": "AKTAŞ MAH (ÖRENCİK KÖYÜ)",
      "area": "MERKEZKÖYLER",
      "postal_code": "64050"
    },
    {
      "id": 69436,
      "district_id": 930,
      "name": "ALİBEY MAH (KOYUNBEYLİ KÖYÜ)",
      "area": "MERKEZKÖYLER",
      "postal_code": "64050"
    },
    {
      "id": 69437,
      "district_id": 930,
      "name": "ALİCİKLER MAH (DIŞKAYA KÖYÜ)",
      "area": "MERKEZKÖYLER",
      "postal_code": "64050"
    },
    {
      "id": 69438,
      "district_id": 930,
      "name": "ALİCİKLER MAH (MOLLAMUSA KÖYÜ)",
      "area": "MERKEZKÖYLER",
      "postal_code": "64050"
    },
    {
      "id": 69439,
      "district_id": 930,
      "name": "ALİŞANLAR MAH (PAÇACILAR KÖYÜ)",
      "area": "MERKEZKÖYLER",
      "postal_code": "64050"
    },
    {
      "id": 69440,
      "district_id": 930,
      "name": "ALİŞANLAR MAH (SORKUN KÖYÜ)",
      "area": "MERKEZKÖYLER",
      "postal_code": "64050"
    },
    {
      "id": 69441,
      "district_id": 930,
      "name": "ALİŞANLAR MAH (YENİKÖY KÖYÜ)",
      "area": "MERKEZKÖYLER",
      "postal_code": "64050"
    },
    {
      "id": 69442,
      "district_id": 930,
      "name": "ALTINBAŞAK MAH (KOYUNBEYLİ KÖYÜ)",
      "area": "MERKEZKÖYLER",
      "postal_code": "64050"
    },
    {
      "id": 69443,
      "district_id": 930,
      "name": "ALTINTAŞ KÖYÜ",
      "area": "MERKEZKÖYLER",
      "postal_code": "64050"
    },
    {
      "id": 69444,
      "district_id": 930,
      "name": "ARAFAT MAH (AKBULAK KÖYÜ)",
      "area": "MERKEZKÖYLER",
      "postal_code": "64050"
    },
    {
      "id": 69445,
      "district_id": 930,
      "name": "ARAPLAR MAH (CİĞERDEDE KÖYÜ)",
      "area": "MERKEZKÖYLER",
      "postal_code": "64050"
    },
    {
      "id": 69446,
      "district_id": 930,
      "name": "ARDIÇTEPE MAH (BUĞDAYLI KÖYÜ)",
      "area": "MERKEZKÖYLER",
      "postal_code": "64050"
    },
    {
      "id": 69447,
      "district_id": 930,
      "name": "AŞAĞI MAH (MENDE KÖYÜ)",
      "area": "MERKEZKÖYLER",
      "postal_code": "64050"
    },
    {
      "id": 69448,
      "district_id": 930,
      "name": "AŞAĞI MAH (MESUDİYE KÖYÜ)",
      "area": "MERKEZKÖYLER",
      "postal_code": "64050"
    },
    {
      "id": 69449,
      "district_id": 930,
      "name": "ATATÜRK MAH",
      "area": "CUMHURİYET",
      "postal_code": "64200"
    },
    {
      "id": 69450,
      "district_id": 930,
      "name": "AYBEY MAH",
      "area": "CUMHURİYET",
      "postal_code": "64200"
    },
    {
      "id": 69451,
      "district_id": 930,
      "name": "BABACANLAR MAH (PAÇACILAR KÖYÜ)",
      "area": "MERKEZKÖYLER",
      "postal_code": "64050"
    },
    {
      "id": 69452,
      "district_id": 930,
      "name": "BAĞBAŞI KÖYÜ",
      "area": "MERKEZKÖYLER",
      "postal_code": "64050"
    },
    {
      "id": 69453,
      "district_id": 930,
      "name": "BAĞRI AÇIKLAR MAH (AKBULAK KÖYÜ)",
      "area": "MERKEZKÖYLER",
      "postal_code": "64050"
    },
    {
      "id": 69454,
      "district_id": 930,
      "name": "BALDIRAN MAH (ÇATALBAYIR KÖYÜ)",
      "area": "MERKEZKÖYLER",
      "postal_code": "64050"
    },
    {
      "id": 69455,
      "district_id": 930,
      "name": "BAŞTARLA MAH (GÖKÇEDAL KÖYÜ)",
      "area": "MERKEZKÖYLER",
      "postal_code": "64050"
    },
    {
      "id": 69456,
      "district_id": 930,
      "name": "BAŞYİĞİTLER MAH (MENDE KÖYÜ)",
      "area": "MERKEZKÖYLER",
      "postal_code": "64050"
    },
    {
      "id": 69457,
      "district_id": 930,
      "name": "BELKAYA KÖYÜ",
      "area": "MERKEZKÖYLER",
      "postal_code": "64050"
    },
    {
      "id": 69458,
      "district_id": 930,
      "name": "BEYLERHAN MAH (BEYLERHANI KÖYÜ)",
      "area": "MERKEZKÖYLER",
      "postal_code": "64050"
    },
    {
      "id": 69459,
      "district_id": 930,
      "name": "BEYLERHANI KÖYÜ",
      "area": "MERKEZKÖYLER",
      "postal_code": "64050"
    },
    {
      "id": 69460,
      "district_id": 930,
      "name": "BÖLME MAH",
      "area": "MERKEZKÖYLER",
      "postal_code": "64050"
    },
    {
      "id": 69461,
      "district_id": 930,
      "name": "BOYALI KÖYÜ",
      "area": "MERKEZKÖYLER",
      "postal_code": "64050"
    },
    {
      "id": 69462,
      "district_id": 930,
      "name": "BOZKÖY KÖYÜ",
      "area": "MERKEZKÖYLER",
      "postal_code": "64050"
    },
    {
      "id": 69463,
      "district_id": 930,
      "name": "BOZKURT MAH",
      "area": "CUMHURİYET",
      "postal_code": "64200"
    },
    {
      "id": 69464,
      "district_id": 930,
      "name": "BOZKUŞ KÖYÜ",
      "area": "MERKEZKÖYLER",
      "postal_code": "64050"
    },
    {
      "id": 69465,
      "district_id": 930,
      "name": "BOZKUŞ MAH (BOZKUŞ KÖYÜ)",
      "area": "MERKEZKÖYLER",
      "postal_code": "64050"
    },
    {
      "id": 69466,
      "district_id": 930,
      "name": "BOZLAR MAH (KARAKUYU KÖYÜ)",
      "area": "MERKEZKÖYLER",
      "postal_code": "64050"
    },
    {
      "id": 69467,
      "district_id": 930,
      "name": "ÇAKIRLAR KÖY MERKEZİ MAH (CİĞERDEDE KÖYÜ)",
      "area": "MERKEZKÖYLER",
      "postal_code": "64050"
    },
    {
      "id": 69468,
      "district_id": 930,
      "name": "ÇALIKHASAN KÖYÜ",
      "area": "MERKEZKÖYLER",
      "postal_code": "64050"
    },
    {
      "id": 69469,
      "district_id": 930,
      "name": "ÇALLILAR MAH (CİĞERDEDE KÖYÜ)",
      "area": "MERKEZKÖYLER",
      "postal_code": "64050"
    },
    {
      "id": 69470,
      "district_id": 930,
      "name": "ÇAM MAH (DERBENT KÖYÜ)",
      "area": "MERKEZKÖYLER",
      "postal_code": "64050"
    },
    {
      "id": 69471,
      "district_id": 930,
      "name": "ÇAM MAH (EYNEHAN KÖYÜ)",
      "area": "MERKEZKÖYLER",
      "postal_code": "64050"
    },
    {
      "id": 69472,
      "district_id": 930,
      "name": "ÇAMBIRAK MAH (KARAKÖSE KÖYÜ)",
      "area": "MERKEZKÖYLER",
      "postal_code": "64050"
    },
    {
      "id": 69473,
      "district_id": 930,
      "name": "ÇAMDİBİ MAH (ÇAMYAZI KÖYÜ)",
      "area": "MERKEZKÖYLER",
      "postal_code": "64050"
    },
    {
      "id": 69474,
      "district_id": 930,
      "name": "ÇAMYUVA KÖYÜ",
      "area": "MERKEZKÖYLER",
      "postal_code": "64050"
    },
    {
      "id": 69475,
      "district_id": 930,
      "name": "ÇANGALOĞLU MAH (CİĞERDEDE KÖYÜ)",
      "area": "MERKEZKÖYLER",
      "postal_code": "64050"
    },
    {
      "id": 69476,
      "district_id": 930,
      "name": "ÇARIK KÖYÜ",
      "area": "MERKEZKÖYLER",
      "postal_code": "64050"
    },
    {
      "id": 69477,
      "district_id": 930,
      "name": "ÇARIK MAH (ÇARIK KÖYÜ)",
      "area": "MERKEZKÖYLER",
      "postal_code": "64050"
    },
    {
      "id": 69478,
      "district_id": 930,
      "name": "ÇAY KENARI MAH (ULUCAK KÖYÜ)",
      "area": "MERKEZKÖYLER",
      "postal_code": "64050"
    },
    {
      "id": 69479,
      "district_id": 930,
      "name": "CELANGÖZ MAH (BOZKUŞ KÖYÜ)",
      "area": "MERKEZKÖYLER",
      "postal_code": "64050"
    },
    {
      "id": 69480,
      "district_id": 930,
      "name": "ÇERÇİDAMLARI MAH (MOLLAMUSA KÖYÜ)",
      "area": "MERKEZKÖYLER",
      "postal_code": "64050"
    },
    {
      "id": 69481,
      "district_id": 930,
      "name": "CİĞERDEDE MAH (CİĞERDEDE KÖYÜ)",
      "area": "MERKEZKÖYLER",
      "postal_code": "64050"
    },
    {
      "id": 69482,
      "district_id": 930,
      "name": "ÇINARCIK KÖYÜ",
      "area": "MERKEZKÖYLER",
      "postal_code": "64050"
    },
    {
      "id": 69483,
      "district_id": 930,
      "name": "ÇINARCIK MAH (ÇINARCIK KÖYÜ)",
      "area": "MERKEZKÖYLER",
      "postal_code": "64050"
    },
    {
      "id": 69484,
      "district_id": 930,
      "name": "ÇIRGANLAR BAĞ EVİ MAH (DAĞDEMİRLER KÖYÜ)",
      "area": "MERKEZKÖYLER",
      "postal_code": "64050"
    },
    {
      "id": 69485,
      "district_id": 930,
      "name": "ÇUHADARLAR MAH (SELVİOĞLU KÖYÜ)",
      "area": "MERKEZKÖYLER",
      "postal_code": "64050"
    },
    {
      "id": 69486,
      "district_id": 930,
      "name": "ÇUKURAĞIL KÖYÜ",
      "area": "MERKEZKÖYLER",
      "postal_code": "64050"
    },
    {
      "id": 69487,
      "district_id": 930,
      "name": "CUMHURİYET MAH",
      "area": "CUMHURİYET",
      "postal_code": "64200"
    },
    {
      "id": 69488,
      "district_id": 930,
      "name": "DAĞYENİCE KÖYÜ",
      "area": "MERKEZKÖYLER",
      "postal_code": "64050"
    },
    {
      "id": 69489,
      "district_id": 930,
      "name": "DEDELER MAH (PAÇACILAR KÖYÜ)",
      "area": "MERKEZKÖYLER",
      "postal_code": "64050"
    },
    {
      "id": 69490,
      "district_id": 930,
      "name": "DELİHACILAR MAH (ORTABAĞ KÖYÜ)",
      "area": "MERKEZKÖYLER",
      "postal_code": "64050"
    },
    {
      "id": 69491,
      "district_id": 930,
      "name": "DEMİRÖREN KÖYÜ",
      "area": "MERKEZKÖYLER",
      "postal_code": "64050"
    },
    {
      "id": 69492,
      "district_id": 930,
      "name": "DERE MAH (KAYAAĞIL KÖYÜ)",
      "area": "MERKEZKÖYLER",
      "postal_code": "64050"
    },
    {
      "id": 69493,
      "district_id": 930,
      "name": "DERE MAH (ÜÇKUYULAR KÖYÜ)",
      "area": "MERKEZKÖYLER",
      "postal_code": "64050"
    },
    {
      "id": 69494,
      "district_id": 930,
      "name": "DERE MAH (YAVİ KÖYÜ)",
      "area": "MERKEZKÖYLER",
      "postal_code": "64050"
    },
    {
      "id": 69495,
      "district_id": 930,
      "name": "DİKİLİTAŞ MAH",
      "area": "CUMHURİYET",
      "postal_code": "64200"
    },
    {
      "id": 69496,
      "district_id": 930,
      "name": "DİKMENLER MAH (ÜÇKUYULAR KÖYÜ)",
      "area": "MERKEZKÖYLER",
      "postal_code": "64050"
    },
    {
      "id": 69497,
      "district_id": 930,
      "name": "DOLAYKÖY MAH (SELVİOĞLU KÖYÜ)",
      "area": "MERKEZKÖYLER",
      "postal_code": "64050"
    },
    {
      "id": 69498,
      "district_id": 930,
      "name": "DUMANLAR MAH (YENİKÖY KÖYÜ)",
      "area": "MERKEZKÖYLER",
      "postal_code": "64050"
    },
    {
      "id": 69499,
      "district_id": 930,
      "name": "DÜNEK MAH (SELVİOĞLU KÖYÜ)",
      "area": "MERKEZKÖYLER",
      "postal_code": "64050"
    },
    {
      "id": 69500,
      "district_id": 930,
      "name": "DURAK MAH",
      "area": "CUMHURİYET",
      "postal_code": "64200"
    },
    {
      "id": 69501,
      "district_id": 930,
      "name": "DURAKLAR MAH (PAÇACILAR KÖYÜ)",
      "area": "MERKEZKÖYLER",
      "postal_code": "64050"
    },
    {
      "id": 69502,
      "district_id": 930,
      "name": "DURHOCA MAH (TAŞKONAK KÖYÜ)",
      "area": "MERKEZKÖYLER",
      "postal_code": "64050"
    },
    {
      "id": 69503,
      "district_id": 930,
      "name": "EFELER MAH (MOLLAMUSA KÖYÜ)",
      "area": "MERKEZKÖYLER",
      "postal_code": "64050"
    },
    {
      "id": 69504,
      "district_id": 930,
      "name": "EĞRİDERE MAH (ESKİSARAY KÖYÜ)",
      "area": "MERKEZKÖYLER",
      "postal_code": "64050"
    },
    {
      "id": 69505,
      "district_id": 930,
      "name": "ELİFCİKLER MAH (SARIDERE KÖYÜ)",
      "area": "MERKEZKÖYLER",
      "postal_code": "64050"
    },
    {
      "id": 69506,
      "district_id": 930,
      "name": "ELMACIK KÖYÜ",
      "area": "MERKEZKÖYLER",
      "postal_code": "64050"
    },
    {
      "id": 69507,
      "district_id": 930,
      "name": "ELMALIDERE MAH",
      "area": "CUMHURİYET",
      "postal_code": "64200"
    },
    {
      "id": 69508,
      "district_id": 930,
      "name": "EMİNOĞLU MAH (ÜÇKUYULAR KÖYÜ)",
      "area": "MERKEZKÖYLER",
      "postal_code": "64050"
    },
    {
      "id": 69509,
      "district_id": 930,
      "name": "ERSÖĞÜT BAĞ EVLERİ MAH (DAĞDEMİRLER KÖYÜ)",
      "area": "MERKEZKÖYLER",
      "postal_code": "64050"
    },
    {
      "id": 69510,
      "district_id": 930,
      "name": "ESELER MAH (GÖKÇEDAL KÖYÜ)",
      "area": "MERKEZKÖYLER",
      "postal_code": "64050"
    },
    {
      "id": 69511,
      "district_id": 930,
      "name": "ESKİ KÖY MAH (EĞLENCE KÖYÜ)",
      "area": "MERKEZKÖYLER",
      "postal_code": "64050"
    },
    {
      "id": 69512,
      "district_id": 930,
      "name": "ESKİGÜNEY KÖYÜ",
      "area": "MERKEZKÖYLER",
      "postal_code": "64050"
    },
    {
      "id": 69513,
      "district_id": 930,
      "name": "ESKİSARAY KÖYÜ",
      "area": "MERKEZKÖYLER",
      "postal_code": "64050"
    },
    {
      "id": 69514,
      "district_id": 930,
      "name": "ESKİSARAY MAH (ESKİSARAY KÖYÜ)",
      "area": "MERKEZKÖYLER",
      "postal_code": "64050"
    },
    {
      "id": 69515,
      "district_id": 930,
      "name": "EYNEHAN KÖY MERKEZİ",
      "area": "MERKEZKÖYLER",
      "postal_code": "64050"
    },
    {
      "id": 69516,
      "district_id": 930,
      "name": "FAKILI KÖYÜ",
      "area": "MERKEZKÖYLER",
      "postal_code": "64050"
    },
    {
      "id": 69517,
      "district_id": 930,
      "name": "FATİH MAH",
      "area": "CUMHURİYET",
      "postal_code": "64200"
    },
    {
      "id": 69518,
      "district_id": 930,
      "name": "FEVZİ ÇAKMAK MAH",
      "area": "CUMHURİYET",
      "postal_code": "64200"
    },
    {
      "id": 69519,
      "district_id": 930,
      "name": "GACARLAR MAH (ÜÇKUYULAR KÖYÜ)",
      "area": "MERKEZKÖYLER",
      "postal_code": "64050"
    },
    {
      "id": 69520,
      "district_id": 930,
      "name": "GAZAHMET DERESİ MAH (CİĞERDEDE KÖYÜ)",
      "area": "MERKEZKÖYLER",
      "postal_code": "64050"
    },
    {
      "id": 69521,
      "district_id": 930,
      "name": "GEYİKLER MAH (ÇATALBAYIR KÖYÜ)",
      "area": "MERKEZKÖYLER",
      "postal_code": "64050"
    },
    {
      "id": 69522,
      "district_id": 930,
      "name": "GÖÇÜK MAH (EĞLENCE KÖYÜ)",
      "area": "MERKEZKÖYLER",
      "postal_code": "64050"
    },
    {
      "id": 69523,
      "district_id": 930,
      "name": "GÖÇÜKLER MAH (ÜÇKUYULAR KÖYÜ)",
      "area": "MERKEZKÖYLER",
      "postal_code": "64050"
    },
    {
      "id": 69524,
      "district_id": 930,
      "name": "GÖĞEM KÖYÜ",
      "area": "MERKEZKÖYLER",
      "postal_code": "64050"
    },
    {
      "id": 69525,
      "district_id": 930,
      "name": "GÖKÇETEPE KÖYÜ",
      "area": "MERKEZKÖYLER",
      "postal_code": "64050"
    },
    {
      "id": 69526,
      "district_id": 930,
      "name": "GÖKDERE MAH (GÖKÇEDAL KÖYÜ)",
      "area": "MERKEZKÖYLER",
      "postal_code": "64050"
    },
    {
      "id": 69527,
      "district_id": 930,
      "name": "GÖL MAH (GÖĞEM KÖYÜ)",
      "area": "MERKEZKÖYLER",
      "postal_code": "64050"
    },
    {
      "id": 69528,
      "district_id": 930,
      "name": "GÜCER KÖYÜ",
      "area": "MERKEZKÖYLER",
      "postal_code": "64050"
    },
    {
      "id": 69529,
      "district_id": 930,
      "name": "GÜCER MAH (GÜCER KÖYÜ)",
      "area": "MERKEZKÖYLER",
      "postal_code": "64050"
    },
    {
      "id": 69530,
      "district_id": 930,
      "name": "GÜLDEZLER MAH (BOZKÖY KÖYÜ)",
      "area": "MERKEZKÖYLER",
      "postal_code": "64050"
    },
    {
      "id": 69531,
      "district_id": 930,
      "name": "GÜNELİ KÖYÜ",
      "area": "MERKEZKÖYLER",
      "postal_code": "64050"
    },
    {
      "id": 69532,
      "district_id": 930,
      "name": "HACI APTİLER MAH (AKBULAK KÖYÜ)",
      "area": "MERKEZKÖYLER",
      "postal_code": "64050"
    },
    {
      "id": 69533,
      "district_id": 930,
      "name": "HACI HÜSEYİNLER MAH (SELVİOĞLU KÖYÜ)",
      "area": "MERKEZKÖYLER",
      "postal_code": "64050"
    },
    {
      "id": 69534,
      "district_id": 930,
      "name": "HACI İMAMLAR MAH (CİĞERDEDE KÖYÜ)",
      "area": "MERKEZKÖYLER",
      "postal_code": "64050"
    },
    {
      "id": 69535,
      "district_id": 930,
      "name": "HACI MUSLULAR MAH (DERBENT KÖYÜ)",
      "area": "MERKEZKÖYLER",
      "postal_code": "64050"
    },
    {
      "id": 69536,
      "district_id": 930,
      "name": "HACI ŞERİFLER MAH (KÖPRÜBAŞI KÖYÜ)",
      "area": "MERKEZKÖYLER",
      "postal_code": "64050"
    },
    {
      "id": 69537,
      "district_id": 930,
      "name": "HACIALİLER MAH (YENİKÖY KÖYÜ)",
      "area": "MERKEZKÖYLER",
      "postal_code": "64050"
    },
    {
      "id": 69538,
      "district_id": 930,
      "name": "HACIBEKİRLER MAH (SORKUN KÖYÜ)",
      "area": "MERKEZKÖYLER",
      "postal_code": "64050"
    },
    {
      "id": 69539,
      "district_id": 930,
      "name": "HACIKADEM MAH",
      "area": "MERKEZKÖYLER",
      "postal_code": "64050"
    },
    {
      "id": 69540,
      "district_id": 930,
      "name": "HACILAR MAH (ZAHMAN KÖYÜ)",
      "area": "MERKEZKÖYLER",
      "postal_code": "64050"
    },
    {
      "id": 69541,
      "district_id": 930,
      "name": "HACIÖMERLİ MAH (ORTABAĞ KÖYÜ)",
      "area": "MERKEZKÖYLER",
      "postal_code": "64050"
    },
    {
      "id": 69542,
      "district_id": 930,
      "name": "HALİLEFENDİÇİFTLİĞİ KÖYÜ",
      "area": "MERKEZKÖYLER",
      "postal_code": "64050"
    },
    {
      "id": 69543,
      "district_id": 930,
      "name": "HAMAM MAH (EMİRFAKILI KÖYÜ)",
      "area": "MERKEZKÖYLER",
      "postal_code": "64050"
    },
    {
      "id": 69544,
      "district_id": 930,
      "name": "HASANLAR MAH (SELVİOĞLU KÖYÜ)",
      "area": "MERKEZKÖYLER",
      "postal_code": "64050"
    },
    {
      "id": 69545,
      "district_id": 930,
      "name": "HASTALLAR MAH (YENİKÖY KÖYÜ)",
      "area": "MERKEZKÖYLER",
      "postal_code": "64050"
    },
    {
      "id": 69546,
      "district_id": 930,
      "name": "HEDİLER MAH (SELVİOĞLU KÖYÜ)",
      "area": "MERKEZKÖYLER",
      "postal_code": "64050"
    },
    {
      "id": 69547,
      "district_id": 930,
      "name": "HIDIRLAR MAH (SELVİOĞLU KÖYÜ)",
      "area": "MERKEZKÖYLER",
      "postal_code": "64050"
    },
    {
      "id": 69548,
      "district_id": 930,
      "name": "HİSAR KÖYÜ",
      "area": "MERKEZKÖYLER",
      "postal_code": "64050"
    },
    {
      "id": 69549,
      "district_id": 930,
      "name": "HOCALAR KÖYÜ",
      "area": "MERKEZKÖYLER",
      "postal_code": "64050"
    },
    {
      "id": 69550,
      "district_id": 930,
      "name": "HOROZCULAR MAH (PAÇACILAR KÖYÜ)",
      "area": "MERKEZKÖYLER",
      "postal_code": "64050"
    },
    {
      "id": 69551,
      "district_id": 930,
      "name": "İKİSARAY MAH",
      "area": "MERKEZKÖYLER",
      "postal_code": "64050"
    },
    {
      "id": 69552,
      "district_id": 930,
      "name": "IŞIK MAH",
      "area": "CUMHURİYET",
      "postal_code": "64200"
    },
    {
      "id": 69553,
      "district_id": 930,
      "name": "İSLİCE MAH",
      "area": "CUMHURİYET",
      "postal_code": "64200"
    },
    {
      "id": 69554,
      "district_id": 930,
      "name": "İSTASYON MAH (DEMİRÖREN KÖYÜ)",
      "area": "MERKEZKÖYLER",
      "postal_code": "64050"
    },
    {
      "id": 69555,
      "district_id": 930,
      "name": "İSTİKLAL MAH (İLYASLI KÖYÜ)",
      "area": "MERKEZKÖYLER",
      "postal_code": "64050"
    },
    {
      "id": 69556,
      "district_id": 930,
      "name": "KABAKLAR KÖYÜ",
      "area": "MERKEZKÖYLER",
      "postal_code": "64050"
    },
    {
      "id": 69557,
      "district_id": 930,
      "name": "KADILAR MAH (PAÇACILAR KÖYÜ)",
      "area": "MERKEZKÖYLER",
      "postal_code": "64050"
    },
    {
      "id": 69558,
      "district_id": 930,
      "name": "KADILAR MAH (ÜÇKUYULAR KÖYÜ)",
      "area": "MERKEZKÖYLER",
      "postal_code": "64050"
    },
    {
      "id": 69559,
      "district_id": 930,
      "name": "KALE MAH (SARIDERE KÖYÜ)",
      "area": "MERKEZKÖYLER",
      "postal_code": "64050"
    },
    {
      "id": 69560,
      "district_id": 930,
      "name": "KALFA MAH",
      "area": "MERKEZKÖYLER",
      "postal_code": "64050"
    },
    {
      "id": 69561,
      "district_id": 930,
      "name": "KAPANCIK KÖYÜ",
      "area": "MERKEZKÖYLER",
      "postal_code": "64050"
    },
    {
      "id": 69562,
      "district_id": 930,
      "name": "KARAAĞAÇ MAH",
      "area": "CUMHURİYET",
      "postal_code": "64200"
    },
    {
      "id": 69563,
      "district_id": 930,
      "name": "KARABACAKLAR MAH (MRK MAH) (SELVİOĞLU KÖYÜ)",
      "area": "MERKEZKÖYLER",
      "postal_code": "64050"
    },
    {
      "id": 69564,
      "district_id": 930,
      "name": "KARABOL MAH (KAYAAĞIL KÖYÜ)",
      "area": "MERKEZKÖYLER",
      "postal_code": "64050"
    },
    {
      "id": 69565,
      "district_id": 930,
      "name": "KARACAHİSAR KÖYÜ",
      "area": "MERKEZKÖYLER",
      "postal_code": "64050"
    },
    {
      "id": 69566,
      "district_id": 930,
      "name": "KARAÇORLAR MAH (MOLLAMUSA KÖYÜ)",
      "area": "MERKEZKÖYLER",
      "postal_code": "64050"
    },
    {
      "id": 69567,
      "district_id": 930,
      "name": "KARAHASAN KÖYÜ",
      "area": "MERKEZKÖYLER",
      "postal_code": "64050"
    },
    {
      "id": 69568,
      "district_id": 930,
      "name": "KARAHASANLAR MAH (KARAKUYU KÖYÜ)",
      "area": "MERKEZKÖYLER",
      "postal_code": "64050"
    },
    {
      "id": 69569,
      "district_id": 930,
      "name": "KARAKAYA MAH (DERBENT KÖYÜ)",
      "area": "MERKEZKÖYLER",
      "postal_code": "64050"
    },
    {
      "id": 69570,
      "district_id": 930,
      "name": "KARAKÖSE KÖYÜ",
      "area": "MERKEZKÖYLER",
      "postal_code": "64050"
    },
    {
      "id": 69571,
      "district_id": 930,
      "name": "KARAÖKSÜZLER MAH (MOLLAMUSA KÖYÜ)",
      "area": "MERKEZKÖYLER",
      "postal_code": "64050"
    },
    {
      "id": 69572,
      "district_id": 930,
      "name": "KARATIRNAK MAH (PAÇACILAR KÖYÜ)",
      "area": "MERKEZKÖYLER",
      "postal_code": "64050"
    },
    {
      "id": 69573,
      "district_id": 930,
      "name": "KARGILAR MAH (KISIK KÖYÜ)",
      "area": "MERKEZKÖYLER",
      "postal_code": "64050"
    },
    {
      "id": 69574,
      "district_id": 930,
      "name": "KARLIK KÖYÜ",
      "area": "MERKEZKÖYLER",
      "postal_code": "64050"
    },
    {
      "id": 69575,
      "district_id": 930,
      "name": "KARMA OSB MAH",
      "area": "MERKEZKÖYLER",
      "postal_code": "64050"
    },
    {
      "id": 69576,
      "district_id": 930,
      "name": "KARŞI MAH (SİRGE KÖYÜ)",
      "area": "MERKEZKÖYLER",
      "postal_code": "64050"
    },
    {
      "id": 69577,
      "district_id": 930,
      "name": "KAŞBELEN MAH (MENDE KÖYÜ)",
      "area": "MERKEZKÖYLER",
      "postal_code": "64050"
    },
    {
      "id": 69578,
      "district_id": 930,
      "name": "KAYAĞIL MAH (KAYAAĞIL KÖYÜ)",
      "area": "MERKEZKÖYLER",
      "postal_code": "64050"
    },
    {
      "id": 69579,
      "district_id": 930,
      "name": "KAYGISIZ DAMLARI MAH (ÇATALBAYIR KÖYÜ)",
      "area": "MERKEZKÖYLER",
      "postal_code": "64050"
    },
    {
      "id": 69580,
      "district_id": 930,
      "name": "KEDİYÜNÜ KÖYÜ",
      "area": "MERKEZKÖYLER",
      "postal_code": "64050"
    },
    {
      "id": 69581,
      "district_id": 930,
      "name": "KELBATMAZ MAH (ÇATALBAYIR KÖYÜ)",
      "area": "MERKEZKÖYLER",
      "postal_code": "64050"
    },
    {
      "id": 69582,
      "district_id": 930,
      "name": "KEMALÖZ MAH",
      "area": "CUMHURİYET",
      "postal_code": "64200"
    },
    {
      "id": 69583,
      "district_id": 930,
      "name": "KESİK MAH (DAĞDEMİRLER KÖYÜ)",
      "area": "MERKEZKÖYLER",
      "postal_code": "64050"
    },
    {
      "id": 69584,
      "district_id": 930,
      "name": "KILCAN KÖYÜ",
      "area": "MERKEZKÖYLER",
      "postal_code": "64050"
    },
    {
      "id": 69585,
      "district_id": 930,
      "name": "KILCAN MAH (KILCAN KÖYÜ)",
      "area": "MERKEZKÖYLER",
      "postal_code": "64050"
    },
    {
      "id": 69586,
      "district_id": 930,
      "name": "KIRAN MAH (KÖPRÜBAŞI KÖYÜ)",
      "area": "MERKEZKÖYLER",
      "postal_code": "64050"
    },
    {
      "id": 69587,
      "district_id": 930,
      "name": "KİREMİTCİLER  2 MAH (EMİRFAKILI KÖYÜ)",
      "area": "MERKEZKÖYLER",
      "postal_code": "64050"
    },
    {
      "id": 69588,
      "district_id": 930,
      "name": "KİREMİTCİLER 1 MAH (EMİRFAKILI KÖYÜ)",
      "area": "MERKEZKÖYLER",
      "postal_code": "64050"
    },
    {
      "id": 69589,
      "district_id": 930,
      "name": "KIRHALLAR MAH (ARAPLAR MAH) (KARAKUYU KÖYÜ)",
      "area": "MERKEZKÖYLER",
      "postal_code": "64050"
    },
    {
      "id": 69590,
      "district_id": 930,
      "name": "KIRKA KÖYÜ",
      "area": "MERKEZKÖYLER",
      "postal_code": "64050"
    },
    {
      "id": 69591,
      "district_id": 930,
      "name": "KISIK KÖYÜ",
      "area": "MERKEZKÖYLER",
      "postal_code": "64050"
    },
    {
      "id": 69592,
      "district_id": 930,
      "name": "KİTAPCILAR MAH (ÜÇKUYULAR KÖYÜ)",
      "area": "MERKEZKÖYLER",
      "postal_code": "64050"
    },
    {
      "id": 69593,
      "district_id": 930,
      "name": "KOCA ÇUKUR MAH (SELVİOĞLU KÖYÜ)",
      "area": "MERKEZKÖYLER",
      "postal_code": "64050"
    },
    {
      "id": 69594,
      "district_id": 930,
      "name": "KOCADÜZ MAH (GÖKÇEDAL KÖYÜ)",
      "area": "MERKEZKÖYLER",
      "postal_code": "64050"
    },
    {
      "id": 69595,
      "district_id": 930,
      "name": "KÖME MAH",
      "area": "CUMHURİYET",
      "postal_code": "64200"
    },
    {
      "id": 69596,
      "district_id": 930,
      "name": "KÖRLER MAH (CİĞERDEDE KÖYÜ)",
      "area": "MERKEZKÖYLER",
      "postal_code": "64050"
    },
    {
      "id": 69597,
      "district_id": 930,
      "name": "KÖY BAĞLI EVLERİ MAH (GÖKÇEDAL KÖYÜ)",
      "area": "MERKEZKÖYLER",
      "postal_code": "64050"
    },
    {
      "id": 69598,
      "district_id": 930,
      "name": "KÖY MERKEZİ  MAH ( HACINASIFLAR MAH) (MOLLAMUSA KÖYÜ)",
      "area": "MERKEZKÖYLER",
      "postal_code": "64050"
    },
    {
      "id": 69599,
      "district_id": 930,
      "name": "KÖY MERKEZİ  MAH ( SARILAR  MAH) (KÖPRÜBAŞI KÖYÜ)",
      "area": "MERKEZKÖYLER",
      "postal_code": "64050"
    },
    {
      "id": 69600,
      "district_id": 930,
      "name": "KÖY MERKEZİ  MAH (KARAÇAYIR MAH) (PAÇACILAR KÖYÜ)",
      "area": "MERKEZKÖYLER",
      "postal_code": "64050"
    },
    {
      "id": 69601,
      "district_id": 930,
      "name": "KÖY MERKEZİ MAH (AKBULAK KÖYÜ)",
      "area": "MERKEZKÖYLER",
      "postal_code": "64050"
    },
    {
      "id": 69602,
      "district_id": 930,
      "name": "KÖY MERKEZİ MAH (BUĞDAYLI KÖYÜ)",
      "area": "MERKEZKÖYLER",
      "postal_code": "64050"
    },
    {
      "id": 69603,
      "district_id": 930,
      "name": "KÖY MERKEZİ MAH (ÇAMYAZI KÖYÜ)",
      "area": "MERKEZKÖYLER",
      "postal_code": "64050"
    },
    {
      "id": 69604,
      "district_id": 930,
      "name": "KÖY MERKEZİ MAH (ÇATALBAYIR KÖYÜ)",
      "area": "MERKEZKÖYLER",
      "postal_code": "64050"
    },
    {
      "id": 69605,
      "district_id": 930,
      "name": "KÖY MERKEZİ MAH (DAĞDEMİRLER KÖYÜ)",
      "area": "MERKEZKÖYLER",
      "postal_code": "64050"
    },
    {
      "id": 69606,
      "district_id": 930,
      "name": "KÖY MERKEZİ MAH (DERBENT KÖYÜ)",
      "area": "MERKEZKÖYLER",
      "postal_code": "64050"
    },
    {
      "id": 69607,
      "district_id": 930,
      "name": "KÖY MERKEZİ MAH (DIŞKAYA KÖYÜ)",
      "area": "MERKEZKÖYLER",
      "postal_code": "64050"
    },
    {
      "id": 69608,
      "district_id": 930,
      "name": "KÖY MERKEZİ MAH (EĞLENCE KÖYÜ)",
      "area": "MERKEZKÖYLER",
      "postal_code": "64050"
    },
    {
      "id": 69609,
      "district_id": 930,
      "name": "KÖY MERKEZİ MAH (EMİRFAKILI KÖYÜ)",
      "area": "MERKEZKÖYLER",
      "postal_code": "64050"
    },
    {
      "id": 69610,
      "district_id": 930,
      "name": "KÖY MERKEZİ MAH (İMAMLAR MAH) (ÜÇKUYULAR KÖYÜ)",
      "area": "MERKEZKÖYLER",
      "postal_code": "64050"
    },
    {
      "id": 69611,
      "district_id": 930,
      "name": "KÖY MERKEZİ MAH (KARABEYLİ KÖYÜ)",
      "area": "MERKEZKÖYLER",
      "postal_code": "64050"
    },
    {
      "id": 69612,
      "district_id": 930,
      "name": "KÖY MERKEZİ MAH (KARAKUYU KÖYÜ)",
      "area": "MERKEZKÖYLER",
      "postal_code": "64050"
    },
    {
      "id": 69613,
      "district_id": 930,
      "name": "KÖY MERKEZİ MAH (ÖRENCİK KÖYÜ)",
      "area": "MERKEZKÖYLER",
      "postal_code": "64050"
    },
    {
      "id": 69614,
      "district_id": 930,
      "name": "KÖY MERKEZİ MAH (ORTABAĞ KÖYÜ)",
      "area": "MERKEZKÖYLER",
      "postal_code": "64050"
    },
    {
      "id": 69615,
      "district_id": 930,
      "name": "KÖY MERKEZİ MAH (SARIDERE KÖYÜ)",
      "area": "MERKEZKÖYLER",
      "postal_code": "64050"
    },
    {
      "id": 69616,
      "district_id": 930,
      "name": "KÖY MERKEZİ MAH (SİRGE KÖYÜ)",
      "area": "MERKEZKÖYLER",
      "postal_code": "64050"
    },
    {
      "id": 69617,
      "district_id": 930,
      "name": "KÖY MERKEZİ MAH (TAŞKONAK KÖYÜ)",
      "area": "MERKEZKÖYLER",
      "postal_code": "64050"
    },
    {
      "id": 69618,
      "district_id": 930,
      "name": "KÖY MERKEZİ MAH (YAVİ KÖYÜ)",
      "area": "MERKEZKÖYLER",
      "postal_code": "64050"
    },
    {
      "id": 69619,
      "district_id": 930,
      "name": "KOYUNBEYLİ KÖYÜ",
      "area": "MERKEZKÖYLER",
      "postal_code": "64050"
    },
    {
      "id": 69620,
      "district_id": 930,
      "name": "KOZBURUN MAH (BOYALI KÖYÜ)",
      "area": "MERKEZKÖYLER",
      "postal_code": "64050"
    },
    {
      "id": 69621,
      "district_id": 930,
      "name": "KÜÇÜK DERBENT MAH (DERBENT KÖYÜ)",
      "area": "MERKEZKÖYLER",
      "postal_code": "64050"
    },
    {
      "id": 69622,
      "district_id": 930,
      "name": "KUNDAKLAR MAH (DIŞKAYA KÖYÜ)",
      "area": "MERKEZKÖYLER",
      "postal_code": "64050"
    },
    {
      "id": 69623,
      "district_id": 930,
      "name": "KÜPLEMEZLER MAH (CİĞERDEDE KÖYÜ)",
      "area": "MERKEZKÖYLER",
      "postal_code": "64050"
    },
    {
      "id": 69624,
      "district_id": 930,
      "name": "KÜPLEMEZLER MAH (EYNEHAN KÖYÜ)",
      "area": "MERKEZKÖYLER",
      "postal_code": "64050"
    },
    {
      "id": 69625,
      "district_id": 930,
      "name": "KURŞUNLUK MAH",
      "area": "MERKEZKÖYLER",
      "postal_code": "64050"
    },
    {
      "id": 69626,
      "district_id": 930,
      "name": "KURTULUŞ MAH",
      "area": "CUMHURİYET",
      "postal_code": "64200"
    },
    {
      "id": 69627,
      "district_id": 930,
      "name": "KURUGEDİK MAH (MOLLAMUSA KÖYÜ)",
      "area": "MERKEZKÖYLER",
      "postal_code": "64050"
    },
    {
      "id": 69628,
      "district_id": 930,
      "name": "KUŞOĞLANLAR MAH (MENDE KÖYÜ)",
      "area": "MERKEZKÖYLER",
      "postal_code": "64050"
    },
    {
      "id": 69629,
      "district_id": 930,
      "name": "KUYUCAK MAH",
      "area": "MERKEZKÖYLER",
      "postal_code": "64050"
    },
    {
      "id": 69630,
      "district_id": 930,
      "name": "KUZANLAR MAH (TAŞKONAK KÖYÜ)",
      "area": "MERKEZKÖYLER",
      "postal_code": "64050"
    },
    {
      "id": 69631,
      "district_id": 930,
      "name": "MEHMET AKİF ERSOY MAH",
      "area": "CUMHURİYET",
      "postal_code": "64200"
    },
    {
      "id": 69632,
      "district_id": 930,
      "name": "MENDE KÖYÜ",
      "area": "MERKEZKÖYLER",
      "postal_code": "64050"
    },
    {
      "id": 69633,
      "district_id": 930,
      "name": "MERKEZ MAH (GÜRE KÖYÜ)",
      "area": "MERKEZKÖYLER",
      "postal_code": "64050"
    },
    {
      "id": 69634,
      "district_id": 930,
      "name": "MERKEZ MAH.  MAH (NADARA MAH) (GÖKÇEDAL KÖYÜ)",
      "area": "MERKEZKÖYLER",
      "postal_code": "64050"
    },
    {
      "id": 69635,
      "district_id": 930,
      "name": "MERMERDİREK MAH (ÇATALBAYIR KÖYÜ)",
      "area": "MERKEZKÖYLER",
      "postal_code": "64050"
    },
    {
      "id": 69636,
      "district_id": 930,
      "name": "MEZARDERESİ MAH (GÖKÇEDAL KÖYÜ)",
      "area": "MERKEZKÖYLER",
      "postal_code": "64050"
    },
    {
      "id": 69637,
      "district_id": 930,
      "name": "MUHARREMŞAH MAH",
      "area": "MERKEZKÖYLER",
      "postal_code": "64050"
    },
    {
      "id": 69638,
      "district_id": 930,
      "name": "MUSALAR MAH (ÜÇKUYULAR KÖYÜ)",
      "area": "MERKEZKÖYLER",
      "postal_code": "64050"
    },
    {
      "id": 69639,
      "district_id": 930,
      "name": "MUSLUOĞLU MAH (DERBENT KÖYÜ)",
      "area": "MERKEZKÖYLER",
      "postal_code": "64050"
    },
    {
      "id": 69640,
      "district_id": 930,
      "name": "ÖMERLİ MAH (DIŞKAYA KÖYÜ)",
      "area": "MERKEZKÖYLER",
      "postal_code": "64050"
    },
    {
      "id": 69641,
      "district_id": 930,
      "name": "ÖRENCİK TERMAL TESİSLERİ MAH (ÖRENCİK KÖYÜ)",
      "area": "MERKEZKÖYLER",
      "postal_code": "64050"
    },
    {
      "id": 69642,
      "district_id": 930,
      "name": "ORMANDAMI KÖYÜ",
      "area": "MERKEZKÖYLER",
      "postal_code": "64050"
    },
    {
      "id": 69643,
      "district_id": 930,
      "name": "ORTA MAH (ÇAMYAZI KÖYÜ)",
      "area": "MERKEZKÖYLER",
      "postal_code": "64050"
    },
    {
      "id": 69644,
      "district_id": 930,
      "name": "ORTABURUN MAH (DERBENT KÖYÜ)",
      "area": "MERKEZKÖYLER",
      "postal_code": "64050"
    },
    {
      "id": 69645,
      "district_id": 930,
      "name": "ORTAKÖY KÖYÜ",
      "area": "MERKEZKÖYLER",
      "postal_code": "64050"
    },
    {
      "id": 69646,
      "district_id": 930,
      "name": "OVADEMİRLER MAH",
      "area": "CUMHURİYET",
      "postal_code": "64200"
    },
    {
      "id": 69647,
      "district_id": 930,
      "name": "ÖZDEMİR MAH",
      "area": "CUMHURİYET",
      "postal_code": "64200"
    },
    {
      "id": 69648,
      "district_id": 930,
      "name": "PAYAMLI MAH (DERBENT KÖYÜ)",
      "area": "MERKEZKÖYLER",
      "postal_code": "64050"
    },
    {
      "id": 69649,
      "district_id": 930,
      "name": "PIRTILAR MAH (CİĞERDEDE KÖYÜ)",
      "area": "MERKEZKÖYLER",
      "postal_code": "64050"
    },
    {
      "id": 69650,
      "district_id": 930,
      "name": "RAMAZANLAR MAH (KARABEYLİ KÖYÜ)",
      "area": "MERKEZKÖYLER",
      "postal_code": "64050"
    },
    {
      "id": 69651,
      "district_id": 930,
      "name": "SARAYALTI MAH",
      "area": "CUMHURİYET",
      "postal_code": "64200"
    },
    {
      "id": 69652,
      "district_id": 930,
      "name": "SARMAŞIK MAH (PAÇACILAR KÖYÜ)",
      "area": "MERKEZKÖYLER",
      "postal_code": "64050"
    },
    {
      "id": 69653,
      "district_id": 930,
      "name": "SAYALAR MAH (ÜÇKUYULAR KÖYÜ)",
      "area": "MERKEZKÖYLER",
      "postal_code": "64050"
    },
    {
      "id": 69654,
      "district_id": 930,
      "name": "ŞEKERLİ MAH (DAĞDEMİRLER KÖYÜ)",
      "area": "MERKEZKÖYLER",
      "postal_code": "64050"
    },
    {
      "id": 69655,
      "district_id": 930,
      "name": "SELİKLER KÖYÜ",
      "area": "MERKEZKÖYLER",
      "postal_code": "64050"
    },
    {
      "id": 69656,
      "district_id": 930,
      "name": "SELVİLER KÖYÜ",
      "area": "MERKEZKÖYLER",
      "postal_code": "64050"
    },
    {
      "id": 69657,
      "district_id": 930,
      "name": "ŞIHHASAN MAH (ÇAMYUVA KÖYÜ)",
      "area": "MERKEZKÖYLER",
      "postal_code": "64050"
    },
    {
      "id": 69658,
      "district_id": 930,
      "name": "SORKUN KÖYÜ",
      "area": "MERKEZKÖYLER",
      "postal_code": "64050"
    },
    {
      "id": 69659,
      "district_id": 930,
      "name": "ŞÜKRANİYE KÖYÜ",
      "area": "MERKEZKÖYLER",
      "postal_code": "64050"
    },
    {
      "id": 69660,
      "district_id": 930,
      "name": "SÜLODERESİ MAH (YENİŞEHİR KÖYÜ)",
      "area": "MERKEZKÖYLER",
      "postal_code": "64050"
    },
    {
      "id": 69661,
      "district_id": 930,
      "name": "SÜMENLİ MAH (DIŞKAYA KÖYÜ)",
      "area": "MERKEZKÖYLER",
      "postal_code": "64050"
    },
    {
      "id": 69662,
      "district_id": 930,
      "name": "SUSUZÖREN KÖYÜ",
      "area": "MERKEZKÖYLER",
      "postal_code": "64050"
    },
    {
      "id": 69663,
      "district_id": 930,
      "name": "TAŞAVLU MAH (GÖKÇEDAL KÖYÜ)",
      "area": "MERKEZKÖYLER",
      "postal_code": "64050"
    },
    {
      "id": 69664,
      "district_id": 930,
      "name": "TATLIPINAR MAH (PAÇACILAR KÖYÜ)",
      "area": "MERKEZKÖYLER",
      "postal_code": "64050"
    },
    {
      "id": 69665,
      "district_id": 930,
      "name": "TAVŞANLAR MAH (TAŞKONAK KÖYÜ)",
      "area": "MERKEZKÖYLER",
      "postal_code": "64050"
    },
    {
      "id": 69666,
      "district_id": 930,
      "name": "TEKSTİL OSB MAH",
      "area": "MERKEZKÖYLER",
      "postal_code": "64050"
    },
    {
      "id": 69667,
      "district_id": 930,
      "name": "TEPE DAMLARI MAH (ESKİSARAY KÖYÜ)",
      "area": "MERKEZKÖYLER",
      "postal_code": "64050"
    },
    {
      "id": 69668,
      "district_id": 930,
      "name": "TEPE MAH (DIŞKAYA KÖYÜ)",
      "area": "MERKEZKÖYLER",
      "postal_code": "64050"
    },
    {
      "id": 69669,
      "district_id": 930,
      "name": "TİLKİLER MAH (PAÇACILAR KÖYÜ)",
      "area": "MERKEZKÖYLER",
      "postal_code": "64050"
    },
    {
      "id": 69670,
      "district_id": 930,
      "name": "TOPALLAR MAH (YENİKÖY KÖYÜ)",
      "area": "MERKEZKÖYLER",
      "postal_code": "64050"
    },
    {
      "id": 69671,
      "district_id": 930,
      "name": "TOSBIYIK MAH (PAÇACILAR KÖYÜ)",
      "area": "MERKEZKÖYLER",
      "postal_code": "64050"
    },
    {
      "id": 69672,
      "district_id": 930,
      "name": "ÜLFETLER MAH (ÜÇKUYULAR KÖYÜ)",
      "area": "MERKEZKÖYLER",
      "postal_code": "64050"
    },
    {
      "id": 69673,
      "district_id": 930,
      "name": "ULUCAK KÖYÜ",
      "area": "MERKEZKÖYLER",
      "postal_code": "64050"
    },
    {
      "id": 69674,
      "district_id": 930,
      "name": "ÜNALAN MAH",
      "area": "CUMHURİYET",
      "postal_code": "64200"
    },
    {
      "id": 69675,
      "district_id": 930,
      "name": "ÜRÜN KÖYÜ",
      "area": "MERKEZKÖYLER",
      "postal_code": "64050"
    },
    {
      "id": 69676,
      "district_id": 930,
      "name": "ÜRÜN MAH (ÜRÜN KÖYÜ)",
      "area": "MERKEZKÖYLER",
      "postal_code": "64050"
    },
    {
      "id": 69677,
      "district_id": 930,
      "name": "USTALAR MAH (ÜÇKUYULAR KÖYÜ)",
      "area": "MERKEZKÖYLER",
      "postal_code": "64050"
    },
    {
      "id": 69678,
      "district_id": 930,
      "name": "UZUN ÇAĞILLI MAH (DERBENT KÖYÜ)",
      "area": "MERKEZKÖYLER",
      "postal_code": "64050"
    },
    {
      "id": 69679,
      "district_id": 930,
      "name": "VELİBEYLER MAH (KÖPRÜBAŞI KÖYÜ)",
      "area": "MERKEZKÖYLER",
      "postal_code": "64050"
    },
    {
      "id": 69680,
      "district_id": 930,
      "name": "VELİKAHYALAR MAH (ÜÇKUYULAR KÖYÜ)",
      "area": "MERKEZKÖYLER",
      "postal_code": "64050"
    },
    {
      "id": 69681,
      "district_id": 930,
      "name": "VEZİRLER MAH (CİĞERDEDE KÖYÜ)",
      "area": "MERKEZKÖYLER",
      "postal_code": "64050"
    },
    {
      "id": 69682,
      "district_id": 930,
      "name": "YAPAĞILAR KÖYÜ",
      "area": "MERKEZKÖYLER",
      "postal_code": "64050"
    },
    {
      "id": 69683,
      "district_id": 930,
      "name": "YAPAĞILAR MAH (YAPAĞILAR KÖYÜ)",
      "area": "MERKEZKÖYLER",
      "postal_code": "64050"
    },
    {
      "id": 69684,
      "district_id": 930,
      "name": "YAŞAMIŞLAR KÖYÜ",
      "area": "MERKEZKÖYLER",
      "postal_code": "64050"
    },
    {
      "id": 69685,
      "district_id": 930,
      "name": "YENİ MAH (HİSAR KÖYÜ)",
      "area": "MERKEZKÖYLER",
      "postal_code": "64050"
    },
    {
      "id": 69686,
      "district_id": 930,
      "name": "YENİKÖY KÖYÜ",
      "area": "MERKEZKÖYLER",
      "postal_code": "64050"
    },
    {
      "id": 69687,
      "district_id": 930,
      "name": "YENİMAHALLE MAH (YAPAĞILAR KÖYÜ)",
      "area": "MERKEZKÖYLER",
      "postal_code": "64050"
    },
    {
      "id": 69688,
      "district_id": 930,
      "name": "YENİŞEHİR KÖYÜ",
      "area": "MERKEZKÖYLER",
      "postal_code": "64050"
    },
    {
      "id": 69689,
      "district_id": 930,
      "name": "YEŞİL KARAAĞAÇ MAH",
      "area": "CUMHURİYET",
      "postal_code": "64200"
    },
    {
      "id": 69690,
      "district_id": 930,
      "name": "YEŞİLDERE KÖYÜ",
      "area": "MERKEZKÖYLER",
      "postal_code": "64050"
    },
    {
      "id": 69691,
      "district_id": 930,
      "name": "YEŞİLYURT MAH (İLYASLI KÖYÜ)",
      "area": "MERKEZKÖYLER",
      "postal_code": "64050"
    },
    {
      "id": 69692,
      "district_id": 930,
      "name": "YİBO MAH (YENİŞEHİR KÖYÜ)",
      "area": "MERKEZKÖYLER",
      "postal_code": "64050"
    },
    {
      "id": 69693,
      "district_id": 930,
      "name": "YOL KENARI SANAYİ MAH (YENİŞEHİR KÖYÜ)",
      "area": "MERKEZKÖYLER",
      "postal_code": "64050"
    },
    {
      "id": 69694,
      "district_id": 930,
      "name": "YONCALI KÖYÜ",
      "area": "MERKEZKÖYLER",
      "postal_code": "64050"
    },
    {
      "id": 69695,
      "district_id": 930,
      "name": "YUKARI MAH (MESUDİYE KÖYÜ)",
      "area": "MERKEZKÖYLER",
      "postal_code": "64050"
    },
    {
      "id": 69696,
      "district_id": 930,
      "name": "YUKARI MAH (YENİ MAH) (ÜÇKUYULAR KÖYÜ)",
      "area": "MERKEZKÖYLER",
      "postal_code": "64050"
    },
    {
      "id": 69697,
      "district_id": 930,
      "name": "ZAHMAN KÖYÜ",
      "area": "MERKEZKÖYLER",
      "postal_code": "64050"
    },
    {
      "id": 69698,
      "district_id": 930,
      "name": "ZEPDERESİ MAH (MESUDİYE KÖYÜ)",
      "area": "MERKEZKÖYLER",
      "postal_code": "64050"
    },
    {
      "id": 69699,
      "district_id": 931,
      "name": "AKARCA KÖYÜ",
      "area": "MERKEZKÖYLER",
      "postal_code": "64802"
    },
    {
      "id": 69700,
      "district_id": 931,
      "name": "AKINCILAR MAH",
      "area": "SİVASLI",
      "postal_code": "64800"
    },
    {
      "id": 69701,
      "district_id": 931,
      "name": "AKINCILAR MAH (AĞAÇBEYLİ KÖYÜ)",
      "area": "SİVASLI",
      "postal_code": "64800"
    },
    {
      "id": 69702,
      "district_id": 931,
      "name": "AKTEPE MAH (AZİZLER KÖYÜ)",
      "area": "MERKEZKÖYLER",
      "postal_code": "64802"
    },
    {
      "id": 69703,
      "district_id": 931,
      "name": "ATATÜRK MAH",
      "area": "SİVASLI",
      "postal_code": "64800"
    },
    {
      "id": 69704,
      "district_id": 931,
      "name": "ATATÜRK MAH (AĞAÇBEYLİ KÖYÜ)",
      "area": "SİVASLI",
      "postal_code": "64800"
    },
    {
      "id": 69705,
      "district_id": 931,
      "name": "ATATÜRK MAH (TATAR BELDESİ)",
      "area": "TATAR",
      "postal_code": "64820"
    },
    {
      "id": 69706,
      "district_id": 931,
      "name": "BAHÇELİEVLER MAH (YAYALAR KÖYÜ)",
      "area": "MERKEZKÖYLER",
      "postal_code": "64802"
    },
    {
      "id": 69707,
      "district_id": 931,
      "name": "BAHÇESARAY MAH (ERİCE KÖYÜ)",
      "area": "MERKEZKÖYLER",
      "postal_code": "64802"
    },
    {
      "id": 69708,
      "district_id": 931,
      "name": "BUDAKLAR KÖYÜ",
      "area": "MERKEZKÖYLER",
      "postal_code": "64802"
    },
    {
      "id": 69709,
      "district_id": 931,
      "name": "CİNOĞLAN KÖYÜ",
      "area": "MERKEZKÖYLER",
      "postal_code": "64802"
    },
    {
      "id": 69710,
      "district_id": 931,
      "name": "ÇUBUK MAH (KARABOYALIK KÖYÜ)",
      "area": "MERKEZKÖYLER",
      "postal_code": "64802"
    },
    {
      "id": 69711,
      "district_id": 931,
      "name": "DEDEBALLAR MAH (TATAR BELDESİ)",
      "area": "TATAR",
      "postal_code": "64820"
    },
    {
      "id": 69712,
      "district_id": 931,
      "name": "ELDENİZ KÖYÜ",
      "area": "MERKEZKÖYLER",
      "postal_code": "64802"
    },
    {
      "id": 69713,
      "district_id": 931,
      "name": "EROĞLU MAH (KETENLİK KÖYÜ)",
      "area": "MERKEZKÖYLER",
      "postal_code": "64802"
    },
    {
      "id": 69714,
      "district_id": 931,
      "name": "EVRENLİ MAH",
      "area": "SİVASLI",
      "postal_code": "64800"
    },
    {
      "id": 69715,
      "district_id": 931,
      "name": "FATİH MAH (PINARBAŞI BELDESİ)",
      "area": "PINARBAŞI",
      "postal_code": "64830"
    },
    {
      "id": 69716,
      "district_id": 931,
      "name": "FEVZİ ÇAKMAK MAH (TATAR BELDESİ)",
      "area": "TATAR",
      "postal_code": "64820"
    },
    {
      "id": 69717,
      "district_id": 931,
      "name": "GAZELLE MAH (ÖZBEYLİ KÖYÜ)",
      "area": "MERKEZKÖYLER",
      "postal_code": "64802"
    },
    {
      "id": 69718,
      "district_id": 931,
      "name": "GÖLBAHÇE MAH",
      "area": "SİVASLI",
      "postal_code": "64800"
    },
    {
      "id": 69719,
      "district_id": 931,
      "name": "GÜLBEY MAH (SELÇİKLER BELDESİ)",
      "area": "SELÇİKLER",
      "postal_code": "64840"
    },
    {
      "id": 69720,
      "district_id": 931,
      "name": "GÜLTEPE MAH (YAYALAR KÖYÜ)",
      "area": "MERKEZKÖYLER",
      "postal_code": "64802"
    },
    {
      "id": 69721,
      "district_id": 931,
      "name": "GÜRSEL MAH (AĞAÇBEYLİ KÖYÜ)",
      "area": "SİVASLI",
      "postal_code": "64800"
    },
    {
      "id": 69722,
      "district_id": 931,
      "name": "HACİM KÖYÜ",
      "area": "MERKEZKÖYLER",
      "postal_code": "64802"
    },
    {
      "id": 69723,
      "district_id": 931,
      "name": "HORZUMLAR MAH (KETENLİK KÖYÜ)",
      "area": "MERKEZKÖYLER",
      "postal_code": "64802"
    },
    {
      "id": 69724,
      "district_id": 931,
      "name": "KARŞI MAH (KETENLİK KÖYÜ)",
      "area": "MERKEZKÖYLER",
      "postal_code": "64802"
    },
    {
      "id": 69725,
      "district_id": 931,
      "name": "KAYLAN MAH (SAZAK KÖYÜ)",
      "area": "MERKEZKÖYLER",
      "postal_code": "64802"
    },
    {
      "id": 69726,
      "district_id": 931,
      "name": "KÖKEZ KÖYÜ",
      "area": "MERKEZKÖYLER",
      "postal_code": "64802"
    },
    {
      "id": 69727,
      "district_id": 931,
      "name": "KÖMÜRCÜ MAH (KETENLİK KÖYÜ)",
      "area": "MERKEZKÖYLER",
      "postal_code": "64802"
    },
    {
      "id": 69728,
      "district_id": 931,
      "name": "KONAK MAH",
      "area": "SİVASLI",
      "postal_code": "64800"
    },
    {
      "id": 69729,
      "district_id": 931,
      "name": "MERKEZ MAH (AZİZLER KÖYÜ)",
      "area": "MERKEZKÖYLER",
      "postal_code": "64802"
    },
    {
      "id": 69730,
      "district_id": 931,
      "name": "MERKEZ MAH (ERİCE KÖYÜ)",
      "area": "MERKEZKÖYLER",
      "postal_code": "64802"
    },
    {
      "id": 69731,
      "district_id": 931,
      "name": "MERKEZ MAH (HANOĞLU KÖYÜ)",
      "area": "MERKEZKÖYLER",
      "postal_code": "64802"
    },
    {
      "id": 69732,
      "district_id": 931,
      "name": "MERKEZ MAH (KARABOYALIK KÖYÜ)",
      "area": "MERKEZKÖYLER",
      "postal_code": "64802"
    },
    {
      "id": 69733,
      "district_id": 931,
      "name": "MERKEZ MAH (KETENLİK KÖYÜ)",
      "area": "MERKEZKÖYLER",
      "postal_code": "64802"
    },
    {
      "id": 69734,
      "district_id": 931,
      "name": "MERKEZ MAH (SAZAK KÖYÜ)",
      "area": "MERKEZKÖYLER",
      "postal_code": "64802"
    },
    {
      "id": 69735,
      "district_id": 931,
      "name": "MERKEZ MAH (YENİERİCE KÖYÜ)",
      "area": "MERKEZKÖYLER",
      "postal_code": "64802"
    },
    {
      "id": 69736,
      "district_id": 931,
      "name": "MESTAN TEPESİ MAH (ÖZBEYLİ KÖYÜ)",
      "area": "MERKEZKÖYLER",
      "postal_code": "64802"
    },
    {
      "id": 69737,
      "district_id": 931,
      "name": "OKLU DERE MAH (ÖZBEYLİ KÖYÜ)",
      "area": "MERKEZKÖYLER",
      "postal_code": "64802"
    },
    {
      "id": 69738,
      "district_id": 931,
      "name": "PINAR MAH (PINARBAŞI BELDESİ)",
      "area": "PINARBAŞI",
      "postal_code": "64830"
    },
    {
      "id": 69739,
      "district_id": 931,
      "name": "PINARCI MAH (HANOĞLU KÖYÜ)",
      "area": "MERKEZKÖYLER",
      "postal_code": "64802"
    },
    {
      "id": 69740,
      "district_id": 931,
      "name": "SALMANLAR KÖYÜ",
      "area": "MERKEZKÖYLER",
      "postal_code": "64802"
    },
    {
      "id": 69741,
      "district_id": 931,
      "name": "SAMATLAR KÖYÜ",
      "area": "MERKEZKÖYLER",
      "postal_code": "64802"
    },
    {
      "id": 69742,
      "district_id": 931,
      "name": "SİNDELLİ MAH (AZİZLER KÖYÜ)",
      "area": "MERKEZKÖYLER",
      "postal_code": "64802"
    },
    {
      "id": 69743,
      "district_id": 931,
      "name": "TEKELİ MAH (KETENLİK KÖYÜ)",
      "area": "MERKEZKÖYLER",
      "postal_code": "64802"
    },
    {
      "id": 69744,
      "district_id": 931,
      "name": "TÜLÜCE MAH (HANOĞLU KÖYÜ)",
      "area": "MERKEZKÖYLER",
      "postal_code": "64802"
    },
    {
      "id": 69745,
      "district_id": 931,
      "name": "YENİ YERLEŞİM ALANI MAH (YENİERİCE KÖYÜ)",
      "area": "MERKEZKÖYLER",
      "postal_code": "64802"
    },
    {
      "id": 69746,
      "district_id": 931,
      "name": "YILDIZTEPE MAH (SELÇİKLER BELDESİ)",
      "area": "SELÇİKLER",
      "postal_code": "64840"
    },
    {
      "id": 69747,
      "district_id": 932,
      "name": "AKKEÇİLİ KÖYÜ",
      "area": "MERKEZKÖYLER",
      "postal_code": "64902"
    },
    {
      "id": 69748,
      "district_id": 932,
      "name": "AKSAZ KÖYÜ",
      "area": "MERKEZKÖYLER",
      "postal_code": "64902"
    },
    {
      "id": 69749,
      "district_id": 932,
      "name": "AKSAZ MAH (AKSAZ KÖYÜ)",
      "area": "MERKEZKÖYLER",
      "postal_code": "64902"
    },
    {
      "id": 69750,
      "district_id": 932,
      "name": "AŞAĞI MAH",
      "area": "ULUBEY",
      "postal_code": "64900"
    },
    {
      "id": 69751,
      "district_id": 932,
      "name": "ATATÜRK MAH (HASKÖY KÖYÜ)",
      "area": "MERKEZKÖYLER",
      "postal_code": "64902"
    },
    {
      "id": 69752,
      "district_id": 932,
      "name": "AVGAN MAH",
      "area": "MERKEZKÖYLER",
      "postal_code": "64902"
    },
    {
      "id": 69753,
      "district_id": 932,
      "name": "BEKDEMİR KÖYÜ",
      "area": "MERKEZKÖYLER",
      "postal_code": "64902"
    },
    {
      "id": 69754,
      "district_id": 932,
      "name": "BÜYÜKKAYALI KÖYÜ",
      "area": "MERKEZKÖYLER",
      "postal_code": "64902"
    },
    {
      "id": 69755,
      "district_id": 932,
      "name": "ÇAMDERE KÖYÜ",
      "area": "MERKEZKÖYLER",
      "postal_code": "64902"
    },
    {
      "id": 69756,
      "district_id": 932,
      "name": "ÇAMİÇİ MAH (KURUDERE KÖYÜ)",
      "area": "MERKEZKÖYLER",
      "postal_code": "64902"
    },
    {
      "id": 69757,
      "district_id": 932,
      "name": "CAMİKEBİR MAH",
      "area": "ULUBEY",
      "postal_code": "64900"
    },
    {
      "id": 69758,
      "district_id": 932,
      "name": "ÇAMLIBEL KÖYÜ",
      "area": "MERKEZKÖYLER",
      "postal_code": "64902"
    },
    {
      "id": 69759,
      "district_id": 932,
      "name": "ÇARDAK KÖYÜ",
      "area": "MERKEZKÖYLER",
      "postal_code": "64902"
    },
    {
      "id": 69760,
      "district_id": 932,
      "name": "ÇIRPICILAR KÖYÜ",
      "area": "MERKEZKÖYLER",
      "postal_code": "64902"
    },
    {
      "id": 69761,
      "district_id": 932,
      "name": "DEREDAM MAH (İNAY KÖYÜ)",
      "area": "MERKEZKÖYLER",
      "postal_code": "64902"
    },
    {
      "id": 69762,
      "district_id": 932,
      "name": "DİLAVER MAH",
      "area": "ULUBEY",
      "postal_code": "64900"
    },
    {
      "id": 69763,
      "district_id": 932,
      "name": "DÖRT DEĞİRMEN MAH (SÜLÜMENLİ KÖYÜ)",
      "area": "MERKEZKÖYLER",
      "postal_code": "64902"
    },
    {
      "id": 69764,
      "district_id": 932,
      "name": "DUTLUCA KÖYÜ",
      "area": "MERKEZKÖYLER",
      "postal_code": "64902"
    },
    {
      "id": 69765,
      "district_id": 932,
      "name": "EMİRLER MAH",
      "area": "ULUBEY",
      "postal_code": "64900"
    },
    {
      "id": 69766,
      "district_id": 932,
      "name": "GEDİKLER KÖYÜ",
      "area": "MERKEZKÖYLER",
      "postal_code": "64902"
    },
    {
      "id": 69767,
      "district_id": 932,
      "name": "GÖLBAŞI MAH",
      "area": "ULUBEY",
      "postal_code": "64900"
    },
    {
      "id": 69768,
      "district_id": 932,
      "name": "GÜMÜŞKOL KÖYÜ",
      "area": "MERKEZKÖYLER",
      "postal_code": "64902"
    },
    {
      "id": 69769,
      "district_id": 932,
      "name": "HACI HASANLAR MAH (GEDİKLER KÖYÜ)",
      "area": "MERKEZKÖYLER",
      "postal_code": "64902"
    },
    {
      "id": 69770,
      "district_id": 932,
      "name": "HANYERİ KÖYÜ",
      "area": "MERKEZKÖYLER",
      "postal_code": "64902"
    },
    {
      "id": 69771,
      "district_id": 932,
      "name": "İNAY KÖYÜ",
      "area": "MERKEZKÖYLER",
      "postal_code": "64902"
    },
    {
      "id": 69772,
      "district_id": 932,
      "name": "İSHAKLAR KÖYÜ",
      "area": "MERKEZKÖYLER",
      "postal_code": "64902"
    },
    {
      "id": 69773,
      "district_id": 932,
      "name": "İSMET PAŞA MAH (HASKÖY KÖYÜ)",
      "area": "MERKEZKÖYLER",
      "postal_code": "64902"
    },
    {
      "id": 69774,
      "district_id": 932,
      "name": "İSTASYON MAH (İNAY KÖYÜ)",
      "area": "MERKEZKÖYLER",
      "postal_code": "64902"
    },
    {
      "id": 69775,
      "district_id": 932,
      "name": "KARACAAHMET KÖYÜ",
      "area": "MERKEZKÖYLER",
      "postal_code": "64902"
    },
    {
      "id": 69776,
      "district_id": 932,
      "name": "KIRAN KÖYÜ",
      "area": "MERKEZKÖYLER",
      "postal_code": "64902"
    },
    {
      "id": 69777,
      "district_id": 932,
      "name": "KÖSELER KÖYÜ",
      "area": "MERKEZKÖYLER",
      "postal_code": "64902"
    },
    {
      "id": 69778,
      "district_id": 932,
      "name": "KÜÇÜKİLYASLI KÖYÜ",
      "area": "MERKEZKÖYLER",
      "postal_code": "64902"
    },
    {
      "id": 69779,
      "district_id": 932,
      "name": "KÜÇÜKKAYALI KÖYÜ",
      "area": "MERKEZKÖYLER",
      "postal_code": "64902"
    },
    {
      "id": 69780,
      "district_id": 932,
      "name": "KÜLÇEN KÖYÜ",
      "area": "MERKEZKÖYLER",
      "postal_code": "64902"
    },
    {
      "id": 69781,
      "district_id": 932,
      "name": "KURUDERE KÖYÜ",
      "area": "MERKEZKÖYLER",
      "postal_code": "64902"
    },
    {
      "id": 69782,
      "district_id": 932,
      "name": "MERDİVENLİ MAH (İNAY KÖYÜ)",
      "area": "MERKEZKÖYLER",
      "postal_code": "64902"
    },
    {
      "id": 69783,
      "district_id": 932,
      "name": "MERKEZ MAH (KIŞLA KÖYÜ)",
      "area": "MERKEZKÖYLER",
      "postal_code": "64902"
    },
    {
      "id": 69784,
      "district_id": 932,
      "name": "MERKEZ MAH (OMURCA KÖYÜ)",
      "area": "MERKEZKÖYLER",
      "postal_code": "64902"
    },
    {
      "id": 69785,
      "district_id": 932,
      "name": "ÖREN MAH (SÖĞÜTLÜ KÖYÜ)",
      "area": "MERKEZKÖYLER",
      "postal_code": "64902"
    },
    {
      "id": 69786,
      "district_id": 932,
      "name": "SEVİNDİKLER MAH (KÖSELER KÖYÜ)",
      "area": "MERKEZKÖYLER",
      "postal_code": "64902"
    },
    {
      "id": 69787,
      "district_id": 932,
      "name": "SÖĞÜTLÜ KÖYÜ",
      "area": "MERKEZKÖYLER",
      "postal_code": "64902"
    },
    {
      "id": 69788,
      "district_id": 932,
      "name": "SÜLÜMENLİ KÖYÜ",
      "area": "MERKEZKÖYLER",
      "postal_code": "64902"
    },
    {
      "id": 69789,
      "district_id": 932,
      "name": "ÜYÜKBAŞI MAH",
      "area": "ULUBEY",
      "postal_code": "64900"
    },
    {
      "id": 69790,
      "district_id": 932,
      "name": "YENİCE MAH (İSHAKLAR KÖYÜ)",
      "area": "MERKEZKÖYLER",
      "postal_code": "64902"
    }
  ]
}